name,categories,address,lat,lng,labeledLatLngs,distance,cc,city,state,country,formattedAddress,crossStreet,postalCode,neighborhood,id
Khun Kae Juice Bar,Juice Bar,Moon Muang Soi 7,18.792817963581400,98.99167947208070,"[{'label': 'display', 'lat': 18.792817963581363, 'lng': 98.99167947208073}]",439,TH,เมืองเชียงใหม่,เชียงใหม่,ประเทศไทย,"['Moon Muang Soi 7', 'เมืองเชียงใหม่', 'เชียงใหม่', 'ประเทศไทย']",,,,50c03bfde4b0c4d42f4aa69c
Wat Phra Singh Waramahavihan (วัดพระสิงห์วรมหาวิหาร),Buddhist Temple,Samlan Rd,18.78857860553440,98.98205251033950,"[{'label': 'display', 'lat': 18.78857860553444, 'lng': 98.98205251033949}]",681,TH,เมืองเชียงใหม่,เชียงใหม่,ประเทศไทย,"['Samlan Rd (Ratchadamnoen Rd)', 'เมืองเชียงใหม่', 'เชียงใหม่ 50000', 'ประเทศไทย']",Ratchadamnoen Rd,50000,,4c2ae2aa57a9c9b6e02ff567
Green Tiger Vegetarian House,Hostel,,18.794745940111600,98.98434337077370,"[{'label': 'display', 'lat': 18.794745940111568, 'lng': 98.98434337077371}]",581,TH,เมืองเชียงใหม่,เชียงใหม่,ประเทศไทย,"['เมืองเชียงใหม่', 'เชียงใหม่ 50200', 'ประเทศไทย']",,50200,,53e3d601498ef9d06b2de1aa
North Gate Jazz Co-Op,Jazz Club,91/1-2 Sri Poom Rd.,18.795339145276800,98.98704445728310,"[{'label': 'display', 'lat': 18.795339145276785, 'lng': 98.98704445728309}]",507,TH,เมืองเชียงใหม่,เชียงใหม่,ประเทศไทย,"['91/1-2 Sri Poom Rd. (inside the moat just east of Chang Puak Gate)', 'เมืองเชียงใหม่', 'เชียงใหม่ 50200', 'ประเทศไทย']",inside the moat just east of Chang Puak Gate,50200,,4b67fa22f964a520b3622be3
Patara Elephant Farm,Farm,,18.78965934845210,98.98303420224240,"[{'label': 'display', 'lat': 18.78965934845213, 'lng': 98.98303420224242}]",545,TH,,,ประเทศไทย,['ประเทศไทย'],,,,4cd51c0f7da9a35d5cade7b9
Its Good Kitchen,Asian Restaurant,175/6 Ratchadamnoen Rd,18.788487621742500,98.98311642741970,"[{'label': 'display', 'lat': 18.788487621742455, 'lng': 98.98311642741973}]",583,TH,เมืองเชียงใหม่,เชียงใหม่,ประเทศไทย,"['175/6 Ratchadamnoen Rd', 'เมืองเชียงใหม่', 'เชียงใหม่', 'ประเทศไทย']",,,,55b20882498e503d713281e1
Akha Ama Coffee La Fattoria,Coffee Shop,"Ratchadamnoen Road, Prasingh",18.788392505611200,98.98331384416870,"[{'label': 'display', 'lat': 18.788392505611224, 'lng': 98.98331384416873}]",570,TH,เมืองเชียงใหม่,เชียงใหม่,ประเทศไทย,"['Ratchadamnoen Road, Prasingh', 'เมืองเชียงใหม่', 'เชียงใหม่ 50200', 'ประเทศไทย']",,50200,,51b98562498eb59c591d4139
Ming Kwan Vegetarian Food (มิ่งขวัญ อาหารเจ),Vegetarian / Vegan Restaurant,Phra Singha,18.788443053996200,98.98358131109270,"[{'label': 'display', 'lat': 18.788443053996158, 'lng': 98.98358131109266}]",543,TH,เมืองเชียงใหม่,เชียงใหม่,ประเทศไทย,"['Phra Singha (Rajadamnuen)', 'เมืองเชียงใหม่', 'เชียงใหม่', 'ประเทศไทย']",Rajadamnuen,,,4f680bbce4b0cdd88f4f70ab
Stamps Backpackers,Hostel,1/11 Chaiyapoom Soi 1,18.792558535847400,98.99412969110790,"[{'label': 'display', 'lat': 18.792558535847384, 'lng': 98.99412969110787}]",667,TH,เมืองเชียงใหม่,เชียงใหม่,ประเทศไทย,"['1/11 Chaiyapoom Soi 1', 'เมืองเชียงใหม่', 'เชียงใหม่', 'ประเทศไทย']",,,,56e2cd4b498e85d4f8b251bf
Mana Sticky Rice (ข้าวเหนียวมานะ),Food Truck,Ratvithi Rd.,18.790667661250500,98.98946944136700,"[{'label': 'display', 'lat': 18.790667661250474, 'lng': 98.98946944136704}]",151,TH,เมืองเชียงใหม่,เชียงใหม่,ประเทศไทย,"['Ratvithi Rd. (opp Yupparaj Wittayalai School)', 'เมืองเชียงใหม่', 'เชียงใหม่ 50200', 'ประเทศไทย']",opp Yupparaj Wittayalai School,50200,,4d032b702f96f04d40621654
Rachamankha Hotel,Hotel,Rachamankha Soi 9,18.787145259287900,98.98012721101820,"[{'label': 'display', 'lat': 18.787145259287854, 'lng': 98.98012721101816}]",932,TH,เมืองเชียงใหม่,เชียงใหม่,ประเทศไทย,"['Rachamankha Soi 9', 'เมืองเชียงใหม่', 'เชียงใหม่ 50200', 'ประเทศไทย']",,50200,,4b63147df964a52087612ae3
Fern Forest Café (เฟิร์น ฟอร์เรส คาเฟ่),Café,2/2 Singharat Soi 4,18.793433838955100,98.98205502256910,"[{'label': 'display', 'lat': 18.793433838955146, 'lng': 98.98205502256906}]",692,TH,เมืองเชียงใหม่,เชียงใหม่,ประเทศไทย,"['2/2 Singharat Soi 4', 'เมืองเชียงใหม่', 'เชียงใหม่ 50200', 'ประเทศไทย']",,50200,,4bc2a6e94cdfc9b6f9719621
MIX KAFFEE,Coffee Shop,,18.79095544884200,98.97847645036480,"[{'label': 'display', 'lat': 18.79095544884199, 'lng': 98.97847645036484}]",1008,TH,,เชียงใหม่,ประเทศไทย,"['เชียงใหม่', 'ประเทศไทย']",,,,559dffe9498eed15c26f11d0
Ai ToMoE Japanese Foods,Japanese Restaurant,Maneenoparat Rd,18.795454152102900,98.9930417957056,"[{'label': 'display', 'lat': 18.795454152102906, 'lng': 98.9930417957056}]",732,TH,เมืองเชียงใหม่,เชียงใหม่,ประเทศไทย,"['Maneenoparat Rd', 'เมืองเชียงใหม่', 'เชียงใหม่ 50200', 'ประเทศไทย']",,50200,,53eb8331498e24556784caed
Morning Glory Thai Vegetarian Restaurant & Cooking Classes,Vegetarian / Vegan Restaurant,46/32 | Ratvithee rd. Sriphum,18.782048812530500,98.98886527252710,"[{'label': 'display', 'lat': 18.782048812530494, 'lng': 98.98886527252714}]",986,TH,เมืองเชียงใหม่,เชียงใหม่,ประเทศไทย,"['46/32 | Ratvithee rd. Sriphum', 'เมืองเชียงใหม่', 'เชียงใหม่ 50200', 'ประเทศไทย']",,50200,,5464d18f498e9ebfe23e162e
Rote Yiam Beef Noodle (รสเยี่ยม),Noodle House,255-257 Moon Mueang Rd.,18.794175368673100,98.99358260756480,"[{'label': 'display', 'lat': 18.794175368673134, 'lng': 98.99358260756482}]",689,TH,เมืองเชียงใหม่,เชียงใหม่,ประเทศไทย,"['255-257 Moon Mueang Rd.', 'เมืองเชียงใหม่', 'เชียงใหม่ 50200', 'ประเทศไทย']",,50200,,4ca7fb6e76d3a0937ea4116b
ตือคาโคช้างม่อย,Snack Place,,18.78983072522600,98.9988923767891,"[{'label': 'display', 'lat': 18.78983072522599, 'lng': 98.9988923767891}]",1148,TH,เมืองเชียงใหม่,เชียงใหม่,ประเทศไทย,"['เมืองเชียงใหม่', 'เชียงใหม่', 'ประเทศไทย']",,,,4c7ce709ad90224b94568b0c
Khao Soi Mae Sai (ข้าวซอยแม่สาย),Noodle House,ซ.ราชพฤกษ์,18.799581757052900,98.9752572402599,"[{'label': 'display', 'lat': 18.799581757052856, 'lng': 98.9752572402599}]",1660,TH,เมืองเชียงใหม่,เชียงใหม่,ประเทศไทย,"['ซ.ราชพฤกษ์', 'เมืองเชียงใหม่', 'เชียงใหม่ 50300', 'ประเทศไทย']",,50300,,4c414ed4ce54e21e73fd0a1a
ต้องลิ้มสุกี้-ชาบู,BBQ Joint,ช้างเผือก,18.798859764868300,98.97967743120660,"[{'label': 'display', 'lat': 18.798859764868315, 'lng': 98.97967743120662}]",1252,TH,เมืองเชียงใหม่,เชียงใหม่,ประเทศไทย,"['ช้างเผือก', 'เมืองเชียงใหม่', 'เชียงใหม่', 'ประเทศไทย']",,,,4e3ea399aeb73139a18899c8
Akha Ama Coffee,Coffee Shop,9/1 Soi Hussadhisewee 3,18.803106368399700,98.98006324221960,"[{'label': 'display', 'lat': 18.803106368399707, 'lng': 98.98006324221963}]",1600,TH,เมืองเชียงใหม่,เชียงใหม่,ประเทศไทย,"['9/1 Soi Hussadhisewee 3', 'เมืองเชียงใหม่', 'เชียงใหม่ 50200', 'ประเทศไทย']",,50200,,4ceb5edaf86537047e7ec2c4
Matsu (มัตสึ),Japanese Restaurant,74/2 Singharat Rd,18.795007814188700,98.98182199158730,"[{'label': 'display', 'lat': 18.795007814188693, 'lng': 98.98182199158734}]",801,TH,เมืองเชียงใหม่,เชียงใหม่,ประเทศไทย,"['74/2 Singharat Rd', 'เมืองเชียงใหม่', 'เชียงใหม่ 50200', 'ประเทศไทย']",,50200,,51069881e4b0cc17d6471343
ช.โภชนา,Chinese Restaurant,,18.795372959934800,98.99074343070450,"[{'label': 'display', 'lat': 18.795372959934816, 'lng': 98.99074343070446}]",575,TH,Sri Phum,เชียงใหม่,ประเทศไทย,"['Sri Phum', 'เชียงใหม่ 50200', 'ประเทศไทย']",,50200,,4cfc35bb2d80a143a30550d8
Pa Fruit Shake (น้ำปั่นป้าผา),Juice Bar,Chaingmai gate,18.781360843561100,98.98793647832550,"[{'label': 'display', 'lat': 18.781360843561135, 'lng': 98.98793647832548}]",1059,TH,Chiang Mai,thailane,ประเทศไทย,"['Chaingmai gate (Chaingmai market)', 'Chiang Mai', 'thailane', 'ประเทศไทย']",Chaingmai market,,,4dcd4456ae603b786d11b412
Kasem Store (เกษมสโตร์),Dessert Shop,19 ถ.ราชวงศ์,18.790893277168300,98.99855162240940,"[{'label': 'display', 'lat': 18.790893277168276, 'lng': 98.99855162240935}]",1106,TH,เมืองเชียงใหม่,เชียงใหม่,ประเทศไทย,"['19 ถ.ราชวงศ์', 'เมืองเชียงใหม่', 'เชียงใหม่', 'ประเทศไทย']",,,,4cea1457678aa09378b4f1ea
Tha Phae Gate (ประตูท่าแพ),Historic Site,Moon Mueang Rd.,18.787822561856700,98.99353821147610,"[{'label': 'display', 'lat': 18.787822561856657, 'lng': 98.99353821147609}]",671,TH,เมืองเชียงใหม่,เชียงใหม่,ประเทศไทย,"['Moon Mueang Rd.', 'เมืองเชียงใหม่', 'เชียงใหม่ 50200', 'ประเทศไทย']",,50200,,4c47ea7e89a6c9b694ed9b88
ไก่ย่างวิเชียรบุรี,Som Tum Restaurant,Nimmana Haeminda Ln 11,18.796761186173900,98.97031769808060,"[{'label': 'display', 'lat': 18.796761186173875, 'lng': 98.97031769808058}]",1980,TH,เมืองเชียงใหม่,เชียงใหม่,ประเทศไทย,"['Nimmana Haeminda Ln 11', 'เมืองเชียงใหม่', 'เชียงใหม่ 50200', 'ประเทศไทย']",,50200,,4ba9c232f964a52001373ae3
Hyde Park Residence Chiang Mai,Bed & Breakfast,59 Soi Chiangkhum,18.785168279392000,98.97238508234380,"[{'label': 'display', 'lat': 18.785168279392003, 'lng': 98.97238508234383}]",1768,TH,Muang Chiang Mai,เชียงใหม่,ประเทศไทย,"['59 Soi Chiangkhum (Suthep Road)', 'Muang Chiang Mai', 'เชียงใหม่ 50200', 'ประเทศไทย']",Suthep Road,50200,,573bda14498e71f0f4b51c3b
Brew Fact,Coffee Shop,,18.795175419769100,98.97202561792220,"[{'label': 'display', 'lat': 18.795175419769073, 'lng': 98.97202561792217}]",1755,TH,เมืองเชียงใหม่,เชียงใหม่,ประเทศไทย,"['เมืองเชียงใหม่', 'เชียงใหม่ 50200', 'ประเทศไทย']",,50200,,591eb174cad1b60e060dafbc
ราชาบะหมี่ เกี๊ยว ปู หมูแดง,Noodle House,Manee Nopparat Road,18.795799782803700,98.9820478231146,"[{'label': 'display', 'lat': 18.795799782803723, 'lng': 98.9820478231146}]",836,TH,เมืองเชียงใหม่,เชียงใหม่,ประเทศไทย,"['Manee Nopparat Road (หน้าดีแทค)', 'เมืองเชียงใหม่', 'เชียงใหม่ 50200', 'ประเทศไทย']",หน้าดีแทค,50200,,4c7cfc5048c6236adc106311
Wat Ket Karam (วัดเกตการาม),Buddhist Temple,96 Charoen Rajd Rd,18.792320772380700,99.00299706272870,"[{'label': 'display', 'lat': 18.792320772380723, 'lng': 99.00299706272868}]",1583,TH,เมืองเชียงใหม่,เชียงใหม่,ประเทศไทย,"['96 Charoen Rajd Rd (Nawatgate Rd.)', 'เมืองเชียงใหม่', 'เชียงใหม่ 50000', 'ประเทศไทย']",Nawatgate Rd.,50000,,4c8b3833770fb60cbf30dac3
Mueang Mai Market (กาดเมืองใหม่),Farmers Market,Wang Sing Kam Rd.,18.796314066230600,98.99807935001140,"[{'label': 'display', 'lat': 18.796314066230636, 'lng': 98.99807935001142}]",1218,TH,เมืองเชียงใหม่,เชียงใหม่,ประเทศไทย,"['Wang Sing Kam Rd. (btwn Mueang Samut Rd. & Wang Sing Kam Rd.)', 'เมืองเชียงใหม่', 'เชียงใหม่ 50300', 'ประเทศไทย']",btwn Mueang Samut Rd. & Wang Sing Kam Rd.,50300,,4c178cf930d30f4766a736a9
ราชาข้าวมันไก่,Thai Restaurant,,18.804378427160700,98.9840572000627,"[{'label': 'display', 'lat': 18.804378427160668, 'lng': 98.9840572000627}]",1560,TH,เมืองเชียงใหม่,เชียงใหม่,ประเทศไทย,"['เมืองเชียงใหม่', 'เชียงใหม่', 'ประเทศไทย']",Thanin Market,,,4ced17654cd4236a74fea563
Flips & Flips Homemade Donuts,Donut Shop,"14 Soi 5 Hussadhisewee Road, Changpuek,",18.803443186680200,98.97977420099500,"[{'label': 'display', 'lat': 18.803443186680163, 'lng': 98.97977420099504}]",1648,TH,เมืองเชียงใหม่,เชียงใหม่,ประเทศไทย,"['14 Soi 5 Hussadhisewee Road, Changpuek,', 'เมืองเชียงใหม่', 'เชียงใหม่', 'ประเทศไทย']",,,,55dc6165498e549f0c9347f7
Khagee (ขจี),Coffee Shop,29-30 Chiang Mai-Lamphun Rd,18.786242741993700,99.00515586535320,"[{'label': 'display', 'lat': 18.786242741993682, 'lng': 99.00515586535316}]",1875,TH,เมืองเชียงใหม่,เชียงใหม่,ประเทศไทย,"['29-30 Chiang Mai-Lamphun Rd', 'เมืองเชียงใหม่', 'เชียงใหม่ 50000', 'ประเทศไทย']",,50000,,518f62c3498eef449f68d3de
Rimping Supermarket (ริมปิง ซุปเปอร์มาร์เก็ต),Supermarket,129 Chiang Mai - Lamphun Road,18.78356908359720,99.00573195960110,"[{'label': 'display', 'lat': 18.78356908359716, 'lng': 99.00573195960105}]",2033,TH,เมืองเชียงใหม่,เชียงใหม่,ประเทศไทย,"['129 Chiang Mai - Lamphun Road (Osthaphan Rd)', 'เมืองเชียงใหม่', 'เชียงใหม่ 50000', 'ประเทศไทย']",Osthaphan Rd,50000,,4c0a00c67e3fc92885faf282
Buak Haat Public Park (สวนสาธารณะหนองบวกหาด),Park,Bamrungburi Rd,18.781864513804500,98.97970620834160,"[{'label': 'display', 'lat': 18.781864513804493, 'lng': 98.97970620834161}]",1333,TH,เมืองเชียงใหม่,เชียงใหม่,ประเทศไทย,"['Bamrungburi Rd (Arak Rd)', 'เมืองเชียงใหม่', 'เชียงใหม่ 50200', 'ประเทศไทย']",Arak Rd,50200,,4b6cf1f6f964a520655f2ce3
Le Méridien Chiang Mai,Hotel,108 Chang Klan Rd.,18.7847382,98.9997142,"[{'label': 'display', 'lat': 18.7847382, 'lng': 98.9997142}]",1406,TH,Mueang Chiang Mai,จ.เชียงใหม่,ประเทศไทย,"['108 Chang Klan Rd.', 'Mueang Chiang Mai', 'จ.เชียงใหม่ 50100', 'ประเทศไทย']",,50100,,4c6e476506ed6dcb8248a622
The Prince Royal's College (โรงเรียนปรินส์รอยแยลส์วิทยาลัย),School,117 Kaeo Nawarat Rd,18.79775242382260,99.00618841202460,,2059,TH,เมืองเชียงใหม่,เชียงใหม่,ประเทศไทย,"['117 Kaeo Nawarat Rd', 'เมืองเชียงใหม่', 'เชียงใหม่ 50000', 'ประเทศไทย']",,50000,,4b66aa8ef964a520e7262be3
ข้าวซอย ข้าวมันไก่ กาดก้อม,Thai Restaurant,Nantharam Rd,18.77458710911260,98.98967511695710,"[{'label': 'display', 'lat': 18.77458710911257, 'lng': 98.98967511695705}]",1821,TH,เมืองเชียงใหม่,เชียงใหม่,ประเทศไทย,"['Nantharam Rd', 'เมืองเชียงใหม่', 'เชียงใหม่ 50100', 'ประเทศไทย']",,50100,,4e4ca0c518a822288dd559e7
Rimping Village Hotel,Hotel,13/1 Chiangmai-Lamphun Rd.,18.78535336735880,99.00665516570860,"[{'label': 'display', 'lat': 18.78535336735877, 'lng': 99.00665516570858}]",2055,TH,เมืองเชียงใหม่,เชียงใหม่,ประเทศไทย,"['13/1 Chiangmai-Lamphun Rd. (Soi 2)', 'เมืองเชียงใหม่', 'เชียงใหม่ 50000', 'ประเทศไทย']",Soi 2,50000,,4bd6eb671728986e702eb735
Oh Ka Jhu Organic Salad & Coffee (โอ้กะจู๋ (Oh Ka Jhu Organic Salad & Coffee)),Salad Place,Nim City Daily,18.772402448753600,98.97821917935510,"[{'label': 'display', 'lat': 18.772402448753553, 'lng': 98.97821917935507}]",2302,TH,เมืองเชียงใหม่,เชียงใหม่,ประเทศไทย,"['Nim City Daily', 'เมืองเชียงใหม่', 'เชียงใหม่', 'ประเทศไทย']",,,,555db13c498ee6527ce13118
Chang Phuek BBQ (หมูกระทะ ช้างเผือก),BBQ Joint,ประตูช้างเผือก,18.795809689254500,98.9870364342774,"[{'label': 'display', 'lat': 18.795809689254497, 'lng': 98.9870364342774}]",559,TH,เมืองเชียงใหม่,เชียงใหม่,ประเทศไทย,"['ประตูช้างเผือก', 'เมืองเชียงใหม่', 'เชียงใหม่ 50300', 'ประเทศไทย']",,50300,,4c7f943a171b224b081911b1
The Rich Coffee House (กาแฟริช),Coffee Shop,Sri Phum Road,18.795251798624500,98.98891329273880,"[{'label': 'display', 'lat': 18.795251798624466, 'lng': 98.98891329273881}]",495,TH,เมืองเชียงใหม่,เชียงใหม่,ประเทศไทย,"['Sri Phum Road', 'เมืองเชียงใหม่', 'เชียงใหม่ 50200', 'ประเทศไทย']",,50200,,4e100f867d8b4d5613cef41d
อุดรรสเด็ด,Thai Restaurant,ถ.ช่างหล่อ,18.781143035882400,98.98486878669570,"[{'label': 'display', 'lat': 18.781143035882405, 'lng': 98.98486878669571}]",1134,TH,Phra Singh,เชียงใหม่,ประเทศไทย,"['ถ.ช่างหล่อ', 'Phra Singh', 'เชียงใหม่', 'ประเทศไทย']",,,,4db6a3aef7b121c29f75f7f8
Elephant Nature Park,Zoo Exhibit,Sridonchai Rd.,18.78167924522440,99.00290966033940,"[{'label': 'display', 'lat': 18.78167924522443, 'lng': 99.00290966033936}]",1871,TH,เมืองเชียงใหม่,เชียงใหม่,ประเทศไทย,"['Sridonchai Rd.', 'เมืองเชียงใหม่', 'เชียงใหม่ 50100', 'ประเทศไทย']",,50100,,4d818227b30888bfc9d8401a
Coca Suki (สุกี้โคคา),Food Truck,ถ.มณีนพรัตน์,18.795809765224000,98.98534823866340,"[{'label': 'display', 'lat': 18.795809765224003, 'lng': 98.98534823866335}]",618,TH,เมืองเชียงใหม่,เชียงใหม่,ประเทศไทย,"['ถ.มณีนพรัตน์ (Chang Phuek Market)', 'เมืองเชียงใหม่', 'เชียงใหม่ 50000', 'ประเทศไทย']",Chang Phuek Market,50000,,4ba4bc84f964a52067b038e3
ไก่ทอดสปัน,Thai Restaurant,ประตูสวนดอก,18.78965427289440,98.97883906155770,"[{'label': 'display', 'lat': 18.78965427289437, 'lng': 98.97883906155772}]",979,TH,เมืองเชียงใหม่,เชียงใหม่,ประเทศไทย,"['ประตูสวนดอก (Arak Rd Soi 5)', 'เมืองเชียงใหม่', 'เชียงใหม่ 50200', 'ประเทศไทย']",Arak Rd Soi 5,50200,,4be68eb6d4f7c9b671df2620
Ice Hub (ไอซ์ ฮับ),Ice Cream Shop,Assadorn Rd,18.80777128306720,98.9948132409995,"[{'label': 'display', 'lat': 18.80777128306722, 'lng': 98.9948132409995}]",2011,TH,เมืองเชียงใหม่,เชียงใหม่,ประเทศไทย,"['Assadorn Rd', 'เมืองเชียงใหม่', 'เชียงใหม่ 50200', 'ประเทศไทย']",,50200,,51247f9be4b0c18b28524698
Shangri-La Hotel,Hotel,89/8 Chang Klan Rd,18.778218456279100,99.0006421652714,"[{'label': 'display', 'lat': 18.778218456279124, 'lng': 99.0006421652714}]",1935,TH,เมืองเชียงใหม่,เชียงใหม่,ประเทศไทย,"['89/8 Chang Klan Rd', 'เมืองเชียงใหม่', 'เชียงใหม่ 50100', 'ประเทศไทย']",,50100,,4ba3896bf964a520654538e3
Toey Dimsum (เต้ยติ่มซำ),Dim Sum Restaurant,165/2-3 Kamphaeng Din Rd.,18.77817066648180,98.99613731991390,"[{'label': 'display', 'lat': 18.77817066648177, 'lng': 98.99613731991394}]",1651,TH,เมืองเชียงใหม่,เชียงใหม่,ประเทศไทย,"['165/2-3 Kamphaeng Din Rd.', 'เมืองเชียงใหม่', 'เชียงใหม่ 50100', 'ประเทศไทย']",,50100,,4d7f56b4f635236a132f7716
The Duke's (เดอะดุ๊ก),American Restaurant,49/4-5 Chiang Mai-Lam Phun Rd.,18.785109,99.00513,"[{'label': 'display', 'lat': 18.785109, 'lng': 99.00513}]",1911,TH,เมืองเชียงใหม่,เชียงใหม่,ประเทศไทย,"['49/4-5 Chiang Mai-Lam Phun Rd.', 'เมืองเชียงใหม่', 'เชียงใหม่ 50000', 'ประเทศไทย']",,50000,,4b8cce7ff964a520addd32e3
OxidePub Chiangmai,Pub,Sod Sueksa Rd,18.8051340759571,98.98041883745550,"[{'label': 'display', 'lat': 18.8051340759571, 'lng': 98.98041883745547}]",1779,TH,Chang Phuak,เชียงใหม่,ประเทศไทย,"['Sod Sueksa Rd', 'Chang Phuak', 'เชียงใหม่ 50300', 'ประเทศไทย']",,50300,,4da03ee2e8a6721eedfa32a5
Ristr8to² (ดอปปิโอ รีสเตรสโต้),Coffee Shop,15/3 Nimmana Haeminda Rd.,18.799131815787100,98.96713679266960,"[{'label': 'display', 'lat': 18.799131815787064, 'lng': 98.96713679266956}]",2387,TH,เมืองเชียงใหม่,เชียงใหม่,ประเทศไทย,"['15/3 Nimmana Haeminda Rd. (btwn Lane 3 & 5)', 'เมืองเชียงใหม่', 'เชียงใหม่ 50200', 'ประเทศไทย']",btwn Lane 3 & 5,50200,,4df88002d164d347cc72a67b
Starbucks (สตาร์บัคส์),Coffee Shop,100 Chang Klan Rd.,18.783791752771600,99.00021882835970,"[{'label': 'display', 'lat': 18.783791752771556, 'lng': 99.00021882835969}]",1505,TH,เมืองเชียงใหม่,เชียงใหม่,ประเทศไทย,"['100 Chang Klan Rd. (at Surawong Hotel)', 'เมืองเชียงใหม่', 'เชียงใหม่ 50200', 'ประเทศไทย']",at Surawong Hotel,50200,,4bc47ed0f8219c740b66b710
Sanpakoi Kanomjeen (ขนมจีนสันป่าข่อย),Noodle House,Tasatoi Rd,18.785688173996700,99.00850530136520,"[{'label': 'display', 'lat': 18.785688173996718, 'lng': 99.00850530136522}]",2231,TH,เมืองเชียงใหม่,เชียงใหม่,ประเทศไทย,"['Tasatoi Rd', 'เมืองเชียงใหม่', 'เชียงใหม่ 50000', 'ประเทศไทย']",,50000,,4b92612ff964a52098f533e3
ข้าวแกง โอรสเด็ด,Thai Restaurant,Charoen Rat Rd,18.80938063478990,99.00454296868500,"[{'label': 'display', 'lat': 18.80938063478992, 'lng': 99.00454296868499}]",2695,TH,เมืองเชียงใหม่,เชียงใหม่,ประเทศไทย,"['Charoen Rat Rd', 'เมืองเชียงใหม่', 'เชียงใหม่ 50000', 'ประเทศไทย']",,50000,,4ba42236f964a520e18438e3
The Barn: Eatery Design (เดอะบาร์น),Coffee Shop,14 Srivichai Rd,18.78747316143430,98.96667585534220,"[{'label': 'display', 'lat': 18.78747316143428, 'lng': 98.96667585534216}]",2283,TH,เมืองเชียงใหม่,เชียงใหม่,ประเทศไทย,"['14 Srivichai Rd (at Soi 4)', 'เมืองเชียงใหม่', 'เชียงใหม่ 50200', 'ประเทศไทย']",at Soi 4,50200,,52088e3811d2e037b2c3eb1a
Arisara Thai Massage,Spa,Nimmanahaeminda road,18.799607383378700,98.96727007076740,"[{'label': 'display', 'lat': 18.799607383378685, 'lng': 98.96727007076741}]",2395,TH,เมืองเชียงใหม่,เชียงใหม่,ประเทศไทย,"['Nimmanahaeminda road', 'เมืองเชียงใหม่', 'เชียงใหม่', 'ประเทศไทย']",,,Tambom Su Thep,4ef9e26ea69dea74fccd554a
ถนอมโภชนาอาหารไทย,Thai Restaurant,ใกล้ๆข่วลประตูท่าแพ,18.788642668621800,98.99361298118260,"[{'label': 'display', 'lat': 18.788642668621804, 'lng': 98.99361298118264}]",636,TH,Sri Phum,เชียงใหม่,ประเทศไทย,"['ใกล้ๆข่วลประตูท่าแพ', 'Sri Phum', 'เชียงใหม่', 'ประเทศไทย']",,,,4d391aaa1a57a1439b748bf3
Nakara Jardin (นครา จาร์แด็ง),Coffee Shop,11 Soi 9 Charoenprathet Road,18.77937360520920,99.0058629596374,"[{'label': 'display', 'lat': 18.77937360520921, 'lng': 99.0058629596374}]",2272,TH,เมืองเชียงใหม่,เชียงใหม่,ประเทศไทย,"['11 Soi 9 Charoenprathet Road', 'เมืองเชียงใหม่', 'เชียงใหม่ 50100', 'ประเทศไทย']",,50100,,50a3d0c7e4b0f1fe64f95705
เฉาก๊วยและลูกชิ้นทอด,Food Truck,หอแพทย์ สวนสุขภาพ,18.793183571608700,98.96827235711490,"[{'label': 'display', 'lat': 18.793183571608655, 'lng': 98.96827235711488}]",2099,TH,สุเทพ,เชียงใหม่,ประเทศไทย,"['หอแพทย์ สวนสุขภาพ', 'สุเทพ', 'เชียงใหม่', 'ประเทศไทย']",,,,4bfc1dac3cebd13a02a597d8
Oxotel (อ๊อกโซเทล),Hostel,"149-153 Wua Lai Road, Hai-ya District",18.77580540015250,98.98204982552210,"[{'label': 'display', 'lat': 18.77580540015252, 'lng': 98.98204982552211}]",1792,TH,Muang,Chiangmai,ประเทศไทย,"['149-153 Wua Lai Road, Hai-ya District (Wualai Lane 5)', 'Muang', 'Chiangmai 50100', 'ประเทศไทย']",Wualai Lane 5,50100,Wualai,563e1253237c34cbf0cedfbe
Wat Suandok (วัดสวนดอก),Buddhist Temple,139 ถ.สุเทพ,18.788139323013200,98.96733283996580,"[{'label': 'display', 'lat': 18.788139323013237, 'lng': 98.96733283996582}]",2204,TH,เมืองเชียงใหม่,เชียงใหม่,ประเทศไทย,"['139 ถ.สุเทพ', 'เมืองเชียงใหม่', 'เชียงใหม่ 50200', 'ประเทศไทย']",,50200,,4b8a6953f964a520bf6b32e3
Sugarcane Chiang Mai,Hotel,,18.777454,98.99206,"[{'label': 'display', 'lat': 18.777454, 'lng': 98.99206}]",1552,TH,Chiang Mai,Chang Wat Chiang Mai,ประเทศไทย,"['Chiang Mai', 'Chang Wat Chiang Mai 50100', 'ประเทศไทย']",,50100,,59fae34d95a72204ababf497
Labkai,Thai Restaurant,,18.796015298673800,98.9684038849187,"[{'label': 'display', 'lat': 18.796015298673822, 'lng': 98.9684038849187}]",2147,TH,เมืองเชียงใหม่,เชียงใหม่,ประเทศไทย,"['เมืองเชียงใหม่', 'เชียงใหม่', 'ประเทศไทย']",,,,549c02dc498e58bd4f3d7f05
Cherng Doi Roast Chicken (ไก่ย่างเชิงดอย),Thai Restaurant,2/8 Suk Kaseme Rd,18.799240728964700,98.96611130085070,"[{'label': 'display', 'lat': 18.799240728964666, 'lng': 98.96611130085074}]",2492,TH,เมืองเชียงใหม่,เชียงใหม่,ประเทศไทย,"['2/8 Suk Kaseme Rd', 'เมืองเชียงใหม่', 'เชียงใหม่ 50200', 'ประเทศไทย']",,50200,,4e1e80bc2271ad66e4a07e80
Nine One Coffee (ไนน์ วัน คอฟฟี่),Coffee Shop,Nimmanhemin Soi 11 Road,18.796993243399200,98.96692952785620,"[{'label': 'display', 'lat': 18.796993243399175, 'lng': 98.96692952785615}]",2327,TH,"Mueang Chiang Mai, Chiang Mai",Chang Wat Chiang Mai,ประเทศไทย,"['Nimmanhemin Soi 11 Road', 'Mueang Chiang Mai, Chiang Mai', 'Chang Wat Chiang Mai 50200', 'ประเทศไทย']",,50200,,54e5884e498eda3fb2a09136
รังนกไทย เจ้าเก่าตลาดอนุสาร สาขา 2,Food Truck,หน้าธนาคารกรุงเทพ,18.78964740917940,98.96530629897130,"[{'label': 'display', 'lat': 18.78964740917935, 'lng': 98.96530629897134}]",2400,TH,เมืองเชียงใหม่,เชียงใหม่,ประเทศไทย,"['หน้าธนาคารกรุงเทพ', 'เมืองเชียงใหม่', 'เชียงใหม่', 'ประเทศไทย']",,,,4dac4a0893a04642f0a6ad09
Rod Nueng (รสหนึ่ง),Noodle House,"Charoen Prathet Road, Chang Klan",18.78508294167040,99.00296392689080,"[{'label': 'display', 'lat': 18.78508294167042, 'lng': 99.00296392689081}]",1699,TH,เมืองเชียงใหม่,เชียงใหม่,ประเทศไทย,"['Charoen Prathet Road, Chang Klan (Charoen Prathet)', 'เมืองเชียงใหม่', 'เชียงใหม่ 50000', 'ประเทศไทย']",Charoen Prathet,50000,,4cd3a471793d224b872a4a10
Starbucks,Coffee Shop,CMR Complex,18.79307492006860,98.97803001370740,"[{'label': 'display', 'lat': 18.79307492006864, 'lng': 98.97803001370742}]",1083,TH,เมืองเชียงใหม่,เชียงใหม่,ประเทศไทย,"['CMR Complex', 'เมืองเชียงใหม่', 'เชียงใหม่', 'ประเทศไทย']",,,,5811c3d038fa1e32de467f08
Cheevit Cheeva (ชีวิต ชีวา),Café,Siri Mangkalajarn 7,18.795285374730100,98.97114519160500,"[{'label': 'display', 'lat': 18.795285374730078, 'lng': 98.97114519160503}]",1847,TH,เมืองเชียงใหม่,เชียงใหม่,ประเทศไทย,"['Siri Mangkalajarn 7', 'เมืองเชียงใหม่', 'เชียงใหม่', 'ประเทศไทย']",,,,55ed24ec498e98f06b498db1
Hong Moo (โฮงหมู),Thai Restaurant,"Santi Tham, Chang Phuak",18.79981677947080,98.98009588272480,"[{'label': 'display', 'lat': 18.79981677947078, 'lng': 98.98009588272478}]",1301,TH,เมืองเชียงใหม่,เชียงใหม่,ประเทศไทย,"['Santi Tham, Chang Phuak', 'เมืองเชียงใหม่', 'เชียงใหม่ 50200', 'ประเทศไทย']",,50200,,4cfe4418c671721e992cd218
Kantary Hills Hotel & Serviced Apartments,Hotel,"44, 44/1-2 Nimmana Haeminda Lane 12",18.79602488422250,98.96399982079160,"[{'label': 'display', 'lat': 18.79602488422247, 'lng': 98.96399982079159}]",2598,TH,เมืองเชียงใหม่,เชียงใหม่,ประเทศไทย,"['44, 44/1-2 Nimmana Haeminda Lane 12 (Nimmanhaemin Road Soi12)', 'เมืองเชียงใหม่', 'เชียงใหม่ 50200', 'ประเทศไทย']",Nimmanhaemin Road Soi12,50200,,4be121830f03a593a09818b4
Ab' petite,Coffee Shop,,18.80540765452870,98.9833763332446,"[{'label': 'display', 'lat': 18.80540765452869, 'lng': 98.9833763332446}]",1690,TH,เมืองเชียงใหม่,เชียงใหม่,ประเทศไทย,"['เมืองเชียงใหม่', 'เชียงใหม่', 'ประเทศไทย']",,,,541298ab498e52f8254d714c
Anantara Chiang Mai Resort & Spa,Hotel,123 Charoen Prathet Rd.,18.781834516580500,99.00395706909650,"[{'label': 'display', 'lat': 18.781834516580535, 'lng': 99.00395706909647}]",1955,TH,เมืองเชียงใหม่,เชียงใหม่,ประเทศไทย,"['123 Charoen Prathet Rd.', 'เมืองเชียงใหม่', 'เชียงใหม่ 50100', 'ประเทศไทย']",,50100,,4bc8ef15762beee1acb73d38
ข้าวมันไก่ อ้วนโอชา,Asian Restaurant,Chang Klan Rd,18.772810008416200,98.99881794623320,"[{'label': 'display', 'lat': 18.772810008416183, 'lng': 98.99881794623316}]",2309,TH,เมืองเชียงใหม่,เชียงใหม่,ประเทศไทย,"['Chang Klan Rd', 'เมืองเชียงใหม่', 'เชียงใหม่', 'ประเทศไทย']",,,,4ed9bb6a4901c8be1cc88e27
The Volcano (เดอะ โวลคาโน่),Dessert Shop,ในโครงการนิ่มซิตี้เดลี่,18.772355545350000,98.97821046134420,"[{'label': 'display', 'lat': 18.772355545350045, 'lng': 98.97821046134415}]",2307,TH,เมืองเชียงใหม่,เชียงใหม่,ประเทศไทย,"['ในโครงการนิ่มซิตี้เดลี่ (Mahidol Rd.)', 'เมืองเชียงใหม่', 'เชียงใหม่ 50100', 'ประเทศไทย']",Mahidol Rd.,50100,,531c52f7498ec4f3e1f3fa2a
Mont Nom Sod (มนต์นมสด),Dessert Shop,45/1-2 Nimmana Haeminda Rd.,18.797970383511400,98.96666711285940,"[{'label': 'display', 'lat': 18.797970383511444, 'lng': 98.96666711285944}]",2387,TH,เมืองเชียงใหม่,เชียงใหม่,ประเทศไทย,"['45/1-2 Nimmana Haeminda Rd.', 'เมืองเชียงใหม่', 'เชียงใหม่ 50200', 'ประเทศไทย']",,50200,,4c99eefad4b1b1f7577acb35
ลาบป่าตันดีขม,Thai Restaurant,National Hwy No 11,18.80987609877930,99.0018105183481,"[{'label': 'display', 'lat': 18.80987609877933, 'lng': 99.0018105183481}]",2564,TH,เมืองเชียงใหม่,เชียงใหม่,ประเทศไทย,"['National Hwy No 11', 'เมืองเชียงใหม่', 'เชียงใหม่ 50300', 'ประเทศไทย']",,50300,,4ca3334aa73cb60c976d1678
At Pingnakorn Hotel,Hotel,4 Nimmana Haeminda Soi 12,18.796082483485500,98.96326339234350,"[{'label': 'display', 'lat': 18.796082483485453, 'lng': 98.96326339234346}]",2675,TH,เมืองเชียงใหม่,เชียงใหม่,ประเทศไทย,"['4 Nimmana Haeminda Soi 12', 'เมืองเชียงใหม่', 'เชียงใหม่ 50200', 'ประเทศไทย']",,50200,,4d8626cc50913704c176a55b
OMNiA Cafe,Coffee Shop,181/272 Moo 3 Potaram Rd,18.813704649759300,98.97363195045200,"[{'label': 'display', 'lat': 18.813704649759305, 'lng': 98.97363195045196}]",2960,TH,เมืองเชียงใหม่,เชียงใหม่,ประเทศไทย,"['181/272 Moo 3 Potaram Rd', 'เมืองเชียงใหม่', 'เชียงใหม่ 50300', 'ประเทศไทย']",,50300,,55d82866498e38340d94eafd
VT Nam Nueng (วีที แหนมเนือง),Vietnamese Restaurant,49/9 Chiangmai-Lamphun Rd.,18.78553884206040,99.00516653770360,"[{'label': 'display', 'lat': 18.78553884206037, 'lng': 99.00516653770356}]",1899,TH,เมืองเชียงใหม่,เชียงใหม่,ประเทศไทย,"['49/9 Chiangmai-Lamphun Rd.', 'เมืองเชียงใหม่', 'เชียงใหม่ 50000', 'ประเทศไทย']",,50000,,4bc5c52269369521a6768488
Cake Baan Piemsuk (เค้กบ้านเปี่ยมสุข),Bakery,165-167 Charoen Rajd Rd,18.79279747738280,99.00184008236980,"[{'label': 'display', 'lat': 18.79279747738277, 'lng': 99.00184008236978}]",1469,TH,เมืองเชียงใหม่,เชียงใหม่,ประเทศไทย,"['165-167 Charoen Rajd Rd', 'เมืองเชียงใหม่', 'เชียงใหม่ 50000', 'ประเทศไทย']",,50000,,503b07b5e4b022a04be1bf83
Number One Bar,Pub,Loi Kroh-soi 1,18.78436745743520,98.99492455543750,"[{'label': 'display', 'lat': 18.78436745743519, 'lng': 98.99492455543746}]",1024,TH,Muang Chiang mai,เชียงใหม่,ประเทศไทย,"['Loi Kroh-soi 1 (Loikhoh)', 'Muang Chiang mai', 'เชียงใหม่ 50000', 'ประเทศไทย']",Loikhoh,50000,,4e16acaf1fc7d99db5c77dc9
Rimping Supermarket (ริมปิง),Supermarket,199/8 Mahidol Rd.,18.77191644828060,98.97739800539350,"[{'label': 'display', 'lat': 18.77191644828064, 'lng': 98.97739800539351}]",2390,TH,เมืองเชียงใหม่,เชียงใหม่,ประเทศไทย,"['199/8 Mahidol Rd. (at Nim City Daily)', 'เมืองเชียงใหม่', 'เชียงใหม่ 50100', 'ประเทศไทย']",at Nim City Daily,50100,,4b98d348f964a5203a5135e3
ณ Coffee (Na Coffee),Coffee Shop,Sanambin Kao Rd,18.78800596103120,98.96256049193370,"[{'label': 'display', 'lat': 18.78800596103118, 'lng': 98.96256049193373}]",2704,TH,เมืองเชียงใหม่,เชียงใหม่,ประเทศไทย,"['Sanambin Kao Rd', 'เมืองเชียงใหม่', 'เชียงใหม่ 50200', 'ประเทศไทย']",,50200,,4c318704a0ced13a62d2136e
Starbucks (สตาร์บัคส์),Coffee Shop,43 Nimmana Haeminda Rd.,18.79762969884080,98.96682291309360,"[{'label': 'display', 'lat': 18.79762969884077, 'lng': 98.96682291309361}]",2359,TH,เมืองเชียงใหม่,เชียงใหม่,ประเทศไทย,"['43 Nimmana Haeminda Rd. (at Lane 9)', 'เมืองเชียงใหม่', 'เชียงใหม่ 50200', 'ประเทศไทย']",at Lane 9,50200,,4bdcf377edf50f47d4d6c834
หมูสองชั้น สาขาทิพเนตร,Buffet,,18.776914719823400,98.98099058134800,"[{'label': 'display', 'lat': 18.776914719823374, 'lng': 98.98099058134802}]",1722,TH,เมืองเชียงใหม่,เชียงใหม่,ประเทศไทย,"['ทิพเนตร', 'เมืองเชียงใหม่', 'เชียงใหม่', 'ประเทศไทย']",ทิพเนตร,,,56aa232e498e166f05e359d8
สเต็กคุณหนู,Steakhouse,ประตูเชียงใหม่,18.781022069458600,98.98605406280140,"[{'label': 'display', 'lat': 18.781022069458555, 'lng': 98.98605406280143}]",1116,TH,อ.เมืองเชียงใหม่,Thailand,ประเทศไทย,"['ประตูเชียงใหม่ (ช่างหล่อ)', 'อ.เมืองเชียงใหม่', 'Thailand 50100', 'ประเทศไทย']",ช่างหล่อ,50100,,4cdab12c99026dcb48d00781
รสดีเยี่ยม ก๋วยเตี๋ยวเนื้อวัว (โคขุน),Noodle House,Rattana Kosin Rd.,18.801510743755000,99.01077591927080,"[{'label': 'display', 'lat': 18.801510743755042, 'lng': 99.01077591927076}]",2671,TH,เมืองเชียงใหม่,เชียงใหม่,ประเทศไทย,"['Rattana Kosin Rd.', 'เมืองเชียงใหม่', 'เชียงใหม่ 50300', 'ประเทศไทย']",,50300,,4df9623062e1e9a2436706ef
Tipparos Kitchen (ครัวทิพรส),Thai Restaurant,ถ.รัตนโกสินทร์,18.800666097807100,99.00177063205250,"[{'label': 'display', 'lat': 18.800666097807117, 'lng': 99.00177063205253}]",1810,TH,,เชียงใหม่,ประเทศไทย,"['ถ.รัตนโกสินทร์', 'เชียงใหม่', 'ประเทศไทย']",,,,4d8f2d6a1716a1432d0444f7
Drink Smith & Co.,Cocktail Bar,,18.774652035042300,98.97670866042580,"[{'label': 'display', 'lat': 18.774652035042347, 'lng': 98.97670866042579}]",2165,TH,Haiya,เชียงใหม่,ประเทศไทย,"['Haiya', 'เชียงใหม่ 50100', 'ประเทศไทย']",,50100,,593663b3b8fd9d2484b1d09c
The White House,Bar,Chiang Mai-Lam Phun,18.777313324202200,99.00762563385700,"[{'label': 'display', 'lat': 18.777313324202236, 'lng': 99.00762563385697}]",2556,TH,เมืองเชียงใหม่,เชียงใหม่,ประเทศไทย,"['Chiang Mai-Lam Phun', 'เมืองเชียงใหม่', 'เชียงใหม่ 50000', 'ประเทศไทย']",,50000,,4bc475be920eb713bbbb1e2c
MK (เอ็มเค),Hotpot Restaurant,CentralPlaza Chiangmai Airport,18.769435498484000,98.97552171028600,"[{'label': 'display', 'lat': 18.769435498483997, 'lng': 98.97552171028597}]",2727,TH,เมืองเชียงใหม่,เชียงใหม่,ประเทศไทย,"['CentralPlaza Chiangmai Airport (4th Fl.)', 'เมืองเชียงใหม่', 'เชียงใหม่ 50100', 'ประเทศไทย']",4th Fl.,50100,,4cac5bb4f47ea1432b3f9021
A Day in Chiang Mai (อะเดย์อินเชียงใหม่),Coffee Shop,107/1 Ragang Rd.,18.776534998822500,98.9962146729151,"[{'label': 'display', 'lat': 18.776534998822548, 'lng': 98.9962146729151}]",1813,TH,เมืองเชียงใหม่,เชียงใหม่,ประเทศไทย,"['107/1 Ragang Rd.', 'เมืองเชียงใหม่', 'เชียงใหม่ 50100', 'ประเทศไทย']",,50100,,54afed62498e39c668d2fb0e
นกแล ก๋วยเตี๋ยวต้มยำสุโขทัย,Noodle House,Chang Klan Rd,18.776244868463900,98.99909555912020,"[{'label': 'display', 'lat': 18.776244868463912, 'lng': 98.99909555912018}]",2002,TH,Chiang Mai,จ.เชียงใหม่,ประเทศไทย,"['Chang Klan Rd', 'Chiang Mai', 'จ.เชียงใหม่ 50100', 'ประเทศไทย']",,50100,,4cda50c03f6a8cfa23b2e3ea
Taste cafe (เทสท์คาเฟ่),Coffee Shop,,18.79504584275990,98.96308137396020,"[{'label': 'display', 'lat': 18.79504584275993, 'lng': 98.96308137396016}]",2671,TH,เมืองเชียงใหม่,เชียงใหม่,ประเทศไทย,"['เมืองเชียงใหม่', 'เชียงใหม่', 'ประเทศไทย']",,,,566bfc3b498e4cf96ea1d420
Kao Man Kai Nantaram (ข้าวมันไก่นันทาราม),Thai Restaurant,นันทาราม,18.775439382987300,98.98307454696860,"[{'label': 'display', 'lat': 18.775439382987344, 'lng': 98.98307454696858}]",1796,TH,เมืองเชียงใหม่,เชียงใหม่,ประเทศไทย,"['นันทาราม (วัวลาย 5 ก)', 'เมืองเชียงใหม่', 'เชียงใหม่ 50000', 'ประเทศไทย']",วัวลาย 5 ก,50000,,4c360514ae2da593f66ffcc5
Tengoku Yaki,Japanese Restaurant,Nimman Soi5,18.798672047734500,98.96855767680730,"[{'label': 'display', 'lat': 18.798672047734524, 'lng': 98.96855767680732}]",2229,TH,เมืองเชียงใหม่,เชียงใหม่,ประเทศไทย,"['Nimman Soi5', 'เมืองเชียงใหม่', 'เชียงใหม่', 'ประเทศไทย']",,,,549d3b06498e8153c1cb0d74
Rock Me Burgers & Bar,Burger Joint,Nimman Alley 15,18.795738204083700,98.96829514461640,"[{'label': 'display', 'lat': 18.795738204083694, 'lng': 98.96829514461639}]",2150,TH,Chiang Mai,Chang Wat Chiang Mai,ประเทศไทย,"['Nimman Alley 15', 'Chiang Mai', 'Chang Wat Chiang Mai 50200', 'ประเทศไทย']",,50200,,5a2677bcfd16bb353b3b464d