"id","clinic_name_th","clinic_name_en","alias","xeomin_flag","belotero_flag","ulthera_flag","province","district","website","facebook","tel","latitude","longtitude","xeomin","x_beauty","belotero","skin_radiance","ulthera"
1,"ทรีดีเลเซอร์คลินิกเวชกรรม","3D Laser clinic","ทรีดีเลเซอร์คลินิกเวชกรรม","N","N","N","กาฬสินธุ์","เมืองกาฬสินธุ์","","https://www.facebook.com/3dlaserclinic/","090 778 8978",16.430403,103.501991,"Y","N","N","N","N"
2,"คลินิกสุขภาพและความงามเชียงใหม่","4649 Clinic","คลินิกสุขภาพและความงามเชียงใหม่","N","N","N","เชียงใหม่","เมืองเชียงใหม่","http://www.4649clinic.com/","https://www.facebook.com/4649clinic/","053 234 657",18.793944,98.996905,"Y","N","N","N","Y"
3,"4B คลินิก","4B clinic","4B คลินิก","N","N","N","กรุงเทพมหานคร","เขตวัฒนา","https://www.4bclinic.com/","https://www.facebook.com/4bclinic","098-193-5956",13.7317335,100.5782457,"Y","N","N","N","N"
4,"ฟิฟตี้ฟิฟท์ คลินิก","55th  Laser Clinic","ฟิฟตี้ฟิฟท์ คลินิก","N","N","N","กรุงเทพมหานคร","เขตบางรัก","http://www.55laser.com/","https://www.facebook.com/55laser","02 231 3394",13.7280471,100.5347587,"N","N","N","N","Y"
5,"เอบีซี คลินิก","A B C  CLINIC","เอบีซี คลินิก","N","N","N","อุดรธานี","เมืองอุดรธานี","","https://m.facebook.com/abcclinicud/","064 794 7152",17.4082221,102.8043897,"N","N","Y","N","N"
6,"แอปโซลูท บิวตี้ คลินิก","Absolute Beauty Clinic","แอปโซลูท บิวตี้ คลินิก","N","N","N","กรุงเทพมหานคร","เขตวัฒนา","https://www.absolutebeauty-clinic.com/","https://www.facebook.com/absolutebeautyclinicth/","085 907 7272",13.7332363,100.5843906,"N","N","N","N","Y"
7,"อะแคนธัชคลินิค","ACANTUS CLINIC","อะแคนธัชคลินิค","N","N","N","นนทบุรี","ปากเกร็ด","","https://www.facebook.com/acantusclinic","02 982 9922",13.9041832,100.534047,"Y","N","N","N","N"
8,"เอศิเลนศิ์ คลีนิก","Acellence Clinic","เอศิเลนศิ์ คลีนิก","N","N","N","กรุงเทพมหานคร","เขตปทุมวัน","https://www.acellenceclinic.com/","https://www.facebook.com/Acellence/","02 689 6362/084-694-",13.739353,100.546424,"N","N","N","N","Y"
9,"แอคทีว่า คลินิก","Activa Clinic","แอคทีว่า คลินิก","N","N","N","กรุงเทพมหานคร","เขตลาดพร้าว","","","087-424-4144/02-553-",NULL,NULL,"Y","N","Y","N","N"
10,"เอดีน่า คลีนิก","Adena Clinic","เอดีน่า คลีนิก","N","N","N","กรุงเทพมหานคร","เขตคลองเตย","https://www.adenaa.com/","https://www.facebook.com/3d.eyebrows.Adenaa","093 365 0700",13.7188019,100.5853208,"N","N","N","N","Y"
11,"คลินิกเวชกรรม นายแพทย์โชคชัย","Doctor Chockchai Clinic","คลินิกเวชกรรม นายแพทย์โชคชัย","N","N","N","พิษณุโลก","เมืองพิษณุโลก","","https://www.facebook.com/AdvancedPhitsanulok/","055 052 044",16.8246033,100.2560386,"N","N","Y","N","N"
12,"เอสเธอเมด คลินิก","Aesthemed clinic","เอสเธอเมด คลินิก","N","N","N","ชลบุรี","ศรีราชา","","https://www.facebook.com/pages/category/Medical---Health/AestheMed-Clinic-Pattaya-%E0%B9%80%E0%B8%AD%E0%B8%AA%E0%B9%80%E0%B8%98%E0%B8%AD%E0%B9%80%E0%B8%A1%E0%B8%94-%E0%B8%84%E0%B8%A5%E0%B8%B4%E0%B8%99","062 9946 696",13.1688804,100.9307982,"N","N","Y","N","N"
15,"เอลิซซ่า คลินิก เซ็นทรัล ปิ่นเกล้า","Alyssa Clinic Central Pinklao","เอลิซซ่า คลินิก เซ็นทรัล ปิ่นเกล้า","N","N","N","กรุงเทพมหานคร","เขตบางกอกน้อย","http://alyssaclinic.com/","https://www.facebook.com/alyssaclinic/","02-884-9081-2",13.6976976,100.537483,"Y","Y","Y","Y","Y"
16,"อมารันเต้ คลินิก","Amarante Clinic","อมารันเต้ คลินิก","N","N","N","กรุงเทพมหานคร","เขตบางนา","https://amaranteclinic.com/","https://www.facebook.com/amaranteclinic/","080-556-5294",13.7314184,100.5195666,"Y","N","Y","N","Y"
17,"คลินิกศัลยกรรมตกแต่งอัมรินทร์","Amarin Plastic Surgery Clinic","คลินิกศัลยกรรมตกแต่งอัมรินทร์","N","N","N","กรุงเทพมหานคร","เขตบางกอกน้อย","","","02 433 2747",13.7636949,100.4825481,"N","N","Y","N","N"
18,"อันดาคลินิก สาขา นครสวรรค์","Anda Clinic, Nakhonsawan","อันดาคลินิก สาขา นครสวรรค์","N","N","N","นครสวรรค์","เมืองนครสวรรค์","","https://www.facebook.com/ANDACLINIC/","095 354 5666",15.7029411,100.1362858,"Y","N","Y","N","Y"
19,"แอนน่า คลินิก","Anna clinic","แอนน่า คลินิก","N","N","N","กรุงเทพมหานคร","เขตบางกอกน้อย","http://anna-clinic.com/","https://www.facebook.com/Annaclinic/","089-996-2292",13.7759561,100.4788662,"N","N","Y","N","Y"
20,"อภิชาตคลินิก","Apichart Clinic","อภิชาตคลินิก","N","N","N","ชลบุรี","บางละมุง","http://www.apichartclinic.com/","https://www.facebook.com/acclinic/","064 236 4936",13.3455876,100.9685208,"N","N","Y","N","N"
21,"คลินิกศัลยกรรมความงาม เอ-พลัส คอสเมติก","Aplus Cosmetic Clinic","คลินิกศัลยกรรมความงาม เอ-พลัส คอสเมติก","N","N","N","กรุงเทพมหานคร","เขตจตุจักร","http://www.aplus-clinic.co.th/","https://web.facebook.com/Aplusclinic/?_rdc=1&_rdr","088 022 2201",13.81366,100.561584,"N","N","N","N","Y"
22,"เอรียา บิวตี้คลินิก","Areeya clinic","เอรียา บิวตี้คลินิก","N","N","N","กรุงเทพมหานคร","เขตห้วยขวาง","","https://www.facebook.com/Areeyaclinic/","02-692-5725",13.7785308,100.5761358,"Y","N","Y","N","N"
23,"อเธน่าคลินิก","Athena clinic","อเธน่าคลินิก","N","N","N","กรุงเทพมหานคร","เขตสาทร","http://athenaclinicbangkok.com/","https://www.facebook.com/AthenaClinicBangkok","02 677 7478",13.725578,100.544383,"N","N","N","N","Y"
24,"แอมเบอร์ คลินิก","Amber Clinic","แอมเบอร์ คลินิก","N","N","N","กรุงเทพมหานคร","เขตพญาไท","","https://www.facebook.com/AtomClinicAree/","02 619 9998",13.7833703,100.5421428,"Y","Y","Y","Y","N"
25,"ออเธนทิคคลินิก","Authentic clinic","ออเธนทิคคลินิก","N","N","N","กรุงเทพมหานคร","เขตคลองเตย","http://www.authenticclinic.com/","https://web.facebook.com/authenticclinic?_rdc=1&_rdr","02 712 2127",13.9083471,100.5365084,"Y","N","N","N","N"
26,"อวิกาคลินิก","Awika clinic","อวิกาคลินิก","N","N","N","กรุงเทพมหานคร","เขตดินแดง","http://www.awikaclinic.com","https://www.facebook.com/Awikaclinic/","087-377-6688",13.7662178,100.5694055,"Y","Y","N","N","Y"
27,"เอยาคลินิก","Aya clinic","เอยาคลินิก","N","N","N","กรุงเทพมหานคร","เขตประเวศ","http://www.ayaskinclinic.com/","https://www.facebook.com/ayaclinic/","02 939 3995",13.8129464,100.5622652,"Y","N","N","N","N"
28,"บีเบลคลินิค","B Bell Clinic","บีเบลคลินิค","N","N","N","กรุงเทพมหานคร","เขตบางพลัด","","https://www.facebook.com/bbellclinic/","02 881 8887",13.777873,100.478,"N","N","Y","N","N"
29,"เบญจบริรักษ์เวช คลินิก","B Well Clinic","เบญจบริรักษ์เวช คลินิก","N","N","N","กรุงเทพมหานคร","เขตพญาไท","","https://www.facebook.com/BWellClinicAri/","02 279 9591",13.7800742,100.5451372,"Y","N","Y","N","Y"
30,"โรงพยาบาลกรุงเทพ","Bangkok Hospital @ Bangkok","โรงพยาบาลกรุงเทพ","N","N","N","กรุงเทพมหานคร","เขตห้วยขวาง","https://www.bangkokhospital.com/","https://www.facebook.com/BangkokHospital/","02-310-3000",13.7492451,100.5834962,"Y","N","Y","N","Y"
31,"โรงพยาบาลกรุงเทพ หัวหิน","Bangkok Hospital @ Hua Hin","โรงพยาบาลกรุงเทพ หัวหิน","N","N","N","ประจวบคีรีขันธ์","หัวหิน","https://www.bangkokhospital.com/huahin/","https://www.facebook.com/Bangkokhospitalhuahin/","032-616-800",12.5541702,99.9609052,"N","N","N","N","Y"
32,"โรงพยาบาลกรุงเทพ สมุย","Bangkok Hospital @ Samui","โรงพยาบาลกรุงเทพ สมุย","N","N","N","สุราษฎร์ธานี","เกาะสมุย","http://www.bangkokhospitalsamui.com/Site/","https://www.facebook.com/BSHFanClub/","077-429-500",9.5143737,100.049328,"N","N","N","N","Y"
33,"โรงพยาบาล BNH","Bangkok Nursing Home Hospital (BNH hospital)","โรงพยาบาล BNH","N","N","N","กรุงเทพมหานคร","เขตบางรัก","http://www.bnhhospital.com","","02 686 2700",13.724958,100.535071,"N","N","N","N","Y"
34,"บีเอสแอลคลินิก","Bangkok Skin and Laser Center","บีเอสแอลคลินิก","N","N","N","กรุงเทพมหานคร","เขตบางรัก","http://www.bslclinic.com","https://www.facebook.com/bslclinic","02 235 8858",13.728089,100.536026,"Y","N","Y","Y","Y"
35,"โอเอชเอ็ม คลินิก สาขา 101 true digital park","OHM Clinic @ Whizdom101","โอเอชเอ็ม คลินิก สาขา 101 true digital park","N","N","N","กรุงเทพมหานคร","เขตพระโขนง","","https://www.facebook.com/ohmclinic","085-188-8855/02-009-",13.685181,100.6111826,"Y","Y","Y","Y","Y"
36,"โอเอชเอ็ม คลินิก สาขา เกษตร-นวมินทร์","OHM Clinic @ Nirvana@work kaset nawamin","โอเอชเอ็ม คลินิก สาขา เกษตร-นวมินทร์","N","N","N","กรุงเทพมหานคร","เขตบึงกุ่ม","","https://www.facebook.com/ohmclinic","085 168 5656/02 068",13.815408,100.6377486,"Y","Y","Y","Y","Y"
37,"โรงพยาบาลบางปะกอก 9 อินเตอร์เนชันแนล","Bangpakok 9 international Hospital","โรงพยาบาลบางปะกอก 9 อินเตอร์เนชันแนล","N","N","N","กรุงเทพมหานคร","เขตจอมทอง","http://www.bangpakokhospital.com","https://www.facebook.com/BPK9HOSPITAL/","02 109 9111",13.6817869,100.4745914,"N","N","N","N","Y"
38,"บัณฑิตาคลินิก","Bantita Clinic","บัณฑิตาคลินิก","N","N","N","กรุงเทพมหานคร","เขตบึงกุ่ม","http://www.bantitaclinic.com/","https://www.facebook.com/bantitaclinic/","02 947 8925",13.8109191,100.654161,"N","N","Y","N","N"
40,"นาการ่า คลินิก","Nagara Clinic","นาการ่า คลินิก","N","N","N","กรุงเทพมหานคร","เขตคลองเตย","http://www.beautiplexbkk.com","https://www.facebook.com/beautiplexbeautycenter/","02 259 6662-3",13.7204156,100.5677451,"Y","N","N","N","Y"
41,"บิวทีค คลินิก","Beautique clinic","บิวทีค คลินิก","N","N","N","กรุงเทพมหานคร","เขตจตุจักร","","https://www.facebook.com/BeautiqueBKK/","02 075 6446",13.8565336,100.5857692,"Y","N","Y","N","N"
42,"บิวทิส คลินิค","BEAUTISE Clinic","บิวทิส คลินิค","N","N","N","นนทบุรี","เมืองนนทบุรี","","https://www.facebook.com/Beautise-Clinic-งามวงศ์วาน-176328652414967/","086 331 8411",13.85652,100.5405905,"Y","N","Y","N","N"
43,"บิวตี้ วีว่า คลินิก","BEAUTY VIVA Clinic","บิวตี้ วีว่า คลินิก","N","N","N","กรุงเทพมหานคร","เขตวัฒนา","","https://www.facebook.com/Beautyvivaclinic/","02 714 2565",13.7233144,100.5843015,"Y","N","N","N","N"
44,"เบลลาจคลินิก","Belage clinic","เบลลาจคลินิก","N","N","N","นนทบุรี","ปากเกร็ด","http://www.belageclinic.com/","https://www.facebook.com/belageaestheticclinic/","083 602 7778",13.8891051,100.5521579,"Y","N","Y","N","N"
45,"เบลล่าคลินิก","BELLA Clinic","เบลล่าคลินิก","N","N","N","กรุงเทพมหานคร","","","https://www.facebook.com/BellaClinicBangkok/","",13.7354694,100.5615899,"N","N","Y","N","N"
47,"เดอะ บิวตี้ฮับ คลินิกเวชกรรม","BHC clinic","เดอะ บิวตี้ฮับ คลินิกเวชกรรม","N","N","N","สุพรรณบุรี","เมืองสุพรรณบุรี","","https://www.facebook.com/BeautyHubClinic/","035-451-684/ 095-525",14.4723647,100.1287753,"Y","N","Y","N","N"
48,"บลิ๊งคลินิก","Blink clinic by dr.mai","บลิ๊งคลินิก","N","N","N","กรุงเทพมหานคร","เขตวัฒนา","https://clinicblink.com/","https://www.facebook.com/blinkclinic","02-6408181",13.7398828,100.5633391,"N","N","Y","N","N"
49,"บางกอกเลเซอร์คลินิก","Bangkok Laser Clinic  (Sukhumvit39)","บางกอกเลเซอร์คลินิก","N","N","N","กรุงเทพมหานคร","เขตวัฒนา","http://www.bangkoklaser.com/","https://www.facebook.com/Bangkoklaser","02 260 2561-3",13.736485,100.57431,"N","N","N","N","Y"
50,"แคนดี้ คลินิก","Candy Clinic","แคนดี้ คลินิก","N","N","N","นครราชสีมา","เมืองนครราชสีมา","","https://www.facebook.com/Candyclinic-988994867848466/","098 953 8888",14.9630638,102.0668205,"Y","N","N","N","N"
51,"เซ็นทรัลเลเซอร์คลินิก","Central laser clinic","เซ็นทรัลเลเซอร์คลินิก","N","N","N","ขอนแก่น","เมืองขอนแก่น","http://www.centrallaserclinic.com","https://www.facebook.com/centrallaserclinic.bum/","085 000 0527/043 288",16.4329165,102.8266374,"N","N","Y","N","Y"
52,"ชลิดาคลินิก by หมออุ๋ม","Chalida Clinic","ชลิดาคลินิก by หมออุ๋ม","N","N","N","กรุงเทพมหานคร","เขตบางขุนเทียน","","https://www.facebook.com/pg/chalida.clinic2015/about/","081 542 4051",13.9129702,100.5906835,"N","N","Y","N","N"
53,"ชาเมอร์ คลินิก","Charmer clinic","ชาเมอร์ คลินิก","N","N","N","กรุงเทพมหานคร","เขตดินแดง","http://charmerclinic.com/","https://www.facebook.com/charmerclinic2you","085-9192768/02692339",13.7976382,100.5742801,"N","N","Y","N","N"
54,"เชอรี่ คลินิกเวชกรรม","Cherie Aesthetic clinic","เชอรี่ คลินิกเวชกรรม","N","N","N","กรุงเทพมหานคร","","http://cherieclinic.com/th/","https://www.facebook.com/CherieClinic/","02 835 3784",13.6945825,100.6392399,"N","N","N","N","Y"
55,"รพ.เชียงใหม่ราม","Chiangmai Ram Hospital","รพ.เชียงใหม่ราม","N","N","N","เชียงใหม่","เมืองเชียงใหม่","http://www.chiangmairam.com/","https://www.facebook.com/chiangmairam.hospital","053-920-300",18.7949311,98.9776933,"N","N","N","N","Y"
56,"ชีวาศรม อินเตอร์เนชั่นแนล เฮลท์ รีสอร์ท","Chiva-Som International Health Resort","ชีวาศรม อินเตอร์เนชั่นแนล เฮลท์ รีสอร์ท","N","N","N","ประจวบคีรีขันธ์","หัวหิน","http://www.chivasom.com","https://www.facebook.com/ChivaSomResort","02 711 6900-12",12.539692,99.964932,"N","N","N","N","Y"
57,"ชลลดาคลินิก","Chonlada Clinic","ชลลดาคลินิก","N","N","N","กรุงเทพมหานคร","เขตบางขุนเทียน","","https://www.facebook.com/ChonladaClinic/","02 451 0898",NULL,NULL,"Y","N","N","N","N"
58,"รพ.จุฬาลงกรณ์","Chulalongkorn Hospital","รพ.จุฬาลงกรณ์","N","N","N","กรุงเทพมหานคร","เขตปทุมวัน","http://chulalongkornhospital.go.th/kcmh/","https://www.facebook.com/ChulalongkornHospital/?fref=ts","02 256 4000",13.7324333,100.5365971,"N","N","N","N","Y"
59,"ซีแอลซีคลินิกเวชกรรม","CLC clinic","ซีแอลซีคลินิกเวชกรรม","N","N","N","อุบลราชธานี","เมืองอุบลราชธานี","https://www.celeblaserclinic.com/","https://www.facebook.com/celeblaserclinic/","090-091-7722",13.728151,100.580863,"N","N","Y","N","N"
60,"คลินิแคร์ คลินิก","CLINI CARE Clinic","คลินิแคร์ คลินิก","N","N","N","กรุงเทพมหานคร","เขตพญาไท","","https://www.facebook.com/ClinicareChariya/","081-615-1914/087-615",13.7782003,100.5468082,"Y","N","N","N","N"
61,"คลินิกนีโอ","Clinic Neo","คลินิกนีโอ","N","N","N","กรุงเทพมหานคร","เขตบางนา","http://www.clinicneo.co.th","https://www.facebook.com/clinicneo/","02 653 2211-12",13.6794092,100.6094305,"N","N","N","N","Y"
62,"ซีเอ็นด์คลินิกเวชกรรม","CN CLINIC","ซีเอ็นด์คลินิกเวชกรรม","N","N","N","นนทบุรี","ปากเกร็ด","","https://www.facebook.com/CNClinic/","095 423 9782",13.9114428,100.5528314,"Y","N","Y","N","N"
64,"เลอเฟซ คลินิก","Le face clinic","เลอเฟซ คลินิก","N","N","N","กรุงเทพมหานคร","เขตปทุมวัน","","https://www.facebook.com/lefaceclinic/","081 8100181",13.7400993,100.5251002,"N","N","N","N","Y"
65,"ดานันท์คลินิกเวชกรรม","Danan Clinic","ดานันท์คลินิกเวชกรรม","N","N","N","กรุงเทพมหานคร","เขตคลองสาน","","","090 8945945",13.7094198,100.5004117,"Y","N","Y","N","N"
66,"เดอร์มาพลัส คลินิกเวชกรรม","Derma plus clinic","เดอร์มาพลัส คลินิกเวชกรรม","N","N","N","ภูเก็ต","เมืองภูเก็ต","http://www.dermaplusphuket.com/","https://www.facebook.com/dermaplusphuket","076-354350",7.883763,98.3881754,"Y","N","Y","N","N"
67,"เดอมาสลิมคลินิค","Derma slim clinic","เดอมาสลิมคลินิค","N","N","N","ภูเก็ต","เมืองภูเก็ต","http://www.dermaslimclinic.com/","https://www.facebook.com/dermaslimclinic/","076-523079",7.9022464,98.4019661,"N","N","Y","N","N"
68,"เดอมาสเตอร์","Dermaster Wellness & Aesthetic  Institution","เดอมาสเตอร์","N","N","N","กรุงเทพมหานคร","เขตวัฒนา","http://www.dermaster-thailand.com","https://www.facebook.com/dermasterthailand/","02 714 4471",13.7345854,100.5880578,"N","N","N","N","Y"
69,"เดอร์มาติกส์คลินิค","Dermatik Clinic","เดอร์มาติกส์คลินิค","N","N","N","กรุงเทพมหานคร","เขตปทุมวัน","http://www.dermatiksclinic.com/","https://www.facebook.com/Dermatiks/","081-811-8180",13.7440224,100.5328219,"Y","N","Y","N","N"
70,"เดิมแคร์คลินิก","Dermcare Clinic","เดิมแคร์คลินิก","N","N","N","กรุงเทพมหานคร","เขตบางนา","","","02 745 6354",13.668819,100.6344427,"Y","N","N","N","N"
71,"คลินิกเฉพาะทางด้านเวชกรรมผิวหนังเดิมไวส์","Dermwise Skin and Laser Clinic","คลินิกเฉพาะทางด้านเวชกรรมผิวหนังเดิมไวส์","N","N","N","กรุงเทพมหานคร","เขตดินแดง","http://www.dermwiseclinic.com","https://www.facebook.com/dermwiseclinic/","098 909 9999",13.7641546,100.5682693,"N","N","Y","N","Y"
72,"เดอร์วาน่า คลินิก","DERWANA CLINIC","เดอร์วาน่า คลินิก","N","N","N","กรุงเทพมหานคร","เขตวังทองหลาง","https://www.derwanaclinic.com/","https://www.facebook.com/DerwanaClinic/","090 324 2264",13.791935,100.6207741,"Y","N","N","N","N"
73,"DH clinic","DH clinic","DH clinic","N","N","N","กรุงเทพมหานคร","","","","",NULL,NULL,"N","N","Y","N","N"
74,"ดีย่าคลินิก","DIAA (Doctor in Aesthetics Art) Clinic","ดีย่าคลินิก","N","N","N","เชียงใหม่","เมืองเชียงใหม่","http://www.diaaclinic.com","https://www.facebook.com/DIAAClinicDrDanai/","053 216 882/094 518",18.7990136,98.9684595,"Y","Y","Y","Y","Y"
75,"ดีโอคลินิก","Dio Clinic","ดีโอคลินิก","N","N","N","กรุงเทพมหานคร","เขตดินแดง","https://www.dioclinic.com/","https://www.facebook.com/dioclinic/","02 050 9748",13.7728128,100.5725968,"Y","N","Y","N","N"
76,"Diva Clinic","Diva Clinic","Diva Clinic","N","N","N","กรุงเทพมหานคร","เขตห้วยขวาง","","https://www.facebook.com/divaclinicthailand/","02-203-1430",13.7473808,100.5801035,"Y","N","Y","N","N"
77,"ดีวานาคลินิก","DIVANA CLINIC","ดีวานาคลินิก","N","N","N","กรุงเทพมหานคร","เขตบางรัก","http://www.divanaclinic.com/","https://www.facebook.com/DivanaClinic/","02 630 0499",13.720906,100.521082,"N","N","Y","N","N"
78,"ดีมอร์ คลินิก","Dmor Clinic","ดีมอร์ คลินิก","N","N","N","กรุงเทพมหานคร","เขตจตุจักร","http://www.dmorclinic.com","https://www.facebook.com/DmorClinic/","092 341 3634",13.821716,100.575605,"N","N","N","N","Y"
79,"คลินิกหมอเอก","Doctor Ake clinic","คลินิกหมอเอก","N","N","N","สงขลา","หาดใหญ่","http://www.doctorakeclinic.com/","https://www.facebook.com/doctorakeclinic/","02 985 6371",13.7061684,100.3508304,"Y","N","N","N","N"
80,"หมอออมคลินิก","Doctor Omm Clinic","หมอออมคลินิก","N","N","N","ตรัง","เมืองตรัง","","https://www.facebook.com/pages/หมอออมคลินิก/151627765019243","075 214 691",7.5497015,99.6143109,"N","N","N","N","Y"
81,"ด็อกเตอร์ไลฟ์ คลินิก ฟิวเจอร์ปาร์ค รังสิต","Doctor Life Clinic @Future Park Rangsit","ด็อกเตอร์ไลฟ์ คลินิก ฟิวเจอร์ปาร์ค รังสิต","N","N","N","ปทุมธานี","ธัญบุรี","http://www.doctorlifeclinic.com","https://www.facebook.com/doctorlifeclinic/","02-958-0534-5",13.98908,100.6180265,"N","N","N","N","Y"
82,"บ้านหมอเนตร คลินิกเวชกรรม","Doctor Nate Clinic","บ้านหมอเนตร คลินิกเวชกรรม","N","N","N","กรุงเทพมหานคร","เขตบางเขน","","https://www.facebook.com/Doctornateclinic","02 347 0565",13.856057,100.643123,"N","N","N","N","Y"
83,"Doctor Poom clinic","Doctor Poom clinic","Doctor Poom clinic","N","N","N","ชัยนาท","เมืองชัยนาท","","https://www.facebook.com/Dumbo.Naka.12/?fref=nf","056 410 833",15.1746023,100.1270003,"Y","N","Y","N","N"
84,"Doctor Tattof","Doctor Tattoff","Doctor Tattof","N","N","N","กรุงเทพมหานคร","เขตจตุจักร","https://drtattof.com/","https://www.facebook.com/dr.tattof/","02-632-0079",13.8159684,100.5599967,"Y","N","Y","N","N"
85,"คลินิกหมอต้น","Doctor Ton clinic","คลินิกหมอต้น","N","N","N","กรุงเทพมหานคร","เขตวังทองหลาง","http://www.doctortonclinic.com/","https://www.facebook.com/doctortonclinic/","098 656 3635",13.7682101,100.5971577,"N","N","Y","N","Y"
86,"ญาดา คลินิก","Doctor Yada Clinic","ญาดา คลินิก","N","N","N","ชลบุรี","บางละมุง","http://www.doctoryadaclinic.com/","https://www.facebook.com/doctorYada/","061 840 7007",12.93659,100.891767,"Y","Y","Y","Y","Y"
87,"ด็อกเตอร์หยง คลินิก","Doctor Yong Clinic (Chiang Rai Province)","ด็อกเตอร์หยง คลินิก","N","N","N","เชียงราย","เมืองเชียงราย","","","089-191-1809",19.9030829,99.8327037,"Y","Y","Y","Y","Y"
88,"ด็อกเตอร์ ยังเกอร์ คลินิก","Doctor Younger clinic","ด็อกเตอร์ ยังเกอร์ คลินิก","N","N","N","กรุงเทพมหานคร","เขตวัฒนา","http://www.doctoryounger.com/","https://www.facebook.com/DoctorYoungerFan/","02 665 7057-60",13.7373655,100.5606545,"Y","N","N","N","N"
89,"ดร.พลอย คลินิก","Dr.Ploy Aesthetic Clinic","ดร.พลอย คลินิก","N","N","N","กรุงเทพมหานคร","เขตลาดพร้าว","http://www.doctorploy.com","https://www.facebook.com/dr.ployclinic/","086-969-9459",13.837532,100.6293844,"Y","N","Y","N","N"
90,"คลินิกหมอดนัยย์ เชียงใหม่","Dr. Danai Aesthetic Clinic","คลินิกหมอดนัยย์ เชียงใหม่","N","N","N","เชียงใหม่","เมืองเชียงใหม่","http://www.dr-danai.com","https://www.facebook.com/Dr.Danaiaesthetic/","053 141 157",18.7591807,99.0120615,"Y","Y","Y","Y","Y"
91,"ดร.ณัฐฐ์ คลินิก","Dr. Natt Clinic","ดร.ณัฐฐ์ คลินิก","N","N","N","กรุงเทพมหานคร","เขตวัฒนา","http://www.drnattclinic.com/","https://www.facebook.com/Dr-Natt-Clinic","02 254 9451",13.744762,100.5535285,"N","N","N","N","Y"
92,"ด็อกเตอร์แบงค์ คลินิค","DR.BANK CLINIC","ด็อกเตอร์แบงค์ คลินิค","N","N","N","กรุงเทพมหานคร","เขตดินแดง","","https://www.facebook.com/Dr.BankClinic/","091 004 2777",13.798404,100.574266,"Y","N","N","N","N"
93,"คลินิกหมอแคท","Dr.Cat Clinic","คลินิกหมอแคท","N","N","N","ชุมพร","เมืองชุมพร","","https://www.facebook.com/คลินิกหมอแคท-242971852554102/","0827967376",NULL,NULL,"N","N","Y","N","N"
94,"ด๊อกเตอร์อิสิคลินิก","Dr.isi Clinic","ด๊อกเตอร์อิสิคลินิก","N","N","N","กรุงเทพมหานคร","เขตคลองสาน","","https://www.facebook.com/pages/Drisi-Clinic/461287067544159","064 949 6388",13.723211599999999,100.4920744,"N","N","Y","N","N"
95,"หมอคัมภีร์ คลินิก","DR.KAMPEE CLINIC","หมอคัมภีร์ คลินิก","N","N","N","กรุงเทพมหานคร","เขตดินแดง","","https://www.facebook.com/pg/drkampee/photos/","092 540 2255",13.7991523,100.5763506,"Y","N","N","N","N"
96,"คลินิกหมอนริทธิ์-หมอพิลัมภา","Dr.Narit- Dr.Pilumpa Clinic","คลินิกหมอนริทธิ์-หมอพิลัมภา","N","N","N","ชุมพร","เมืองชุมพร","http://www.naritpilumpaclinic.com","https://www.facebook.com/คลินิกหมอนริทธ์-หมอพิลัมภา-304494336233940/","077-570414/081-32617",10.5003677,99.1835494,"N","N","Y","N","N"
97,"หมอนุ่นคลินิกสระบุรี","DR.NUNE CLINIC","หมอนุ่นคลินิกสระบุรี","N","N","N","สระบุรี","เมืองสระบุรี","","https://www.facebook.com/doctornuneclinic/","036 212 898",14.5319588,100.9120658,"Y","N","Y","N","N"
98,"ดร.อรคลินิก","Dr.Orn clinic","ดร.อรคลินิก","N","N","N","กรุงเทพมหานคร","เขตจตุจักร","http://www.drornclinic.com/th/","https://www.facebook.com/Dr.ornclinic/","087 330 1268",13.8215141,100.5651826,"N","N","Y","N","N"
99,"คลินิกหมอภูมิ-หมอเฟิร์น","Dr.Phum-Dr.Fern Clinic","คลินิกหมอภูมิ-หมอเฟิร์น","N","N","N","ลพบุรี","เมืองลพบุรี","","https://www.facebook.com/คลินิกหมอภูมิ-หมอเฟิร์น-1263440297009186/","097 208 0955",NULL,NULL,"Y","Y","Y","Y","N"
100,"ด็อกเตอร์สุปราณี คลินิก","Dr.Supranee Clinic","ด็อกเตอร์สุปราณี คลินิก","N","N","N","กรุงเทพมหานคร","เขตวัฒนา","http://www.drsupranee.com","https://www.facebook.com/DrSupraneeClinic/","086 533 1130/098-829",13.730198,100.581155,"N","N","N","N","Y"
101,"ด็อกเตอร์ทีม คลินิกเวชกรรม","Dr.Team Clinic","ด็อกเตอร์ทีม คลินิกเวชกรรม","N","N","N","เพชรบุรี","เมืองเพชรบุรี","http://www.doctorteamclinic.com/drteam/","https://www.facebook.com/doctorteamclinic/","081 941 4821",13.0906319,99.9503257,"N","N","Y","N","N"
102,"แพทย์หญิงฐิติมาคลินิก","Dr.Thitima Medical & Aesthetic Clinic","แพทย์หญิงฐิติมาคลินิก","N","N","N","อุบลราชธานี","เมืองอุบลราชธานี","","https://www.facebook.com/drthitimaclinic","097 329 9352",15.2299517,104.8651021,"Y","N","Y","Y","Y"
103,"ดอกเตอร์วุฒิ คลินิก","DR.WUT CLINIC","ดอกเตอร์วุฒิ คลินิก","N","N","N","เพชรบุรี","ท่ายาง","","https://www.facebook.com/vtp0171q/","032-400726/032-43750",13.6304464,100.6281713,"Y","N","Y","N","N"
104,"คลินิกหมอดาวใจ-หมอสมพงษ์ สาขา สกลนคร","DS Clinic @ Sakon Nakhon","คลินิกหมอดาวใจ-หมอสมพงษ์ สาขา สกลนคร","N","N","N","สกลนคร","เมืองสกลนคร","http://www.dsskinclinic.com/","https://www.facebook.com/Dsclinic/","042 932 978",17.161416,104.145627,"Y","N","Y","N","Y"
105,"เอสเตลล่า คลินิก","ESTELLA CLINIC","เอสเตลล่า คลินิก","N","N","N","กรุงเทพมหานคร","เขตวัฒนา","https://estella-clinic.com/","https://www.facebook.com/EstellaClinic/","064-585-4840-2",13.7385656,100.584294,"N","N","Y","N","N"
106,"เอฟ คลินิก สาขาเมืองทองธานี","F Clinic @ Muang Thong Thani","เอฟ คลินิก สาขาเมืองทองธานี","N","N","N","นนทบุรี","ปากเกร็ด","http://www.fclinic-beauty.com","https://www.facebook.com/fclinicbeauty/","080-470-9999/090-909",13.907305000000001,100.538055,"Y","Y","Y","Y","Y"
107,"เอฟ คลินิก สาขาสุขุมวิท ซอย 3/1 (นานา)","F Clinic @ Sukhumvit Soi 3/1 (Nana)","เอฟ คลินิก สาขาสุขุมวิท ซอย 3/1 (นานา)","N","N","N","กรุงเทพมหานคร","เขตวัฒนา","http://www.fclinic-beauty.com","https://www.facebook.com/fclinicbeauty/","063-845-1999/090-909",13.743295,100.553818,"Y","Y","Y","Y","Y"
108,"เอฟ คลินิก สาขามาบุญครองโซน D","F Clinic @ MBK Zone D","เอฟ คลินิก สาขามาบุญครองโซน D","N","N","N","กรุงเทพมหานคร","เขตปทุมวัน","http://www.fclinic-beauty.com","https://www.facebook.com/fclinicbeauty/","064-181-0560/090-909",13.7441139,100.5297045,"Y","Y","Y","Y","Y"
109,"ฟารีดา คลินิก สาขาสุขุมวิท","Fareeda Clinic @ Sukhumvit","ฟารีดา คลินิก สาขาสุขุมวิท","N","N","N","กรุงเทพมหานคร","เขตวัฒนา","http://www.fareeda-clinic.com/","https://www.facebook.com/fareedapromotion/","063 246 1442/02-168-",13.7405753,100.5579022,"Y","Y","Y","Y","N"
110,"ฟารีดา คลินิก สาขาลาดพร้าว","Fareeda Clinic @ Lardphao","ฟารีดา คลินิก สาขาลาดพร้าว","N","N","N","กรุงเทพมหานคร","เขตวังทองหลาง","http://www.fareeda-clinic.com/","https://www.facebook.com/fareedapromotion/","063 246 1442/02-168-",13.7850786,100.6128138,"Y","Y","Y","Y","N"
111,"ฟารีดา คลินิก สาขาเมเจอร์ปิ่นเกล้า","Fareeda Clinic @ Major cineplex pinklao","ฟารีดา คลินิก สาขาเมเจอร์ปิ่นเกล้า","N","N","N","กรุงเทพมหานคร","เขตบางพลัด","http://www.fareeda-clinic.com/","https://www.facebook.com/fareedapromotion/","063 246 1442/02-168-",13.7788663,100.4779341,"Y","Y","Y","Y","N"
112,"ฟิวเซียเอ็กซ์คลูซีฟ คลินิก","Fuchsia Xclusive Clinic","ฟิวเซียเอ็กซ์คลูซีฟ คลินิก","N","N","N","กรุงเทพมหานคร","เขตดินแดง","https://fuchsiathailand.com/","https://www.facebook.com/FuchsiaThailand","098 890 9997",13.7660184,100.5692688,"N","N","Y","N","N"
113,"เกรซคลินิคเวชกรรม","GRACE CLINIC","เกรซคลินิคเวชกรรม","N","N","N","ชลบุรี","เมืองชลบุรี","","https://www.facebook.com/Grace-Clinic-botox-filler-นวดหน้า-731057856992669/","092 554 5424",13.3640719,100.985711,"N","N","Y","N","N"
114,"GRAN CLINIC","GRAN CLINIC","GRAN CLINIC","N","N","N","กรุงเทพมหานคร","เขตพญาไท","https://www.doctorgarnclinic.com","https://www.facebook.com/DoctorGarnClinic/","",13.7736532,100.5422106,"Y","N","N","N","N"
115,"แกรนด์ เอสต้า","Grand esta","แกรนด์ เอสต้า","N","N","N","กรุงเทพมหานคร","เขตวัฒนา","http://www.grandesta.com/","https://www.facebook.com/theestaclinic/","02 021 7666",13.7295789,100.5859745,"N","N","Y","N","N"
116,"กราเนด้าคลินิก สาขาเซนทรัล พระราม 2","Graneda clinic @ Central Plaza Rama 2","กราเนด้าคลินิก สาขาเซนทรัล พระราม 2","N","N","N","กรุงเทพมหานคร","เขตบางขุนเทียน","http://www.granedathailand.com/","https://www.facebook.com/GranedaClinic/","02-872-4446-7/085-82",13.663788,100.4392016,"N","N","Y","N","N"
117,"กราเนด้าคลินิก สาขาเดอะมอลล์ ท่าพระ","Graneda clinic @ The Mall Thaphra","กราเนด้าคลินิก สาขาเดอะมอลล์ ท่าพระ","N","N","N","กรุงเทพมหานคร","เขตธนบุรี","http://www.granedathailand.com/","https://www.facebook.com/GranedaClinic/","02-477-7152/085-828-",13.7136198,100.4789706,"N","N","Y","N","N"
118,"กราเนด้าคลินิก สาขาซีคอนสแควร์","Graneda clinic @ Seacon Square-Srinakarin","กราเนด้าคลินิก สาขาซีคอนสแควร์","N","N","N","กรุงเทพมหานคร","เขตประเวศ","http://www.granedathailand.com/","https://www.facebook.com/GranedaClinic/","02-721-8624/085-828-",13.6944043,100.6479727,"N","N","Y","N","N"
119,"กราเนด้าคลินิก สาขาเดอะมอลล์ บางกะปิ","Graneda clinic @ The Mall Bangkapi","กราเนด้าคลินิก สาขาเดอะมอลล์ บางกะปิ","N","N","N","กรุงเทพมหานคร","เขตบางกะปิ","http://www.granedathailand.com/","https://www.facebook.com/GranedaClinic/","02-363-3368/085-828-",13.7668858,100.6429133,"N","N","Y","N","N"
120,"กราเนด้าคลินิก สาขาเดอะมอลล์ นครราชสีมา","Graneda clinic @ The Mall Nakhon-Ratchasima","กราเนด้าคลินิก สาขาเดอะมอลล์ นครราชสีมา","N","N","N","นครราชสีมา","เมืองนครราชสีมา","http://www.granedathailand.com/","https://www.facebook.com/GranedaClinic/","044-390-502/085-828-",14.9806692,102.0764698,"N","N","Y","N","N"
121,"กราเนด้าคลินิก สาขาบลูพอร์ต หัวหิน","Graneda clinic @ Bluport Resort Huahin","กราเนด้าคลินิก สาขาบลูพอร์ต หัวหิน","N","N","N","ประจวบคีรีขันธ์","หัวหิน","http://www.granedathailand.com/","https://www.facebook.com/GranedaClinic/","032-908-162/085-828-",12.5479135,99.9626557,"N","N","Y","N","N"
122,"กราเนด้าคลินิก สาขาเมกะบางนา","Graneda clinic @ MEGA Bangna","กราเนด้าคลินิก สาขาเมกะบางนา","N","N","N","สมุทรปราการ","บางพลี","http://www.granedathailand.com/","https://www.facebook.com/GranedaClinic/","02-105-1695/085-828-",13.648837499999999,100.6819174,"N","N","Y","N","N"
123,"กราเนด้าคลินิก สาขาฟิวเจอร์พาร์ครังสิต","Graneda clinic @ Future Park Rangsit","กราเนด้าคลินิก สาขาฟิวเจอร์พาร์ครังสิต","N","N","N","ปทุมธานี","ธัญบุรี","http://www.granedathailand.com/","https://www.facebook.com/GranedaClinic/","02-150-9228/085-828-",13.989167,100.618072,"N","N","Y","N","N"
124,"เฮลท์ อเวนิว คลินิก","Health avenue","เฮลท์ อเวนิว คลินิก","N","N","N","กรุงเทพมหานคร","เขตปทุมวัน","http://www.healthavenueclinic.com/","https://www.facebook.com/bydrvanda","02 656 0966",13.7453827,100.5414626,"N","N","Y","N","N"
125,"ออนเนสท์คลินิก","Honest Clinic","ออนเนสท์คลินิก","N","N","N","กรุงเทพมหานคร","เขตบางรัก","https://honestclinic.co.th/","https://www.facebook.com/honestclinicTH/","081 899 2999",13.729619,100.515659,"Y","Y","Y","Y","N"
126,"ไฮโดรเฮลท์ คลินิก","Hydrohealth","ไฮโดรเฮลท์ คลินิก","N","N","N","กรุงเทพมหานคร","เขตปทุมวัน","http://www.hydrohealth.co.th","https://www.facebook.com/Hydrohealth.co.th/","02 250 7800",13.7440576,100.5404565,"N","N","Y","N","Y"
127,"ไอ-จันทร์คลินิกเวชกรรม","I-CHAN MEDICAL CLINIC","ไอ-จันทร์คลินิกเวชกรรม","N","N","N","กรุงเทพมหานคร","เขตบางกะปิ","","","02 733 2672",13.768187,100.6478028,"Y","N","Y","N","Y"
128,"ไอคอนนิก คลินิก","Iconic Clinic","ไอคอนนิก คลินิก","N","N","N","กรุงเทพมหานคร","เขตสวนหลวง","http://www.iconicclinic.com/th","https://www.facebook.com/Iconicclinic/","065-594-5666
02-3911",13.7422,100.601266,"N","N","N","N","Y"
129,"อินฟินิตี้ คลินิก บาย ดอกเตอร์ ปาล์ม","Infinity clinic by Dr. Palm","อินฟินิตี้ คลินิก บาย ดอกเตอร์ ปาล์ม","N","N","N","กรุงเทพมหานคร","เขตดินแดง","http://www.infinityclinicbydrpalm.com/","https://www.facebook.com/infinityclinicbydrpalm/","095 524 6669",13.7781339,100.5582064,"Y","N","N","N","N"
130,"อินฟินิส คลินิก","Infiniz Clinic","อินฟินิส คลินิก","N","N","N","กรุงเทพมหานคร","เขตปทุมวัน","http://www.infinizclinic.com/","https://www.facebook.com/infinizclinic","098-828-5444",13.74369,100.544013,"N","N","Y","Y","Y"
131,"อินโนวา คลีนิกเวชกรรม","Innova clinic","อินโนวา คลีนิกเวชกรรม","N","N","N","ภูเก็ต","ถลาง","","https://www.facebook.com/innovaclinicphuket/","095 258 9650",7.979789,98.3372578,"Y","N","N","N","N"
132,"อินสไปร์คลินิก","Inspire clinic","อินสไปร์คลินิก","N","N","N","กรุงเทพมหานคร","เขตพระโขนง","http://www.inspire-clinic.com/","https://www.facebook.com/inspireclinic/","095 251 6553",13.689269,100.609219,"Y","N","Y","N","N"
133,"ไอริสคลินิกความงาม","IRIS CLINIC","ไอริสคลินิกความงาม","N","N","N","กรุงเทพมหานคร","เขตบางนา","","https://www.facebook.com/iris.clinic/","044 342 225",13.6677185,100.6398284,"N","N","Y","N","N"
134,"ไอสกายคลินิก สาขาชิดลม","iSKY CENTER สาขาชิดลม","ไอสกายคลินิก สาขาชิดลม","N","N","N","กรุงเทพมหานคร","เขตปทุมวัน","http://www.iskycenter.com/","https://www.facebook.com/iSKYcenter/","02-6560208-9",13.745747,100.541934,"Y","Y","Y","Y","Y"
135,"ไอสกายคลินิก สาขาหนองแขม","iSKY CENTER สาขาหนองแขม","ไอสกายคลินิก สาขาหนองแขม","N","N","N","กรุงเทพมหานคร","เขตหนองแขม","http://www.iskycenter.com/","https://www.facebook.com/iSKYcenter/","02-4416969-70",13.7084598,100.3606907,"Y","Y","Y","Y","Y"
136,"จันทรัตน์คลินิก สาขา สุราษฎร์ธานี","Jantarat Clinic @ Suratthani","จันทรัตน์คลินิก สาขา สุราษฎร์ธานี","N","N","N","สุราษฎร์ธานี","เมืองสุราษฎร์ธานี","http://www.จันทรัตน์คลินิก.com","https://www.facebook.com/JantaratClinic/","077 273 883",9.156291,99.343756,"N","N","N","N","Y"
137,"เจษฎาคลินิกเวชกรรม","Jessada Aesthetic Clinic","เจษฎาคลินิกเวชกรรม","N","N","N","นครปฐม","สามพราน","","","034-326899",13.7448013,100.2201856,"Y","N","N","N","N"
138,"เคท็อปคลินิค","K Top Clinic","เคท็อปคลินิค","N","N","N","กรุงเทพมหานคร","เขตวัฒนา","http://ktopclinic.com/","https://www.facebook.com/ktopclinic/","02 006 2093",13.733602,100.581905,"Y","N","N","N","Y"
139,"คณิตาคลินิก","KANITA CLINIC","คณิตาคลินิก","N","N","N","กรุงเทพมหานคร","เขตบางกอกน้อย","http://www.kanitaclinic.com/","https://www.facebook.com/kanitaclinic/?rf=278023158880306","02 848 9617",13.7536323,100.4778866,"Y","N","N","N","N"
140,"โรงพยาบาลเกษมราษฎร์ ประชาชื่น","Kasemrad Prachachuen Hospital","โรงพยาบาลเกษมราษฎร์ ประชาชื่น","N","N","N","กรุงเทพมหานคร","เขตบางซื่อ","http://www.kasemrad.co.th/Prachachuen/th/site/home","https://www.facebook.com/HospitalKasemradPrachachuen/","02 910 1600",13.8318725,100.5387156,"N","N","Y","N","N"
141,"เคดิโกว์ คลินิก","Kediglow Dermatology & Aesthetic Lasers","เคดิโกว์ คลินิก","N","N","N","กรุงเทพมหานคร","เขตห้วยขวาง","http://www.kediglow.com","https://www.facebook.com/kediglow/","090 509 9999",13.7373046,100.5838385,"N","N","N","N","Y"
142,"คลินิกเวชกรรมคาริทีส","Kharites Clinic","คลินิกเวชกรรมคาริทีส","N","N","N","กรุงเทพมหานคร","เขตวัฒนา","","https://www.facebook.com/pg/Kharites-Medical-Aesthetic-Clinic-201803200249762/","021684125",13.7469268,100.5565762,"N","N","Y","N","N"
144,"กองจูคลินิก","Kongju Clinic","กองจูคลินิก","N","N","N","กรุงเทพมหานคร","เขตดินแดง","http://www.kongjuclinic.com/","https://www.facebook.com/Kongjuclinic","02-693-7944",13.7890926,100.5738338,"N","N","Y","N","N"
145,"รพ.โคราชเมโมเรียล","Korat Memorial Hospital","รพ.โคราชเมโมเรียล","N","N","N","นครราชสีมา","เมืองนครราชสีมา","","https://www.facebook.com/RatchasimaHos/","044-263777 ต่อ 212",14.9760566,102.0866346,"Y","N","Y","N","N"
146,"กรรวีคลีนิค","Kornrawee Clinic","กรรวีคลีนิค","N","N","N","ชลบุรี","ศรีราชา","","","038 328 281",13.8404618,100.4961973,"N","N","Y","N","N"
148,"กรวิกกาคลินิก สาขา 2 หนองบัวรอง","Kornvikka Clinic สาขา 2 หนองบัวรอง","กรวิกกาคลินิก สาขา 2 หนองบัวรอง","N","N","N","นครราชสีมา","เมืองนครราชสีมา","https://kvkclinic.com/","https://www.facebook.com/KVKClinic/","095-614-1444",14.9731329,102.0934206,"Y","N","Y","Y","Y"
150,"เคอาร์ เลเซอร์คลินิก","KR Laser Clinic","เคอาร์ เลเซอร์คลินิก","N","N","N","ภูเก็ต","กะทู้","","https://www.facebook.com/krlaserclinic","076 510 744",7.9126258,98.342303,"N","N","N","N","Y"
151,"กฤตยะ คลินิก","Krittaya Clinic","กฤตยะ คลินิก","N","N","N","กรุงเทพมหานคร","เขตบางกะปิ","http://www.krittayaclinic.com","https://www.facebook.com/krittayaclinic/","083 046 5934/099 149",13.7541511,100.6419015,"N","N","Y","N","Y"
152,"ลาเบรอตาน คลินิก","La Bretagne","ลาเบรอตาน คลินิก","N","N","N","กรุงเทพมหานคร","เขตปทุมวัน","http://www.panclinic.com","https://www.facebook.com/PanclinicClub/","02 610 9621",13.7423767,100.5492502,"N","N","N","N","Y"
153,"ลา กราซ คลินิก สาขา เซ็นทรัลเวิลด์","LA GRACE Elegant Beauty Clinic @Central World","ลา กราซ คลินิก สาขา เซ็นทรัลเวิลด์","N","N","N","กรุงเทพมหานคร","เขตปทุมวัน","http://www.lagraceclinic.com","https://www.facebook.com/lagracebeautyclub/","0-2646-1866/08-2796-",13.7468393,100.539765,"N","N","N","N","Y"
154,"แล็บ เดอ อาร์ท คลินิก","Lab De ArtQ Clinic","แล็บ เดอ อาร์ท คลินิก","N","N","N","กรุงเทพมหานคร","เขตบางนา","http://www.labdeartq.com","https://www.facebook.com/LABDEARTQ/","02 196 2033-7 # 106/",13.668588,100.6339494,"Y","N","Y","N","Y"
155,"ลลลานา คลินิก (สาขา หัวหิน)","LOLLANA CLINIC (HUAHIN BRANCH)","ลลลานา คลินิก (สาขา หัวหิน)","N","N","N","ประจวบคีรีขันธ์","หัวหิน","http://www.lollanaclinic.com/","https://www.facebook.com/LabDeArtqClinic/","094 242 3639",13.727804,100.574074,"Y","N","Y","N","N"
156,"เลเซอร์พรีเมียมคลินิกเวชกรรม","Laser Premium","เลเซอร์พรีเมียมคลินิกเวชกรรม","N","N","N","ภูเก็ต","เมืองภูเก็ต","http://www.laserpremiumclinic.com","https://www.facebook.com/laserpremiumclinicphuket/","087 300 6677",7.906176,98.366963,"N","N","Y","N","Y"
157,"โรงพยาบาลเลอลักษณ์","Lelux Hospital","โรงพยาบาลเลอลักษณ์","N","N","N","นนทบุรี","เมืองนนทบุรี","http://lelux.co.th/en/home-en/","https://th-th.facebook.com/leluxofficial/","02-888-2888",13.8408038,100.510449,"N","N","Y","N","N"
158,"ลีโอคลินิก","LEO CLINIC","ลีโอคลินิก","N","N","N","ภูเก็ต","เมืองภูเก็ต","http://leoclinicphuket.com/","https://www.facebook.com/leoclinique/","083-196-5559",7.905208,98.367452,"N","N","Y","N","N"
159,"ศูนย์ความงามและสุขภาพ ลิซ่า ฟรานซิส","Lisa Frances Clinic","ศูนย์ความงามและสุขภาพ ลิซ่า ฟรานซิส","N","N","N","กรุงเทพมหานคร","เขตปทุมวัน","http://www.lisafrances.co.th/en/","https://www.facebook.com/lisafrancesclinic","0-2656-1440",13.7455433,100.5407296,"Y","N","Y","Y","N"
160,"เลิฟลี่อาย แอนด์ สกิน คลินิก","Lovely Eye & Skin Clinic","เลิฟลี่อาย แอนด์ สกิน คลินิก","N","N","N","กรุงเทพมหานคร","เขตวัฒนา","http://www.lovelyeyeclinic.com","https://www.facebook.com/KoreanEyeByDoctorCome","080 120 4414",13.723315,100.584205,"Y","Y","Y","Y","Y"
161,"เดอะ ลูมินัส คลินิก","The Luminus Clinic","เดอะ ลูมินัส คลินิก","N","N","N","กรุงเทพมหานคร","เขตคันนายาว","http://www.theluminus.com/","https://www.facebook.com/luminusclinic/","02 947 5649/099 445",13.8268053,100.6768623,"Y","N","Y","N","N"
162,"ลักซ์ชูรี คลินิก","Luxury Clinic","ลักซ์ชูรี คลินิก","N","N","N","กรุงเทพมหานคร","เขตบางนา","http://www.luxuryclinicthailand.com","https://www.facebook.com/luxuryclinicthailand/","02 745 6527-8",13.668248,100.634628,"N","N","N","N","Y"
163,"เอ็มวีต้า คลินิก","M Vita Clinic","เอ็มวีต้า คลินิก","N","N","N","กรุงเทพมหานคร","เขตวัฒนา","http://www.mvita-clinic.com","https://www.facebook.com/mvitaclinic.thailand/","02 640 8097",13.746673,100.562766,"N","N","Y","N","Y"
164,"มหาวิทยาลัยแม่ฟ้าหลวง","Mae Fah Luang University","มหาวิทยาลัยแม่ฟ้าหลวง","N","N","N","กรุงเทพมหานคร","เขตสาทร","http://www.mfu.ac.th/school/anti-aging","https://www.facebook.com/MFUconnect/","02 664 2295",20.0449472,99.8943462,"Y","N","Y","N","Y"
165,"เอ็ม เอ ไอ เลเซอร์คลินิก","Mai Laser clinic","เอ็ม เอ ไอ เลเซอร์คลินิก","N","N","N","สงขลา","เมืองสงขลา","http://www.skinlaser-hatyai.com/","https://www.facebook.com/mailaser/","081 598 8838",7.009869,100.4816796,"N","N","Y","N","N"
166,"มาสเตอร์พีซ คลินิก","Masterpiece clinic","มาสเตอร์พีซ คลินิก","N","N","N","กรุงเทพมหานคร","เขตปทุมวัน","https://www.masterpiececlinic.com/","https://www.facebook.com/reviewbymasterpiece/","02-105-4370",13.7806133,100.5116802,"N","N","Y","N","N"
167,"เม ลามูน คลินิก","Melamoon Clinic","เม ลามูน คลินิก","N","N","N","นนทบุรี","ปากเกร็ด","http://www.melamoonclinic.com","https://www.facebook.com/melamoonclinic/","092 621 7555",13.916701,100.540242,"N","N","Y","N","Y"
168,"เมดคอนซัลท์คลินิค","MEDCONSULT Clinic","เมดคอนซัลท์คลินิค","N","N","N","กรุงเทพมหานคร","เขตวัฒนา","https://www.medconsultasia.com/","https://www.facebook.com/MedConsultClinicAsia/","02 018 7855",13.7364025,100.5763464,"Y","N","Y","N","N"
169,"เมทเดส คลินิกเวชกรรม","Medest clinic","เมทเดส คลินิกเวชกรรม","N","N","N","กรุงเทพมหานคร","เขตปทุมวัน","","https://www.facebook.com/MedestClinic/","089-166-1465",13.744692,100.5315,"Y","N","Y","N","Y"
170,"เมดิแคร์ คลินิก","Medicare clinic","เมดิแคร์ คลินิก","N","N","N","กรุงเทพมหานคร","เขตห้วยขวาง","http://www.medicareclinic.com/","https://www.facebook.com/medicareclinic","023192525",13.742592,100.593751,"Y","N","N","N","N"
171,"เมดิโกลว์ คลินิก สาขา BEEHIVE LIFESTYLE MALL","Mediglow Clinic @BEEHIVE LIFESTYLE MALL","เมดิโกลว์ คลินิก สาขา BEEHIVE LIFESTYLE MALL","N","N","N","นนทบุรี","ปากเกร็ด","http://mediglowclinic.com/","https://www.facebook.com/mediglowclinic","02 001 5010/095 823",13.9106827,100.5395616,"Y","N","Y","N","Y"
172,"ศูนย์การแพทย์เมดดิไซน์ (อัจจิมา คลินิก)","Medisci Biointegrative Anti-Aging Center (Adjima Clinic)","ศูนย์การแพทย์เมดดิไซน์ (อัจจิมา คลินิก)","N","N","N","กรุงเทพมหานคร","เขตหลักสี่","http://www.mediscicenter.com","https://www.facebook.com/Medisci/","02 954 9440",13.867825,100.5562654,"Y","Y","Y","N","Y"
173,"เมดิวิซาจ สาขา Central World","Medivisage @CentralWorld","เมดิวิซาจ สาขา Central World","N","N","N","กรุงเทพมหานคร","เขตปทุมวัน","http://www.medivisage.com","https://www.facebook.com/Medivisage/","02 646 1599",13.7464638,100.5393848,"Y","N","Y","N","Y"
174,"เมดิวิซาจ สาขา ทองหล่อ","Medivisage @Thonglor","เมดิวิซาจ สาขา ทองหล่อ","N","N","N","กรุงเทพมหานคร","เขตวัฒนา","http://www.medivisage.com","https://www.facebook.com/Medivisage/","083 8585858",13.734288,100.582923,"Y","N","Y","N","Y"
175,"Memory clinic","Memory clinic","Memory clinic","N","N","N","กรุงเทพมหานคร","เขตวัฒนา","https://www.mwcthailand.com","https://www.facebook.com/pg/MemoryClinicWC","094 235 6545",13.7145118,100.5931538,"Y","N","Y","N","Y"
176,"เมโทรโพลิแทน เอสธิติค คลินิก","Metropolitan Aesthetic Clinic","เมโทรโพลิแทน เอสธิติค คลินิก","N","N","N","กรุงเทพมหานคร","เขตปทุมวัน","http://www.metropolitanaesthetic.com/","https://www.facebook.com/Metropolitan-Aesthetic-clinic-399581580797561","084-002-1222",13.721108,100.584712,"N","N","N","N","Y"
177,"เมวิซ คลินิก","MEVIZ Clinic","เมวิซ คลินิก","N","N","N","กรุงเทพมหานคร","เขตสาทร","","https://www.facebook.com/Meviz-Clinic-767999360020375/","02 286 1151",13.7113415,100.5419746,"N","N","Y","N","N"
178,"มิราวูลคลินิกเวชกรรม","MIRAVUE CLINIC","มิราวูลคลินิกเวชกรรม","N","N","N","กรุงเทพมหานคร","เขตคลองเตย","http://www.miravueclinic.com/","https://www.facebook.com/MiravueClinic/","02 712 0770",13.7193951,100.5847035,"N","N","Y","N","N"
179,"โมจิ คลินิก","Moji clinic","โมจิ คลินิก","N","N","N","กรุงเทพมหานคร","เขตบางกอกน้อย","https://mojiclinic.com/","https://www.facebook.com/mojiclinic/","091 889 4387",13.777363,100.477129,"Y","Y","Y","Y","N"
180,"มนต์ชัยคลินิก สาขาบุรีรัมย์","Monchai Clinic Buriram","มนต์ชัยคลินิก สาขาบุรีรัมย์","N","N","N","บุรีรัมย์","เมืองบุรีรัมย์","","https://www.facebook.com/MONCHAI_CLINIC-880363085310586/","086 456 2915",14.995806,103.0953203,"N","N","Y","N","N"
181,"คลินิกเวชกรรมมอร์โฟร์สิส","Morphosis Clinic","คลินิกเวชกรรมมอร์โฟร์สิส","N","N","N","กรุงเทพมหานคร","เขตบางรัก","","","082 238 6425",13.724168,100.515396,"N","N","N","N","Y"
182,"หมอหญิงคลินิก","MORYING Clinic","หมอหญิงคลินิก","N","N","N","เชียงใหม่","เมืองเชียงใหม่","http://www.moryingclinic.com/","https://www.facebook.com/moryingclinic/","053 105 540",18.7468427,98.9515175,"Y","N","N","N","Y"
183,"เอ็มเอสคลินิก","MS CLINIC","เอ็มเอสคลินิก","N","N","N","กรุงเทพมหานคร","เขตวัฒนา","http://www.msclinicthailand.com/","https://www.facebook.com/msclinicthailand/","092-983-1969/096-334",13.7437434,100.5737672,"Y","N","Y","N","Y"
184,"เดอะเอ็มทีค คลินิกเวชกรรม","Mtique clinic","เดอะเอ็มทีค คลินิกเวชกรรม","N","N","N","กรุงเทพมหานคร","เขตห้วยขวาง","","https://www.facebook.com/mtiqueclinic/","087 424 4144",13.7510313,100.572731,"Y","N","Y","N","N"
185,"เมดดิสไมล์สหคลินิก","The Medice Clinic","เมดดิสไมล์สหคลินิก","N","N","N","นนทบุรี","ปากเกร็ด","https://www.mediceclinic.com/","https://www.facebook.com/pg/themediceclinic","061 632 9353",13.902753,100.516324,"Y","N","Y","N","N"
187,"บ้านหมอนิ่มคลินิกเวชกรรม","บ้านหมอนิ่มคลินิกเวชกรรม","บ้านหมอนิ่มคลินิกเวชกรรม","N","N","N","กรุงเทพมหานคร","เขตมีนบุรี","","","084 703 7778",13.7920547,100.7200662,"Y","N","Y","N","N"
188,"นันทวัน คลินิก","NANTHAWAN CLINIC","นันทวัน คลินิก","N","N","N","สุพรรณบุรี","เมืองสุพรรณบุรี","","https://www.facebook.com/Nanthawan-Clinic-1599056286988973/","035 451 708",14.4721371,100.1290328,"N","N","Y","N","N"
189,"นภัสรีย์ คลินิก","Napassaree clinic","นภัสรีย์ คลินิก","N","N","N","กรุงเทพมหานคร","เขตพระโขนง","","https://www.facebook.com/napassareeclinic/","062 457 9922",13.7039905,100.6023183,"Y","Y","N","N","Y"
190,"นารีญา คลินิก","Nareeya clinic","นารีญา คลินิก","N","N","N","กรุงเทพมหานคร","เขตบางนา","http://www.nareeyaclinic.com/","https://www.facebook.com/nareeyaclinic1/","090 953 1414",13.6807601,100.6101892,"N","N","Y","N","N"
191,"นฤชล คลินิก","Naruchon Clinic","นฤชล คลินิก","N","N","N","กรุงเทพมหานคร","เขตบางเขน","http://www.naruchonclinic.com","https://www.facebook.com/naruchonclinic.center/","02-791-9501",13.8663,100.646525,"Y","N","N","N","N"
192,"ณัชชนก คลินิก สาขา รัชดาภิเษก","Natchanok Clinic @Ratchadaphisek","ณัชชนก คลินิก สาขา รัชดาภิเษก","N","N","N","กรุงเทพมหานคร","เขตดินแดง","http://www.natchanokclinic.com","https://www.facebook.com/NatchanokClinicTH/","02 275 6647-8",13.797454,100.5741859,"Y","Y","N","N","Y"
193,"นวลพรรณ คลินิก","Naulpan Clinic","นวลพรรณ คลินิก","N","N","N","นนทบุรี","ปากเกร็ด","","https://www.facebook.com/nuanphanclinic/posts/386726151524943","02 960 6325",13.9083352,100.5019239,"N","N","Y","N","N"
194,"นวธรรม คลินิก","NAWATHUM CLINIC","นวธรรม คลินิก","N","N","N","กรุงเทพมหานคร","เขตมีนบุรี","","https://www.facebook.com/navathamclinic?fref=ufi","081-692-8020",13.8207843,100.7209966,"N","N","Y","N","N"
195,"นีรชา คลินิก","NEERACHA CLINIC","นีรชา คลินิก","N","N","N","นครสวรรค์","เมืองนครสวรรค์","","https://m.facebook.com/pages/Neeracha-Clinic/103554343326736","096 191 5363",15.696592,100.1286251,"Y","Y","Y","Y","N"
197,"นีตนาท คลินิก","Netanart Clinic","นีตนาท คลินิก","N","N","N","กรุงเทพมหานคร","เขตหลักสี่","http://www.netanart.com","https://www.facebook.com/netanart.clinic/","02 677 7199",13.8974517,100.5487096,"N","N","N","N","Y"
198,"ณิชา คลีนิค สาขา ชลบุรี","Nicha Clinic @Chon Buri","ณิชา คลีนิค สาขา ชลบุรี","N","N","N","ชลบุรี","บางละมุง","http://www.nichaclinic.com/","https://www.facebook.com/NichaClinicPattaya/","038-411-190/086 329",12.933138,100.8845,"Y","N","Y","N","N"
199,"นิพนธ์ คลินิก","Nipon Clinic","นิพนธ์ คลินิก","N","N","N","ชลบุรี","เมืองชลบุรี","","https://www.facebook.com/niponskinclinic","038 153 818",13.3376278,100.9692533,"N","N","N","N","Y"
201,"นิติธรรม คลินิก","Nititham Clinic","นิติธรรม คลินิก","N","N","N","พิษณุโลก","เมืองพิษณุโลก","http://www.nitithamclinic.com/","https://www.facebook.com/NititamClinic","084-178-8887",16.821283,100.269041,"Y","N","Y","N","N"
202,"คลินิกผิวหนัง แพทย์นิวัติ","NIWAT CLINIC","คลินิกผิวหนัง แพทย์นิวัติ","N","N","N","ประจวบคีรีขันธ์","หัวหิน","","https://www.facebook.com/คลีนิคผิวหนัง-แพทย์นิวัติ-1050544954992952","063 735 1237",12.4960356,99.9045706,"N","N","Y","N","N"
204,"ณัฐฐา คลินิก","Nutta clinic","ณัฐฐา คลินิก","N","N","N","กรุงเทพมหานคร","เขตจตุจักร","http://www.nutta-clinic.com","https://www.facebook.com/Nuttaclincclub","02-939-5285",13.8283124,100.5677558,"N","N","Y","N","N"
205,"คลินิกเวชกรรมอ่อนนุช","Onnut clinic","คลินิกเวชกรรมอ่อนนุช","N","N","N","กรุงเทพมหานคร","เขตคลองเตย","","https://www.facebook.com/Onnutclinic/","081-735-1668",13.7088001,100.6170707,"N","N","Y","N","N"
206,"ปาลิดา คลินิก","PALIDA CLINIC","ปาลิดา คลินิก","N","N","N","อุดรธานี","เมืองอุดรธานี","https://www.palidaclinic.com/","https://www.facebook.com/palidaclinic","042 155 559",17.4046863,102.7871465,"N","N","Y","N","N"
208,"แพนนาเซีย คลินิก","Panacea Clinic @The Crystal Ramintra","แพนนาเซีย คลินิก","N","N","N","กรุงเทพมหานคร","เขตลาดพร้าว","","https://www.facebook.com/Panaceaclinicthecrystalekamairamindra","092 5646964",13.732498,100.530374,"Y","N","Y","Y","Y"
209,"พรรณวัฒน์ คลินิก","PANNAWAT CLINIC","พรรณวัฒน์ คลินิก","N","N","N","ชลบุรี","เมืองชลบุรี","","https://www.facebook.com/punnawatclinic/","+6662-774-5599",13.362861,100.9895843,"N","N","Y","N","N"
210,"พรรณทิพย์ คลินิก","Puntip clinic","พรรณทิพย์ คลินิก","N","N","N","กรุงเทพมหานคร","เขตวัฒนา","http://www.puntipclinic.com/","https://www.facebook.com/puntipclinicclub/","089-900-7774",13.734382,100.582387,"N","N","Y","N","N"
211,"ภราภิญคลินิก","Parapin Clinic","ภราภิญคลินิก","N","N","N","กรุงเทพมหานคร","เขตห้วยขวาง","","https://www.facebook.com/ParapinClinic/","091 419 6659",13.756137,100.57119900000001,"Y","N","Y","Y","Y"
212,"ภัสสรคลินิกผิวหนัง","PASSORN CLINIC","ภัสสรคลินิกผิวหนัง","N","N","N","สมุทรปราการ","พระประแดง","","","061 245 3565",13.6532435,100.5197662,"N","N","Y","N","N"
213,"พัฒน์ทิพย์พา คลินิก","PATTIPPA CLINIC","พัฒน์ทิพย์พา คลินิก","N","N","N","พระนครศรีอยุธยา","พระนครศรีอยุธยา","","https://www.facebook.com/pattippaclinic/?rc=p","+6692 642 6935",14.3390485,100.6001652,"Y","Y","N","N","Y"
215,"ผิวดี คลินิก สาขา สยามพารากอน","Pewdee Clinic @Paragon Branch","ผิวดี คลินิก สาขา สยามพารากอน","N","N","N","กรุงเทพมหานคร","เขตปทุมวัน","http://www.pewdeeclinic.com","https://www.facebook.com/pewdeeclinic","02-610-9917-8",13.7472602,100.5347872,"Y","N","Y","N","Y"
218,"ภพรวิญ คลินิก","Phoprawin clinic","ภพรวิญ คลินิก","N","N","N","นนทบุรี","ปากเกร็ด","http://phoprawinclinic.com/","https://www.facebook.com/Phoprawin-clinic-411209152411474/","+6686 979 0055",13.9033718,100.5441233,"Y","N","N","N","N"
219,"รพ.พระมงกุฎเกล้า","Phramongkutklao Hospital","รพ.พระมงกุฎเกล้า","N","N","N","กรุงเทพมหานคร","เขตราชเทวี","http://www.pmk.ac.th/index.php/","","0-2763-9300",13.7676588,100.534456,"Y","N","N","N","N"
220,"โรงพยาบาลสิริโรจน์","Siriroj International Hospital","โรงพยาบาลสิริโรจน์","N","N","N","ภูเก็ต","เมืองภูเก็ต","http://www.phuketinternationalhospital.com","https://www.facebook.com/SirirojInternationalHospital/","076 361 888",7.898062,98.367842,"N","N","N","N","Y"
221,"ภูเก็ตสกินเซ็นเตอร์","Phuket Skin Center","ภูเก็ตสกินเซ็นเตอร์","N","N","N","ภูเก็ต","เมืองภูเก็ต","http://www.phuketskincenter.com/","https://www.facebook.com/phuketskincenter/","076-523-119",7.902026,98.379442,"Y","N","Y","N","Y"
222,"ภิมณ์ธารา เอสเตติก้า","Pimtara Estetica","ภิมณ์ธารา เอสเตติก้า","N","N","N","กรุงเทพมหานคร","เขตวัฒนา","http://www.pimtara.com/","https://www.facebook.com/PimtaraEstetica","02 662 3600-1",13.7335907,100.565844,"Y","N","Y","N","Y"
224,"พิสิษฐ์ คลินิก","Pisit Beauty Clinic","พิสิษฐ์ คลินิก","N","N","N","กรุงเทพมหานคร","เขตยานนาวา","","https://www.facebook.com/PisitClinic/","02 681 4627",13.6915735,100.5378828,"N","N","N","N","Y"
226,"พลอยรดา คลินิก","Ployrada Clinic","พลอยรดา คลินิก","N","N","N","ระยอง","เมืองระยอง","http://ployradaclinic.com/","https://www.facebook.com/ployradaclinic/","095 905 2000",12.685265,101.26981,"N","N","Y","N","Y"
227,"พลัสคลินิก","Plus clinic","พลัสคลินิก","N","N","N","กรุงเทพมหานคร","เขตหลักสี่","http://plus-clinic.com/","https://www.facebook.com/plusclinic.official/","02 575 3977",13.889175,100.575015,"Y","N","Y","N","N"
228,"พีเอ็น เอสธีติค คลินิค","PN ESTHETIC CLINIC","พีเอ็น เอสธีติค คลินิค","N","N","N","กรุงเทพมหานคร","เขตปทุมวัน","http://www.pnestheticclinic.com/","https://www.facebook.com/PN.Esthetic.Clinic.By.Prapainalin/","062-665-6645",13.7435459,100.54779,"Y","N","Y","N","N"
229,"พงศ์ศักดิ์คลินิก สาขา เอสพลานาด","PONGSAK CLINIC @ ESPLANADE","พงศ์ศักดิ์คลินิก สาขา เอสพลานาด","N","N","N","กรุงเทพมหานคร","เขตดินแดง","http://www.pongsak-clinic.com/home","https://www.facebook.com/pongsakclinic/","081 720 2900",13.7661269,100.5698707,"Y","Y","Y","Y","Y"
230,"พรชัยคลินิก","PORNCHAI CLINIC","พรชัยคลินิก","N","N","N","อุตรดิตถ์","เมืองอุตรดิตถ์","","https://www.facebook.com/pornchaiclinic.Utt/","091 829 9033",17.6182448,100.0973493,"N","N","Y","N","N"
231,"แพร คลินิกเวชกรรม","PRAE CLINIC","แพร คลินิกเวชกรรม","N","N","N","กรุงเทพมหานคร","เขตห้วยขวาง","http://praeclinic.blogspot.sg/","https://th-th.facebook.com/แพรคลินิก-302877266454123/","085-152-1749",13.746007,100.5798956,"Y","Y","N","N","N"
232,"หมอปรางทิพย์คลินิก","Prangtip clinic","หมอปรางทิพย์คลินิก","N","N","N","กรุงเทพมหานคร","เขตห้วยขวาง","http://www.prangtipclinic.com/","https://www.facebook.com/prangtipclinic","095-563-2666",13.771304,100.583957,"Y","N","Y","N","N"
233,"เดอะ เพรสทีจ คลินิกเวชกรรม","PRESTIGE CLINIC","เดอะ เพรสทีจ คลินิกเวชกรรม","N","N","N","กรุงเทพมหานคร","เขตวัฒนา","http://www.prestigeclinic.co.th/","https://www.facebook.com/theprestigeclinic/","02 185 3380",13.7342423,100.5796776,"Y","N","N","N","N"
234,"ไพรมารี่ คลินิก","Primary Clinic","ไพรมารี่ คลินิก","N","N","N","นนทบุรี","เมืองนนทบุรี","","https://www.facebook.com/pirapat.ceelee","092-4741144/02-95355",13.8569243,100.5410244,"N","N","Y","N","N"
235,"พรีโม่คลินิก","Primo clinic","พรีโม่คลินิก","N","N","N","กรุงเทพมหานคร","เขตบางรัก","http://www.primoclinic.com/","https://www.facebook.com/PRIMOskinClinic/?rf=392382177624629","02-632-9990/096-551-",13.7280996,100.5327223,"Y","N","N","N","N"
236,"พริวิเลจคลินิก สาขาลาดพร้าว","Privilege Clinic @Ladprao","พริวิเลจคลินิก สาขาลาดพร้าว","N","N","N","กรุงเทพมหานคร","เขตลาดพร้าว","","https://www.facebook.com/privilegeclinic/","081-723-0102",13.783902,100.61283,"N","N","N","N","Y"
237,"พริวิเลจคลินิก สาขาเพลินจิต","Privilege Clinic @Ploenjit","พริวิเลจคลินิก สาขาเพลินจิต","N","N","N","กรุงเทพมหานคร","เขตปทุมวัน","","https://www.facebook.com/privilegeclinic/","090-801-9990",13.7422185,100.5489675,"N","N","N","N","Y"
238,"โพรเดอร์มา คลินิก","Proderma Clinic","โพรเดอร์มา คลินิก","N","N","N","กรุงเทพมหานคร","เขตพญาไท","http://www.prodermaclinics.com","https://www.facebook.com/proderma/","02 619 8407",13.7723358,100.5417661,"N","N","Y","Y","Y"
239,"คลินิคผิวหนังหมอโปรดปราน","Prodpran clinic","คลินิคผิวหนังหมอโปรดปราน","N","N","N","จันทบุรี","เมืองจันทบุรี","","https://www.facebook.com/คลินิกผิวหนังหมอโปรดปราน-1611617872456090/","089 924 5568",12.6304552,102.1015648,"Y","N","Y","N","Y"
240,"วิทาเลีย คลินิก","Vitalia Clinic by RVT","วิทาเลีย คลินิก","N","N","N","กรุงเทพมหานคร","เขตบางแค","http://www.rvtclinic.com/","https://www.facebook.com/pg/rvtclinic/about/","02 077 7801",13.6937649,100.4080164,"Y","Y","Y","Y","N"
242,"รัยนาแพรีคลินิก","Raina Parie Clinic","รัยนาแพรีคลินิก","N","N","N","กรุงเทพมหานคร","เขตวัฒนา","http://www.rainaparie.com/","https://www.facebook.com/RainaParie-Laser-Skin-Clinic-297794250598/","+662662-1597",13.7347678,100.5661795,"N","N","N","N","Y"
244,"รักษ์ชนกคลินิก","RAKCHANOK Clinic","รักษ์ชนกคลินิก","N","N","N","กรุงเทพมหานคร","เขตดินแดง","","https://www.facebook.com/Rakchanokbydr.aom","061 596 6463",13.7778916,100.5598699,"Y","N","N","N","N"
245,"รมัยคลินิก","RAMAI CLINIC","รมัยคลินิก","N","N","N","กรุงเทพมหานคร","เขตพญาไท","https://www.ramaiclinic.com/","https://www.facebook.com/ramaiclinic/","02 004 8575",13.8347788,100.5728501,"N","N","Y","N","N"
246,"โรงพยาบาลรามาธิบดี","Ramathibodi Hospital","โรงพยาบาลรามาธิบดี","N","N","N","กรุงเทพมหานคร","เขตราชเทวี","http://www.med.mahidol.ac.th/med/th/division/skin","","02 201 1301",13.766015,100.5267864,"Y","N","Y","N","Y"
248,"รสิตาคลินิก","RASITA CLINIC","รสิตาคลินิก","N","N","N","กรุงเทพมหานคร","","","https://www.facebook.com/rasitaclinicc/","02 148 1078",13.770695,100.606146,"Y","N","Y","N","N"
249,"ริญระวีคลินิค","Rinrawee Clinic","ริญระวีคลินิค","N","N","N","ขอนแก่น","เมืองขอนแก่น","http://www.rinrawee.com","https://www.facebook.com/rinraweeclinic.dermatologist","043 225 627",16.4213848,102.8202674,"N","N","N","N","Y"
250,"เอส เมดิคัล คลินิก","S Medical Clinic","เอส เมดิคัล คลินิก","N","N","N","กรุงเทพมหานคร","เขตคลองเตย","http://www.smedicalclinic.com/","https://www.facebook.com/smedicalclinic/","02 264 0999",13.732868,100.560258,"N","N","Y","N","Y"
251,"เอส อี ซี คลินิก สาขาลาดพร้าว","S.E.C Clinic @Ladprao","เอส อี ซี คลินิก สาขาลาดพร้าว","N","N","N","กรุงเทพมหานคร","เขตลาดพร้าว","http://www.secclinic.com/","https://www.facebook.com/SECclinic/","087-909-9988/02-512-",13.8018463,100.5807714,"Y","N","Y","N","Y"
252,"เอส อี ซี คลินิก สาขาปิ่นเกล้า","S.E.C Clinic @Pinkloa","เอส อี ซี คลินิก สาขาปิ่นเกล้า","N","N","N","กรุงเทพมหานคร","เขตบางกอกน้อย","http://www.secclinic.com/","https://www.facebook.com/SECclinic/","087-064-9988/02-002-",13.775455000000001,100.479514,"Y","N","Y","N","Y"
253,"เอส อี ซี คลินิก สาขาทองหล่อ","S.E.C Clinic @Thonglor","เอส อี ซี คลินิก สาขาทองหล่อ","N","N","N","กรุงเทพมหานคร","เขตบางแค","http://www.secclinic.com/","https://www.facebook.com/SECclinic/","084-754-9988/061-564",13.7261337,100.5803756,"Y","N","Y","N","Y"
254,"โรงพยาบาลสมิติเวช สุขุมวิท","Samitivej Hospital @ Sukhumvit","โรงพยาบาลสมิติเวช สุขุมวิท","N","N","N","กรุงเทพมหานคร","เขตวัฒนา","http://www.samitivejhospitals.com/sukhumvit/","https://www.facebook.com/samitivejsukhumvit/","02 022 2222",13.7348727,100.5765805,"Y","N","N","N","Y"
255,"โรงพยาบาลสรรพสิทธิประสงค์","Sanpasit International Hospital","โรงพยาบาลสรรพสิทธิประสงค์","N","N","N","อุบลราชธานี","เมืองอุบลราชธานี","","https://www.facebook.com/%E0%B9%82%E0%B8%A3%E0%B8%87%E0%B8%9E%E0%B8%A2%E0%B8%B2%E0%B8%9A%E0%B8%B2%E0%B8%A5%E0%B8%AA%E0%B8%A3%E0%B8%A3%E0%B8%9E%E0%B8%AA%E0%B8%B4%E0%B8%97%E0%B8%98%E0%B8%B4%E0%B8%9B%E0%","098 306 6525",15.2360225,104.8653911,"N","N","N","N","Y"
256,"ศรินยาคลินิก","Sarinya clinic","ศรินยาคลินิก","N","N","N","เชียงใหม่","เมืองเชียงใหม่","http://www.sarinya-clinic.com/","https://www.facebook.com/sarinyaclinic/","053-216-924",18.794995,98.972183,"Y","N","Y","N","Y"
257,"เดอะ สการ์เล็ตต์ คลินิก","Scarlett Clinic","เดอะ สการ์เล็ตต์ คลินิก","N","N","N","กรุงเทพมหานคร","เขตปทุมวัน","http://www.thescarlettclinic.com/","https://www.facebook.com/thescarlettclinic/","02 610 9372",13.7477043,100.5349652,"Y","N","N","N","Y"
258,"เซ้นส์ คลินิก","Sense clinic","เซ้นส์ คลินิก","N","N","N","กรุงเทพมหานคร","เขตวัฒนา","http://www.sense-clinic.com/","https://www.facebook.com/senseclinic/","02 653 0044",13.737926,100.55875,"N","N","Y","N","N"
259,"เซนต์สกินคลินิกเวชกรรม","Sense Skeyn Clinic","เซนต์สกินคลินิกเวชกรรม","N","N","N","สงขลา","เมืองสงขลา","http://www.senseskinclinic.com/","https://www.facebook.com/Senseskeynclinic/","074-327338/085-67100",7.0127873,100.4772531,"Y","N","Y","N","N"
260,"เซเว่นพลัสคลินิก","Seven plus clinic","เซเว่นพลัสคลินิก","N","N","N","กรุงเทพมหานคร","เขตสวนหลวง","http://www.sevenplusclinic.com","https://www.facebook.com/SevenPlusClinic/","02-005-5552 ",13.7427053,100.6333941,"Y","N","Y","N","N"
261,"เชอริต้าคลินิก","Sherita Clinic","เชอริต้าคลินิก","N","N","N","กรุงเทพมหานคร","เขตวังทองหลาง","http://www.sheritaclinic.com/","https://www.facebook.com/sheritaclinic/","091 442 6565",13.7889703,100.5975191,"N","N","Y","N","N"
262,"ศิวารินทร์ คลินิก สาขา อ่อนนุช-ลาดกระบัง","SilverineClinic @Onnuch-Larkrabang","ศิวารินทร์ คลินิก สาขา อ่อนนุช-ลาดกระบัง","N","N","N","กรุงเทพมหานคร","เขตลาดกระบัง","http://silverineclinic.com/th","https://www.facebook.com/SilverineClinic/","02 346 4263/084 694",13.721594,100.7271908,"Y","N","N","N","Y"
263,"ศิวารินทร์ คลินิก สาขา รามอินทรา","SilverineClinic @Ramindra","ศิวารินทร์ คลินิก สาขา รามอินทรา","N","N","N","กรุงเทพมหานคร","เขตคันนายาว","http://silverineclinic.com/th","https://www.facebook.com/SilverineClinic/","02 108 5132/084 695",13.8269858,100.6764757,"Y","N","N","N","Y"
264,"ซินเซีย บิวตี้ คลินิก","Sincere Beauty Clinic","ซินเซีย บิวตี้ คลินิก","N","N","N","กรุงเทพมหานคร","เขตวัฒนา","http://www.sincerebeautyclinic.com/","https://www.facebook.com/sincerebeautyclinic/","02 662 7001-2",13.7297779,100.5781817,"N","N","N","N","Y"
265,"ซิโนต้า คลินิก","Sinota Clinic","ซิโนต้า คลินิก","N","N","N","กรุงเทพมหานคร","เขตคลองเตย","http://www.sinotaclinic.com/","https://www.facebook.com/sinotaclinic/","064 239 3291",13.7186999,100.5855941,"Y","N","N","N","Y"
266,"สิรอัยย์กรคลินิก","Siraikorn clinic","สิรอัยย์กรคลินิก","N","N","N","กรุงเทพมหานคร","เขตลาดพร้าว","http://www.siraikornclinic.com/","https://www.facebook.com/siraikornclinic/","086 565 6989",13.8040791,100.6162557,"N","N","Y","N","Y"
267,"ศิริเวลเนสเซ็นเตอร์","Siri Wellness Center","ศิริเวลเนสเซ็นเตอร์","N","N","N","กรุงเทพมหานคร","เขตยานนาวา","http://www.siriwellness.co.th/","https://www.facebook.com/siriwellness2015/","02 676 2454",13.7167025,100.5323,"N","N","N","N","Y"
268,"โรงพยาบาลศิริราช","Siriraj Hospital","โรงพยาบาลศิริราช","N","N","N","กรุงเทพมหานคร","เขตบางกอกน้อย","http://www.si.mahidol.ac.th/Th/department/dermatology/","","02 419 9801",13.7599266,100.4857927,"N","N","N","N","Y"
269,"สิริวรรณคลินิก","Siriwan Clinic","สิริวรรณคลินิก","N","N","N","กรุงเทพมหานคร","เขตคันนายาว","","https://www.facebook.com/siriwan.clinic","662 509 8165",13.839000500000001,100.6613114,"Y","N","Y","N","N"
270,"Skin Element Clinic","Skin Element Clinic","Skin Element Clinic","N","N","N","ภูเก็ต","เมืองภูเก็ต","http://www.skinelement.com/","https://www.facebook.com/skinelementclinic/","089 873 1323",7.9599861,98.3863996,"N","N","Y","N","Y"
271,"โรงพยาบาลผิวหนังอโศก","Skin Hospital","โรงพยาบาลผิวหนังอโศก","N","N","N","กรุงเทพมหานคร","เขตห้วยขวาง","http://www.skinhospital.co.th/th/home/","https://www.facebook.com/asokeskinhospital","02 246 5111",13.7508076,100.5642918,"N","N","N","N","Y"
272,"สกินทูยู เอสเทติค คลินิก","Skin2U Aesthetic clinic","สกินทูยู เอสเทติค คลินิก","N","N","N","อุบลราชธานี","เมืองอุบลราชธานี","","https://www.facebook.com/skin2uclinic/","099-4429956 / 087-60",15.23782,104.8522288,"Y","N","Y","N","N"
273,"เอส-มาร์ท คลินิก","S-Mart Clinic","เอส-มาร์ท คลินิก","N","N","N","กรุงเทพมหานคร","เขตลาดพร้าว","http://www.s-martclinic.com/","https://www.facebook.com/smartclinic99","02-907-0248",13.8326316,100.6125676,"Y","N","Y","N","Y"
275,"สมูธ ดี สกินแคร์","Smooth D Skin Care & Laser Clinic","สมูธ ดี สกินแคร์","N","N","N","กรุงเทพมหานคร","เขตพญาไท","","https://www.facebook.com/Smooth-D-Laserclinic-173508936088691","02 619 5991",13.77759,100.5422709,"N","N","N","N","Y"
276,"Someko โซเมโกะ","Someko","Someko โซเมโกะ","N","N","N","กรุงเทพมหานคร","เขตจตุจักร","","https://www.facebook.com/somekoclinic/","098 915 9220",13.8072416,100.5568421,"N","N","Y","N","Y"
277,"สปริงคลินิก","Spring clinic","สปริงคลินิก","N","N","N","กรุงเทพมหานคร","เขตราชเทวี","http://springperfect.com/","https://www.facebook.com/Springperfect/","02-354-9264",13.757417,100.533501,"Y","N","N","N","N"
278,"รพ.ศรีสวรรค์","Srisawan Hospital","รพ.ศรีสวรรค์","N","N","N","นครสวรรค์","เมืองนครสวรรค์","http://www.srisawan.com/","https://web.facebook.com/Srisawan.DoctorS/","056 221 222",15.7060449,100.1309504,"N","N","N","N","Y"
279,"รพ.ศรีสุโข","Srisukho Hospital","รพ.ศรีสุโข","N","N","N","พิจิตร","เมืองพิจิตร","http://www.srisukho.com/","https://web.facebook.com/pg/srisukhohospital","056-651481-3",16.440965,100.339402,"Y","N","Y","N","N"
280,"เอสทีคลินิก","ST CLINIC","เอสทีคลินิก","N","N","N","กรุงเทพมหานคร","เขตบางเขน","","https://www.facebook.com/Dr.SamartTapwaew/","062 641 8181",13.8807722,100.6437651,"Y","N","Y","N","N"
281,"เอสวีเจคลินิก สาขาสยาม","SVJ Clinic Siam","เอสวีเจคลินิก สาขาสยาม","N","N","N","กรุงเทพมหานคร","เขตปทุมวัน","http://www.svjclinic.com/","https://www.facebook.com/svjclinic/","02 658 3838",13.745896,100.531127,"N","N","N","N","Y"
282,"สวอน คลินิก","Swan Clinic","สวอน คลินิก","N","N","N","กาญจนบุรี","ท่ามะกา","","https://www.facebook.com/swanclinic1","094-549-4441",14.0249854,99.5545375,"N","N","Y","N","N"
283,"ธนาคลินิก  ","Tana Clinic","ธนาคลินิก  ","N","N","N","ราชบุรี","บ้านโป่ง","","https://www.facebook.com/TanaClinic/","032 210 599",13.8167613,99.8715786,"Y","N","Y","N","N"
285,"คลินิกหมอทัณทิกา","Tantika Clinic","คลินิกหมอทัณทิกา","N","N","N","สมุทรปราการ","เมืองสมุทรปราการ","http://www.tantikaskinclinic.com/","https://www.facebook.com/tantikaskinclinic/","02 701 7271",13.5891154,100.597892,"Y","N","N","N","Y"
286,"ธารา คลินิก","Tara clinic","ธารา คลินิก","N","N","N","กรุงเทพมหานคร","เขตวังทองหลาง","http://www.tara-trc.com/th/","https://www.facebook.com/TARA.TRC/","083-2891664",13.7808437,100.6191684,"N","N","Y","N","N"
287,"ธารารินคลินิก","TARARIN CLINIC","ธารารินคลินิก","N","N","N","ขอนแก่น","เมืองขอนแก่น","http://www.tararinclinic.com/","https://www.facebook.com/tararinclinic","085-755-0515",16.449341,102.841417,"N","N","Y","N","N"
288,"แทมมารีน คลินิก","Temmarine clinic","แทมมารีน คลินิก","N","N","N","กรุงเทพมหานคร","เขตบางกะปิ","https://www.temmarineclinic.com/","https://www.facebook.com/ClinicTemmarine","083 125 8222",13.807437,100.629699,"N","N","Y","N","N"
289,"เต็มสิริคลินิค","Temsiri clinic","เต็มสิริคลินิค","N","N","N","นครสวรรค์","เมืองนครสวรรค์","","https://www.facebook.com/Temsiriclinic/","094 818 9323",15.7116384,100.1346855,"Y","N","N","N","Y"
290,"เทน่า คลินิก","Tena clinic","เทน่า คลินิก","N","N","N","กรุงเทพมหานคร","เขตสวนหลวง","http://www.tenaskinclinic.com/","https://www.facebook.com/tenaclinicbydr.usa/","098 810 8898",13.7362422,100.6416597,"Y","Y","Y","Y","N"
291,"ธนิยะ เมดิคอล คลินิก","Thaniya Clinic","ธนิยะ เมดิคอล คลินิก","N","N","N","กรุงเทพมหานคร","เขตบางรัก","http://www.thaniyacenter.com","https://www.facebook.com/clinicthaniya/","02 231 2100",13.7288285,100.5338361,"Y","N","N","N","Y"
292,"ธัญญ่าคลินิก","Thanya clinic","ธัญญ่าคลินิก","N","N","N","กรุงเทพมหานคร","เขตบางรัก","http://www.thanyaclinic.com","https://www.facebook.com/thanyaclinic","086 020 5628",13.7208276,100.5161439,"Y","N","Y","N","N"
293,"เดอะ เดอมิส คลินิก สาขาสยามสแควร์วัน","The Demis Clinic @ Siam Square One","เดอะ เดอมิส คลินิก สาขาสยามสแควร์วัน","N","N","N","กรุงเทพมหานคร","เขตปทุมวัน","http://www.thedemisclinic.com/","https://www.facebook.com/Thedemisclinic/","02 251 6320-1",13.744918,100.533658,"Y","Y","Y","Y","Y"
294,"เดอะ เดอมิส คลินิก สาขาเพียวเพลส รามคำแหง 110","The Demis Clinic @ Pure Place Ram110","เดอะ เดอมิส คลินิก สาขาเพียวเพลส รามคำแหง 110","N","N","N","กรุงเทพมหานคร","เขตสะพานสูง","http://www.thedemisclinic.com/","https://www.facebook.com/Thedemisclinic/","02 729 8524",13.77635,100.673329,"Y","Y","Y","Y","Y"
295,"ดิเอ็มเมอรัล คลินิก","The Emerald Clinic","ดิเอ็มเมอรัล คลินิก","N","N","N","กรุงเทพมหานคร","เขตวัฒนา","","https://www.facebook.com/TheEmeraldClinic/","02404-2071",13.7670489,100.4059605,"Y","Y","Y","Y","Y"
296,"ศูนย์การแพทย์ ดิ อิมเมจ","THE IMAGE MEDICAL AESTHETIC CENTRE","ศูนย์การแพทย์ ดิ อิมเมจ","N","N","N","กรุงเทพมหานคร","เขตลาดพร้าว","","https://www.facebook.com/theimagethailand/","02 515 0120",13.8096178,100.6199172,"Y","Y","Y","Y","Y"
297,"เดอะคลีนิกค์ สยามสแควร์","THE KLINIQUE @ Siam Square One","เดอะคลีนิกค์ สยามสแควร์","N","N","N","กรุงเทพมหานคร","เขตวัฒนา","http://www.theklinique.com/","https://www.facebook.com/TheKliniqueMedicalClinic/","080-000-9800",13.7449804,100.5339269,"Y","Y","Y","N","Y"
298,"เดอะคลีนิกค์ เซ็นทรัล โคราช","THE KLINIQUE @ Central Korat","เดอะคลีนิกค์ เซ็นทรัล โคราช","N","N","N","นครราชสีมา","เมืองนครราชสีมา","http://www.theklinique.com/","https://www.facebook.com/TheKliniqueMedicalClinic/","080-000-9800",14.9969664,102.1163407,"Y","Y","Y","N","Y"
299,"เดอะคลีนิกค์ เมเจอร์รัชโยธิน","THE KLINIQUE @ Major Ratchayothin","เดอะคลีนิกค์ เมเจอร์รัชโยธิน","N","N","N","กรุงเทพมหานคร","เขตจตุจักร","http://www.theklinique.com/","https://www.facebook.com/TheKliniqueMedicalClinic/","080-000-9800",13.8284351,100.5686327,"Y","Y","Y","N","Y"
300,"เดอะคลีนิกค์ เซ็นทรัล พระราม 9","THE KLINIQUE @ Central Rama 9","เดอะคลีนิกค์ เซ็นทรัล พระราม 9","N","N","N","กรุงเทพมหานคร","เขตห้วยขวาง","http://www.theklinique.com/","https://www.facebook.com/TheKliniqueMedicalClinic/","080-000-9800",13.7584065,100.5660806,"Y","Y","Y","N","Y"
301,"เดอะคลีนิกค์ เซ็นทรัล ขอนแก่น","THE KLINIQUE @ Central Khonkaen","เดอะคลีนิกค์ เซ็นทรัล ขอนแก่น","N","N","N","ขอนแก่น","เมืองขอนแก่น","http://www.theklinique.com/","https://www.facebook.com/TheKliniqueMedicalClinic/","080-000-9800",16.432901,102.825582,"Y","Y","Y","N","Y"
302,"เดอะคลีนิกค์ เดอะมอลล์งามวงศ์วาน","THE KLINIQUE @ The Mall Ngamwongwan","เดอะคลีนิกค์ เดอะมอลล์งามวงศ์วาน","N","N","N","นนทบุรี","เมืองนนทบุรี","http://www.theklinique.com/","https://www.facebook.com/TheKliniqueMedicalClinic/","080-000-9800",13.8552129,100.5420893,"Y","Y","Y","N","Y"
303,"เดอะคลีนิกค์ เซ็นทรัล พัทยา","THE KLINIQUE @ Central Pattaya","เดอะคลีนิกค์ เซ็นทรัล พัทยา","N","N","N","ชลบุรี","บางละมุง","http://www.theklinique.com/","https://www.facebook.com/TheKliniqueMedicalClinic/","080-000-9800",12.9346235,100.8832895,"Y","Y","Y","N","Y"
304,"เดอะคลีนิกค์ เดอะมอลล์ บางกะปิ","THE KLINIQUE @ The Mall Bangkapi","เดอะคลีนิกค์ เดอะมอลล์ บางกะปิ","N","N","N","กรุงเทพมหานคร","เขตบางกะปิ","http://www.theklinique.com/","https://www.facebook.com/TheKliniqueMedicalClinic/","080-000-9800",13.7660037,100.6426046,"Y","Y","Y","N","Y"
305,"เดอะคลีนิกค์ เดอะพรอมานาด","THE KLINIQUE @ The Promenade","เดอะคลีนิกค์ เดอะพรอมานาด","N","N","N","กรุงเทพมหานคร","เขตคันนายาว","http://www.theklinique.com/","https://www.facebook.com/TheKliniqueMedicalClinic/","080-000-9800",13.8266665,100.6766975,"Y","Y","Y","N","Y"
306,"เดอะคลีนิกค์ ซีคอนสแควร์ ศรีนครินทร์","THE KLINIQUE @ Seacon Square","เดอะคลีนิกค์ ซีคอนสแควร์ ศรีนครินทร์","N","N","N","กรุงเทพมหานคร","เขตประเวศ","http://www.theklinique.com/","https://www.facebook.com/TheKliniqueMedicalClinic/","080-000-9800",13.6955652,100.6486074,"Y","Y","Y","N","Y"
307,"เดอะคลีนิกค์ เซ็นทรัล พระราม3","THE KLINIQUE @ Central Rama 3","เดอะคลีนิกค์ เซ็นทรัล พระราม3","N","N","N","กรุงเทพมหานคร","เขตยานนาวา","http://www.theklinique.com/","https://www.facebook.com/TheKliniqueMedicalClinic/","080-000-9800",13.6975358,100.5376581,"Y","Y","Y","N","Y"
308,"เดอะคลีนิกค์ เซ็นทรัล บางนา","THE KLINIQUE @ Central Bangna","เดอะคลีนิกค์ เซ็นทรัล บางนา","N","N","N","กรุงเทพมหานคร","เขตบางนา","http://www.theklinique.com/","https://www.facebook.com/TheKliniqueMedicalClinic/","080-000-9800",13.6694945,100.634414,"Y","Y","Y","N","Y"
309,"เดอะคลีนิกค์ เดอะมอลล์ บางแค","THE KLINIQUE @ The Mall Bangkae","เดอะคลีนิกค์ เดอะมอลล์ บางแค","N","N","N","กรุงเทพมหานคร","เขตบางแค","http://www.theklinique.com/","https://www.facebook.com/TheKliniqueMedicalClinic/","080-000-9800",13.7137885,100.4078782,"Y","Y","Y","N","Y"
310,"เดอะคลีนิกค์ เซ็นทรัล ปิ่นเกล้า","THE KLINIQUE @ Central Pinklao","เดอะคลีนิกค์ เซ็นทรัล ปิ่นเกล้า","N","N","N","กรุงเทพมหานคร","เขตบางกอกน้อย","http://www.theklinique.com/","https://www.facebook.com/TheKliniqueMedicalClinic/","080-000-9800",13.777702099999999,100.4760321,"Y","Y","Y","N","Y"
311,"เดอะคลีนิกค์ เซ็นทรัล พระราม2","THE KLINIQUE @ Central Rama 2","เดอะคลีนิกค์ เซ็นทรัล พระราม2","N","N","N","กรุงเทพมหานคร","เขตบางขุนเทียน","http://www.theklinique.com/","https://www.facebook.com/TheKliniqueMedicalClinic/","080-000-9800",13.6635768,100.4392833,"Y","Y","Y","N","Y"
312,"เดอะคลีนิกค์ ฟิวเจอร์พาร์ครังสิต","THE KLINIQUE @ Future Park Rangsit","เดอะคลีนิกค์ ฟิวเจอร์พาร์ครังสิต","N","N","N","ปทุมธานี","ธัญบุรี","http://www.theklinique.com/","https://www.facebook.com/TheKliniqueMedicalClinic/","080-000-9800",13.9888305,100.617463,"Y","Y","Y","N","Y"
313,"เดอะคลีนิกค์ เซ็นทรัล ลาดพร้าว","THE KLINIQUE @ Central Ladprao","เดอะคลีนิกค์ เซ็นทรัล ลาดพร้าว","N","N","N","กรุงเทพมหานคร","เขตจตุจักร","http://www.theklinique.com/","https://www.facebook.com/TheKliniqueMedicalClinic/","080-000-9800",13.8161509,100.5606395,"Y","Y","Y","N","Y"
314,"เดอะคลีนิกค์ สีลมคอมเพล็กซ์","THE KLINIQUE @ Silom Complex","เดอะคลีนิกค์ สีลมคอมเพล็กซ์","N","N","N","กรุงเทพมหานคร","เขตบางรัก","http://www.theklinique.com/","https://www.facebook.com/TheKliniqueMedicalClinic/","080-000-9800",13.7282649,100.5350012,"Y","Y","Y","N","Y"
315,"เดอะคลีนิกค์ เซ็นทรัล ระยอง","THE KLINIQUE @ Central Rayong","เดอะคลีนิกค์ เซ็นทรัล ระยอง","N","N","N","ระยอง","เมืองระยอง","http://www.theklinique.com/","https://www.facebook.com/TheKliniqueMedicalClinic/","080-000-9800",12.696123,101.2685885,"Y","Y","Y","N","Y"
316,"เดอะคลีนิกค์ เซ็นทรัล เวสต์เกต","THE KLINIQUE @ Central Westgate","เดอะคลีนิกค์ เซ็นทรัล เวสต์เกต","N","N","N","นนทบุรี","บางใหญ่","http://www.theklinique.com/","https://www.facebook.com/TheKliniqueMedicalClinic/","080-000-9800",13.8773144,100.4114539,"Y","Y","Y","N","Y"
317,"เดอะคลีนิกค์ อยุธยาซิตี้พาร์ค","THE KLINIQUE @ Ayutthaya City Park","เดอะคลีนิกค์ อยุธยาซิตี้พาร์ค","N","N","N","พระนครศรีอยุธยา","พระนครศรีอยุธยา","http://www.theklinique.com/","https://www.facebook.com/TheKliniqueMedicalClinic/","080-000-9800",14.3361584,100.6106255,"Y","Y","Y","N","Y"
318,"เดอะเลิฟคลินิก","The Love Clinic","เดอะเลิฟคลินิก","N","N","N","กรุงเทพมหานคร","เขตประเวศ","","https://www.facebook.com/theloveclinic1","02 720 1800",13.6933822,100.6483292,"Y","N","N","N","Y"
319,"เดอะเม็ทคลินิก","The Med Clinic","เดอะเม็ทคลินิก","N","N","N","กรุงเทพมหานคร","เขตปทุมวัน","","","02 658 1907",13.744952,100.535156,"N","N","N","N","Y"
320,"เดอะโมสท์ คลินิก","The most clinic","เดอะโมสท์ คลินิก","N","N","N","สุรินทร์","เมืองสุรินทร์","","https://www.facebook.com/people/เดอะโมสท์-คลินิกเวชกรรม/100006573211727","080-481-1024",14.8902992,103.4960905,"Y","N","N","N","N"
321,"ด๊อกเตอร์อีฟ คลินิก","Dr.Eve Clinic","ด๊อกเตอร์อีฟ คลินิก","N","N","N","อุดรธานี","เมืองอุดรธานี","http://www.clinicthephysio.com/","https://www.facebook.com/Thephysio.beautyclinic.udonthani/","084 939 4700",17.4042779,102.789608,"N","N","N","N","Y"
322,"เดอะ พรีเมี่ยม คลินิค","The Premium Clinic","เดอะ พรีเมี่ยม คลินิค","N","N","N","กรุงเทพมหานคร","เขตบึงกุ่ม","","https://www.facebook.com/ThePremiumClinic/","02 734 7356",13.793813,100.6515461,"N","N","N","N","Y"
323,"ดิ เอส สาธร คลินิก","THE S SATHORN CLINIC","ดิ เอส สาธร คลินิก","N","N","N","กรุงเทพมหานคร","เขตบางรัก","","https://www.facebook.com/thessathorn/","02 287 4922",13.719287,100.539552,"N","N","Y","N","N"
324,"เดอะซิบส์ บิวตี้ คลินิก","The Sib Beauty Clinic","เดอะซิบส์ บิวตี้ คลินิก","N","N","N","กรุงเทพมหานคร","เขตวัฒนา","http://www.thesibclinic.com/","https://www.facebook.com/TheSiBBeautyClinic/","088 222 8660",13.735061,100.583138,"N","N","N","N","Y"
325,"เดอะซิกเนเจอร์คลินิก","The Signature Clinic","เดอะซิกเนเจอร์คลินิก","N","N","N","กรุงเทพมหานคร","เขตปทุมวัน","http://thesignatureclinic.com","https://www.facebook.com/TheSignatureClinic/","02-0156550/081-81633",13.742063,100.543656,"Y","Y","Y","Y","Y"
327,"เดอะ สกิน ด็อกเตอร์ สาขาเซ็นทรัลชิดลม","The Skin Doctor @ Central Chidlom Tower","เดอะ สกิน ด็อกเตอร์ สาขาเซ็นทรัลชิดลม","N","N","N","กรุงเทพมหานคร","เขตปทุมวัน","http://www.theskindoctors.co.th","https://www.facebook.com/TheSkinDoctors/","02-253-3642-3",13.7282243,100.5350532,"N","N","N","N","Y"
328,"เดอะ สกิน ด็อกเตอร์ สาขาเซนทรัล เฟสติวัล ภูเก็ต","The Skin Doctor @ Central Festival Phuket","เดอะ สกิน ด็อกเตอร์ สาขาเซนทรัล เฟสติวัล ภูเก็ต","N","N","N","ภูเก็ต","เมืองภูเก็ต","http://www.theskindoctors.co.th","https://www.facebook.com/TheSkinDoctors/","076-307-112/076-307-",7.892034,98.367838,"N","N","N","N","Y"
329,"เดอะ สกิน ด็อกเตอร์ สาขาเซนทรัล ลาดพร้าว","The Skin Doctor @ Central Ladprao","เดอะ สกิน ด็อกเตอร์ สาขาเซนทรัล ลาดพร้าว","N","N","N","กรุงเทพมหานคร","เขตจตุจักร","http://www.theskindoctors.co.th","https://www.facebook.com/TheSkinDoctors/","02-937-1475/02-986-7",13.8164738,100.5608325,"N","N","N","N","Y"
330,"เดอะ สกิน ด็อกเตอร์ สาขาเซนทรัล ปิ่นเกล้า","The Skin Doctor @ Central Pinklao","เดอะ สกิน ด็อกเตอร์ สาขาเซนทรัล ปิ่นเกล้า","N","N","N","กรุงเทพมหานคร","เขตบางกอกน้อย","http://www.theskindoctors.co.th","https://www.facebook.com/TheSkinDoctors/","02-884-9420-1",13.7779625,100.4762063,"N","N","N","N","Y"
331,"เดอะ สกิน ด็อกเตอร์ สาขาเซนทรัล พลาซ่า ชลบุรี","The Skin Doctor @ Central Plaza Chonburi","เดอะ สกิน ด็อกเตอร์ สาขาเซนทรัล พลาซ่า ชลบุรี","N","N","N","ชลบุรี","เมืองชลบุรี","http://www.theskindoctors.co.th","https://www.facebook.com/TheSkinDoctors/","038-053630-1",13.3360225,100.9692235,"N","N","N","N","Y"
332,"เดอะ สกิน ด็อกเตอร์ สาขาเซนทรัล พลาซ่า พระราม 2","The Skin Doctor @ Central Plaza rama 2","เดอะ สกิน ด็อกเตอร์ สาขาเซนทรัล พลาซ่า พระราม 2","N","N","N","กรุงเทพมหานคร","เขตบางขุนเทียน","http://www.theskindoctors.co.th","https://www.facebook.com/TheSkinDoctors/","02-872-4014",13.6645714,100.4383348,"N","N","N","N","Y"
333,"เดอะ สกิน ด็อกเตอร์ สาขาเซนทรัล พลาซ่า พระราม 9","The Skin Doctor @ Central Plaza Rama 9","เดอะ สกิน ด็อกเตอร์ สาขาเซนทรัล พลาซ่า พระราม 9","N","N","N","กรุงเทพมหานคร","เขตห้วยขวาง","http://www.theskindoctors.co.th","https://www.facebook.com/TheSkinDoctors/","02-160-3974-5",13.7576765,100.5657635,"N","N","N","N","Y"
334,"เดอะ สกิน ด็อกเตอร์ สาขาเซนทรัล พระราม 3","The Skin Doctor @ Central Rama 3","เดอะ สกิน ด็อกเตอร์ สาขาเซนทรัล พระราม 3","N","N","N","กรุงเทพมหานคร","เขตยานนาวา","http://www.theskindoctors.co.th","https://www.facebook.com/TheSkinDoctors/","02-673-6680-1",13.6980023,100.5372247,"N","N","N","N","Y"
335,"เดอะ สกิน ด็อกเตอร์ สาขาเซนทรัล รัตนาธิเบศร์","The Skin Doctor @ Central Rattanatibeth","เดอะ สกิน ด็อกเตอร์ สาขาเซนทรัล รัตนาธิเบศร์","N","N","N","กรุงเทพมหานคร","เมืองนนทบุรี","http://www.theskindoctors.co.th","https://www.facebook.com/TheSkinDoctors/","02-969-9390-1",13.8667182,100.4973451,"N","N","N","N","Y"
336,"เดอะ สกิน ด็อกเตอร์ สาขาเซนทรัลเวิลด์","The Skin Doctor @ Central World","เดอะ สกิน ด็อกเตอร์ สาขาเซนทรัลเวิลด์","N","N","N","กรุงเทพมหานคร","เขตปทุมวัน","http://www.theskindoctors.co.th","https://www.facebook.com/TheSkinDoctors/","02-613-1590-1/02-646",13.7471761,100.5387499,"N","N","N","N","Y"
338,"เดอะ สกิน ด็อกเตอร์ สาขาฟิวเจอร์พาร์ค รังสิต","The Skin Doctor @ Future Park Rangsit","เดอะ สกิน ด็อกเตอร์ สาขาฟิวเจอร์พาร์ค รังสิต","N","N","N","ปทุมธานี","ธัญบุรี","http://www.theskindoctors.co.th","https://www.facebook.com/TheSkinDoctors/","02-958-0995-6/02-958",13.9883421,100.6181795,"N","N","N","N","Y"
339,"เดอะ สกิน ด็อกเตอร์ สาขาเมกะบางนา","The Skin Doctor @ Mega Bangna","เดอะ สกิน ด็อกเตอร์ สาขาเมกะบางนา","N","N","N","สมุทรปราการ","บางพลี","http://www.theskindoctors.co.th","https://www.facebook.com/TheSkinDoctors/","02-105-1704-6",13.6473612,100.6804437,"N","N","N","N","Y"
341,"เดอะ สกิน ด็อกเตอร์ สาขาซีคอนสแควน์","The Skin Doctor @ Seacon Square","เดอะ สกิน ด็อกเตอร์ สาขาซีคอนสแควน์","N","N","N","กรุงเทพมหานคร","เขตประเวศ","http://www.theskindoctors.co.th","https://www.facebook.com/TheSkinDoctors/","02-720-2465-6",13.6933822,100.6483292,"N","N","N","N","Y"
342,"เดอะ สกิน ด็อกเตอร์ เดอะมอลด์ บางกะปิ","The Skin Doctor @ The Mall Bangkapi","เดอะ สกิน ด็อกเตอร์ เดอะมอลด์ บางกะปิ","N","N","N","กรุงเทพมหานคร","เขตบางกะปิ","http://www.theskindoctors.co.th","https://www.facebook.com/TheSkinDoctors/","02-734-3755-6",13.7663889,100.6424989,"N","N","N","N","Y"
343,"ดิ อัลทิเมท คลีนิค","The Ultimate Clinic","ดิ อัลทิเมท คลีนิค","N","N","N","กรุงเทพมหานคร","เขตลาดพร้าว","http://www.theultimateclinic.com/","https://www.facebook.com/TheUltimateClinic","02 553 2299",13.8281,100.625085,"N","N","N","N","Y"
344,"เดอะ เวลล์ เมดิคอล คลินิก","The Vell Clinic","เดอะ เวลล์ เมดิคอล คลินิก","N","N","N","เชียงใหม่","เมืองเชียงใหม่","","https://www.facebook.com/TheVellMedicalClinic/","098 557 6542",18.800103,99.02507,"N","N","N","N","Y"
346,"โรงพยาบาลเวิลด์เมดิคอลเซ็นเตอร์","The World Medical Center","โรงพยาบาลเวิลด์เมดิคอลเซ็นเตอร์","N","N","N","นนทบุรี","ปากเกร็ด","http://www.theworldmedicalcenter.com/th/new_site/index","https://www.facebook.com/Theworldmedicalcenternetwork","02 836 9999",13.9049803,100.5242396,"N","N","N","N","Y"
347,"ธีรญาคลินิก","Theeraya Clinic","ธีรญาคลินิก","N","N","N","ขอนแก่น","เมืองขอนแก่น","","https://www.facebook.com/theerayaclinic/","02 573 1495",13.8977421,100.5688098,"N","N","Y","N","N"
348,"เทอร่า คลินิก","Thera Clinic","เทอร่า คลินิก","N","N","N","กรุงเทพมหานคร","เขตวัฒนา","http://www.therabangkok.com/","https://www.facebook.com/therabangkok/","095 159 6199",13.7279869,100.5803017,"Y","Y","Y","Y","Y"
349,"ฐิติมาคลินิก","Thitima clinic","ฐิติมาคลินิก","N","N","N","อุบลราชธานี","เมืองอุบลราชธานี","","https://www.facebook.com/drthitimaclinic/","097 329 9352",15.2299517,104.8651021,"Y","N","Y","N","N"
350,"ธีเค คลินิค สุพรรณบุรี","TK Clinic","ธีเค คลินิค สุพรรณบุรี","N","N","N","สุพรรณบุรี","เมืองสุพรรณบุรี","","https://www.facebook.com/tkclinicth/posts/1596822743945619:0","090 626 3654",14.466796,100.106554,"N","N","Y","N","N"
351,"สถาบันสุขภาพและความงาม ตรัยญา","TRIA Health & Beauty Institute","สถาบันสุขภาพและความงาม ตรัยญา","N","N","N","กรุงเทพมหานคร","เขตห้วยขวาง","http://www.tria.co.th","https://www.facebook.com/TRIABKK/","02 660 2620",13.7526319,100.5803372,"N","N","N","N","Y"
352,"ทรัสต์ สหคลินิก","Trust Clinic","ทรัสต์ สหคลินิก","N","N","N","กรุงเทพมหานคร","","https://www.thetrustclinic.com/","https://www.facebook.com/TheTrustClinic/","02-090-0899",13.6949103,100.648494,"N","N","N","N","Y"
354,"ยูอาร์คลินิก","UR Clinic","ยูอาร์คลินิก","N","N","N","กรุงเทพมหานคร","เขตลาดพร้าว","http://www.ur-clinic.com/","https://www.facebook.com/urclinic/","061 619 5059",13.8027879,100.6146258,"N","N","N","N","Y"
356,"โรงพยาบาลเวชธานี","Vejthani Hospital","โรงพยาบาลเวชธานี","N","N","N","กรุงเทพมหานคร","เขตบางกะปิ","http://www.vejthani.com/","","02 734 0000",13.7718121,100.6369544,"Y","Y","Y","Y","Y"
357,"เวอร์เทคคลินิก","VERTEX Clinic","เวอร์เทคคลินิก","N","N","N","กรุงเทพมหานคร","เขตปทุมวัน","","https://www.facebook.com/fanvertexclinic","02-658-0845-7",13.7562108,100.5329357,"Y","N","N","N","N"
358,"โรงพยาบาลวิชัยเวชอินเตอร์เนชั่นแนล","Vichaivej International Hospital","โรงพยาบาลวิชัยเวชอินเตอร์เนชั่นแนล","N","N","N","สมุทรสาคร","กระทุ่มแบน","http://www.vichaivej.com/omnoi/","","02 441 6999",13.710304,100.291458,"N","N","N","N","Y"
360,"วีต้าคลินิก","Vita Aesthetics Clinic","วีต้าคลินิก","N","N","N","สุพรรณบุรี","เมืองสุพรรณบุรี","http://www.vitabeautyclinic.com/","https://www.facebook.com/vitaaestheticsclinic/?rf=1541774996109309","035 525 959",13.746673,100.562766,"Y","N","N","N","N"
361,"ไวทัลโกร คลินิก","Vitalglow clinic","ไวทัลโกร คลินิก","N","N","N","กรุงเทพมหานคร","เขตมีนบุรี","https://www.vitalglowcentre.com","https://www.facebook.com/vitalglowcentre/","02 518 1818",13.811099,100.72371,"N","N","Y","N","N"
362,"ศูนย์ส่งเสริมสุขภาพไวทัลไลฟ์","Vitallife Wellness Center","ศูนย์ส่งเสริมสุขภาพไวทัลไลฟ์","N","N","N","กรุงเทพมหานคร","เขตวัฒนา","https://www.vitallifeintegratedhealth.com/","https://www.facebook.com/VitallifeWellness/","02 667 2340",13.7452588,100.5520816,"Y","N","Y","Y","Y"
363,"วีว่าคลินิก สาขาปิ่นเกล้า","Viva clinic @Viva clinic","วีว่าคลินิก สาขาปิ่นเกล้า","N","N","N","กรุงเทพมหานคร","เขตบางพลัด","http://www.vivaclinic.net/main.php?filename=viva_Grop","https://www.facebook.com/vivaclinic/","083 666 6636",13.776192,100.479562,"Y","N","Y","N","N"
364,"วี เอส คลินิก","VS Clinic","วี เอส คลินิก","N","N","N","กรุงเทพมหานคร","เขตราชเทวี","","https://www.facebook.com/Vscliniccentury/","085 032 4666",13.7328726,100.4688958,"Y","N","Y","N","N"
365,"วีเชพ คลินิก","Vshape Clinic","วีเชพ คลินิก","N","N","N","ชลบุรี","เมืองชลบุรี","","https://www.facebook.com/vshapepattaya/","092 720 4008",12.9358213,100.8890618,"N","N","Y","N","N"
367,"คลินิกเวชกรรมเฉพาะทางผิวหนังเลเซอร์วัฒนรักษ์","Wattanarak Laser and Skin Clinic","คลินิกเวชกรรมเฉพาะทางผิวหนังเลเซอร์วัฒนรักษ์","N","N","N","กรุงเทพมหานคร","เขตบางรัก","","https://www.facebook.com/WattanarakClinic","02 632 0888",13.7279579,100.5359108,"N","N","N","N","Y"
368,"วีเเคร์คลินิก","We care clinic","วีเเคร์คลินิก","N","N","N","ชลบุรี","บางละมุง","http://wecareclinicpattaya.com/","https://www.facebook.com/wecareclinicpattaya/","038-412265",13.7775871,100.5423169,"Y","N","Y","N","N"
369,"วี คลินิกเวชกรรมขอนแก่น","We Cosmet Clinic","วี คลินิกเวชกรรมขอนแก่น","N","N","N","ขอนแก่น","เมืองขอนแก่น","","https://www.facebook.com/WeCosmetClinic/","095 663 3782",16.417128,102.818576,"N","N","Y","N","N"
370,"วินโฮลิสติกคลีนิก สาขาราชเทวี","Wind Clinic Ratchathewi Branch","วินโฮลิสติกคลีนิก สาขาราชเทวี","N","N","N","กรุงเทพมหานคร","เขตราชเทวี","http://www.windholisticclinic.com/","","02-363-8914",13.7509202,100.5312062,"N","N","N","N","Y"
371,"วินโฮลิสติกคลีนิก สาขาเกษตร-นวมินทร์","Wind Clinic Kaset-nawamin Branch","วินโฮลิสติกคลีนิก สาขาเกษตร-นวมินทร์","N","N","N","กรุงเทพมหานคร","เขตบึงกุ่ม","http://www.windholisticclinic.com/","","093-889-1089",13.818961,100.65207,"N","N","N","N","Y"
373,"วินโฮลิสติกคลีนิก สาขาชลบุรี","Wind Clinic Chonburi Branch","วินโฮลิสติกคลีนิก สาขาชลบุรี","N","N","N","ชลบุรี","ศรีราชา","http://www.windholisticclinic.com/","","062-449-3663",13.1689345,100.9304454,"N","N","N","N","Y"
374,"Wild Clinic","Wild Clinic","Wild Clinic","N","N","N","กรุงเทพมหานคร","เขตบางรัก","","https://www.facebook.com/WildClinic/","02 101 6978",13.7237033,100.5311626,"Y","N","Y","N","N"
375,"วิวรรณคลินิก","WIWAN CLINIC","วิวรรณคลินิก","N","N","N","พัทลุง","เมืองพัทลุง","http://www.wiwanclinic.com/","https://www.facebook.com/pages/Wiwan-Clinic-วิวรรณ-คลินิก/160073157407163","074 617 999",7.8340309999999995,99.940403,"Y","N","N","N","N"
376,"วอนจิน คลินิก","Wonjin Clinic","วอนจิน คลินิก","N","N","N","กรุงเทพมหานคร","เขตปทุมวัน","http://www.wonjinthailand.com/","https://www.facebook.com/wonjinthailand","097 251 5683",13.74523,100.5407894,"N","N","N","N","Y"
378,"วีนน์ คลินิก","Wynn Clinic","วีนน์ คลินิก","N","N","N","สงขลา","หาดใหญ่","","https://www.facebook.com/wynncenter/","098 556 6924",7.013678,100.48183,"N","N","Y","N","N"
379,"รพ.ยันฮี","Yanhee International Hospital","รพ.ยันฮี","N","N","N","กรุงเทพมหานคร","เขตบางพลัด","http://www.yanhee.net/home","https://www.facebook.com/YanheeHospital.YH/","02 879 0300",13.7998839,100.5108439,"N","N","N","N","Y"
381,"ยศการคลินิก","Yoskarn Clinic","ยศการคลินิก","N","N","N","กรุงเทพมหานคร","เขตปทุมวัน","http://www.laser-surgery-bangkok.com","https://www.facebook.com/yoskarnclinic/","02 253 8901",13.7481995,100.541511,"Y","N","N","N","Y"
382,"ยศสินีคลินิก สาขานครปฐม","Yotsinee Clinic @Nakorn pathom Branch","ยศสินีคลินิก สาขานครปฐม","N","N","N","นครปฐม","เมืองนครปฐม","http://www.yotsineeclinic.com","https://www.facebook.com/Yotsineeclinic-Thailand-499415990078784/","034 252729/094-47291",13.815202,100.062446,"N","N","N","N","Y"
383,"ยศสินีคลินิก สาขาบางแค","Yotsinee Clinic @Bangkae Branch","ยศสินีคลินิก สาขาบางแค","N","N","N","กรุงเทพมหานคร","เขตบางแค","","","02 4582836/099246604",13.7116332,100.4342009,"N","N","N","N","Y"
386,"ปิยะพรคลินิก (หาดใหญ่)","Piyaporn Clinic Hatyai","ปิยะพรคลินิก (หาดใหญ่)","N","N","N","สงขลา","หาดใหญ่","","https://www.facebook.com/piyapornclinic/","062995444",7.0047839,100.4777729,"Y","N","Y","N","Y"
387,"บี กิ๊ฟ คลินิก","Begift clinic","บี กิ๊ฟ คลินิก","N","N","N","ภูเก็ต","เมืองภูเก็ต","","https://www.facebook.com/begiftclinic/","099-4069829",7.8416015,98.3348742,"Y","N","Y","N","N"
388,"นัดดาว คลินิกเวชกรรม สาขา กรุงเทพ","Natdao clinic @BKK","นัดดาว คลินิกเวชกรรม สาขา กรุงเทพ","N","N","N","กรุงเทพมหานคร","เขตวัฒนา","http://www.natdaoclinic.com/","https://www.facebook.com/natdaoclinic/","091-7398719",13.7140592,100.5933233,"N","N","Y","N","N"
389,"นัดดาว คลินิกเวชกรรม สาขา ชลบุรี","Natdao clinic @Chonburi","นัดดาว คลินิกเวชกรรม สาขา ชลบุรี","N","N","N","ชลบุรี","ศรีราชา","http://www.natdaoclinic.com/","https://www.facebook.com/natdaoclinic/","091-7817875",13.0344227,101.0934428,"N","N","Y","N","N"
390,"อภิชาดาคลินิก","Apichada clinic","อภิชาดาคลินิก","N","N","N","สงขลา","หาดใหญ่","http://apichadaclinic.com/","https://www.facebook.com/อภิชาดาคลินิก-727863393949619/","074255583",7.0032647,100.4581119,"N","N","Y","N","N"
391,"ชาร์ม เอสเธติก คลินิกเวชกรรม","Charm Clinic","ชาร์ม เอสเธติก คลินิกเวชกรรม","N","N","N","กรุงเทพมหานคร","เขตห้วยขวาง","http://www.charmclinic.net","https://www.facebook.com/yourcharmclinic/","065 232 6393/02 354",13.7571204,100.5673738,"Y","Y","Y","Y","Y"
392,"เจเนเชียคลินิก","Janasia Clinic","เจเนเชียคลินิก","N","N","N","นนทบุรี","เขตปากเกร็ด","https://janasiaclinic.com","https://th-th.facebook.com/janasiaclinic/","098-667-8988",13.9114171,100.5086858,"Y","N","N","N","N"
393,"เมดิซิส คลินิกเวชกรรม","Medisis Clinic","เมดิซิส คลินิกเวชกรรม","N","N","N","นนทบุรี","เขตปากเกร็ด","","https://www.facebook.com/Medisisclinic/","02 503 3697/090 994",13.9127897,100.5396535,"Y","N","Y","N","N"
394,"นิติกาจญน์คลินิกเวชกรรม","Nitikarn Clinic","นิติกาจญน์คลินิกเวชกรรม","N","N","N","สระบุรี","เมืองสระบุรี","http://www.nitikarnclinic.net","https://th-th.facebook.com/nitikarnbeautyclinic/","036-221-944",14.5229883,100.9151589,"N","N","Y","N","N"
395,"โน๊ตคลินิกเวชกรรม","Note Clinic","โน๊ตคลินิกเวชกรรม","N","N","N","กรุงเทพมหานคร","เขตดินแดง","","https://th-th.facebook.com/noteclinicth/","064 981 9242",13.789481,100.568112,"Y","N","Y","N","N"
396,"โรสลินเวลเนสคลินิกเวชกรรม","Roselin Clinic","โรสลินเวลเนสคลินิกเวชกรรม","N","N","N","กรุงเทพมหานคร","เขตวัฒนา","https://www.roselinclinic.com","https://th-th.facebook.com/roselinclinic/","095-784-6137",13.4173696,100.9993123,"Y","N","Y","N","N"
397,"สิริพรรณคลินิกเวชกรรม","Siripan Clinic","สิริพรรณคลินิกเวชกรรม","N","N","N","สมุทรปราการ","เขตบางพลี","","https://th-th.facebook.com/siripanclinic/","088 885 4995",13.6213984,100.7637339,"N","N","Y","N","N"
398,"เดอะ เมดดิส คลินิก","The Medice Clinic","เดอะ เมดดิส คลินิก","N","N","N","นนทบุรี","เขตปากเกร็ด","https://www.mediceclinic.com","https://th-th.facebook.com/themediceclinic/","061-632-9353",13.902753,100.516324,"Y","N","Y","N","N"
399,"ยูคลินิเวชกรรม","Youu Clinic","ยูคลินิเวชกรรม","N","N","N","กรุงเทพมหานคร","เขตคลองเตย","","https://www.facebook.com/YOUUClinic/","086-448-6028",13.737844,100.558757,"Y","Y","Y","Y","N"
400,"ธนัชชา คลินิก","Thanatcha Clinic","ธนัชชา คลินิก","N","N","N","กรุงเทพมหานคร","เขตหลักสี่","","https://www.facebook.com/pages/%E0%B8%98%E0%B8%99%E0%B8%B1%E0%B8%8A%E0%B8%8A%E0%B8%B2-%E0%B8%84%E0%B8%A5%E0%B8%B4%E0%B8%99%E0%B8%B4%E0%B8%81/213740755326914?ref=br_rs","025733335",13.893421,100.561079,"Y","N","N","N","N"
401,"ธนภา คลินิก","Tanapa Clinic","ธนภา คลินิก","N","N","N","กรุงเทพมหานคร","เขตดินแดง","","https://www.facebook.com/TanapaEsplanade/","02-6609342",13.7667548,100.5692312,"Y","N","N","N","N"
402,"ณิชาภา คลินิก","Nichapha Clinic","ณิชาภา คลินิก","N","N","N","กรุงเทพมหานคร","เขตพญาไท","","","026168181",13.789784000000001,100.549364,"Y","N","N","N","N"
403,"เกรน คลินิก","Kain Clinic","เกรน คลินิก","N","N","N","กรุงเทพมหานคร","เขตลาดพร้าว","","","062 635 6446",13.806559,100.559604,"Y","N","Y","N","N"
404,"แพนดอร่า คลินิก","Pandora Clinic","แพนดอร่า คลินิก","N","N","N","กรุงเทพมหานคร","เขตลาดพร้าว","","https://www.facebook.com/pandoraclinicthailand/","02-940-3062",13.8381086,100.6023189,"Y","N","Y","N","N"
405,"ด๊อกเตอร์ ยูธ คลินิก","Doctor Youth Clinic","ด๊อกเตอร์ ยูธ คลินิก","N","N","N","กรุงเทพมหานคร","เขตวัฒนา","http://www.doctoryouth.co.th","https://www.facebook.com/youthasoke/","02-258-4849",13.735998,100.5622169,"N","N","Y","Y","N"
406,"อะกาลิโก คลินิก","Agaligo clinic","อะกาลิโก คลินิก","N","N","N","กรุงเทพมหานคร","","http://www.agaligoclinic.com","https://th-th.facebook.com/agaligoclinic","",13.778061,100.542587,"Y","N","N","N","N"
407,"พีช แอนด์ แพร์ คลินิก","Peach & Pear clinic","พีช แอนด์ แพร์ คลินิก","N","N","N","กรุงเทพมหานคร","เขตหนองแขม","","https://th-th.facebook.com/peach-and-pear clinic by dr.peach","095-5721363",13.7051712,100.3438593,"N","N","Y","N","N"
408,"โซล คลินิก พัทยา","Seoul  Clinic Pattaya","โซล คลินิก พัทยา","N","N","N","ชลบุรี","บางละมุง","http://www.seoulclinicthailand.com","https://www.facebook.com/SeoulClinicPattaya/","062-3128855",12.9549475,100.9071108,"N","N","Y","N","N"
409,"วิลล่า คลินิก","Villa Clinic","วิลล่า คลินิก","N","N","N","กรุงเทพมหานคร","เขตราชเทวี","http://www.villaclinic.com","https://www.facebook.com/VillaClinic/","089-1117227",13.7542354,100.532732,"Y","N","N","N","N"
410,"มิกิ คลินิก","Miki Clinic","มิกิ คลินิก","N","N","N","กรุงเทพมหานคร","เขตราชเทวี","http://www.villaclinic.com","https://www.facebook.com/mikiclinic.thailand/","065-6392514",13.7554271,100.5307258,"Y","N","N","N","N"
411,"วีวีไลฟ์ คลินิก","VV Life Clinic","วีวีไลฟ์ คลินิก","N","N","N","นนทบุรี","เมือง","http://www.vvlifeclinic.com","https://www.facebook.com/vvlifeclinic/","092-165-6868/093-443",13.8846991,100.4620343,"Y","Y","Y","Y","Y"
412,"ชิบุอิคลินิก","shibui clinic","ชิบุอิคลินิก","N","N","N","กรุงเทพมหานคร","เขตวังทองหลาง","","https://www.facebook.com/shibuiclinic/","02-1021198",13.768471,100.6188597,"Y","N","Y","N","N"
413,"ธีระ คลินิก","Teera clinic","ธีระ คลินิก","N","N","N","สุราษฎร์ธานี","เมือง","","https://th-th.facebook.com/theera.clinics/","077-206639",9.1376399,99.3299457,"Y","N","Y","N","N"
414,"ศรีผลา คลินิกเวชกรรม (สมุยเมดิคอลเซอร์วิส)","Sriphala clinic(samui medical service)","ศรีผลา คลินิกเวชกรรม (สมุยเมดิคอลเซอร์วิส)","N","N","N","สุราษฎร์ธานี","เกาะสมุย","http://www.Sriphalaclinic.com","https://www.facebook.com/pg/sriphalaclinic.antiaging.aesthetic.kohsamui/","061-1593663/06265614",9.5469689,100.0317659,"Y","N","N","N","N"
415,"พราว คลินิก","Proud Aesthetic Clinic","พราว คลินิก","N","N","N","เชียงใหม่","เมืองเชียงใหม่","","https://www.facebook.com/Proudcliniccnx/","064 995 4998",18.7813476,98.9770278,"Y","Y","Y","Y","N"
416,"คลินิกหมออานนท์ เชียงใหม่","Anon Medical Clinic","คลินิกหมออานนท์ เชียงใหม่","N","N","N","เชียงใหม่","เมืองเชียงใหม่","","https://www.facebook.com/anonclinic/","052 089 984/088 268",18.7564155,99.0004714,"Y","Y","N","N","N"
417,"รอยัล เมดิคอล คลินิก","Royal Medical Clinic","รอยัล เมดิคอล คลินิก","N","N","N","ลำปาง","เมืองลำปาง","","https://www.facebook.com/RoyalMedicalClinic/","092 553 8255/054 020",18.2805058,99.4803194,"N","N","Y","N","N"
418,"คลินิกฟ้าใสการแพทย์","Fah Sai Clinic","คลินิกฟ้าใสการแพทย์","N","N","N","พิษณุโลก","เมืองพิษณุโลก","","https://www.facebook.com/คลินิกฟ้าใสการแพทย์","055 053 246/099 136",16.8289375,100.2664375,"N","N","Y","Y","N"
419,"เดอะ วิสดอม เมดิคอล คลินิก","The Wisdom Medical Clinic","เดอะ วิสดอม เมดิคอล คลินิก","N","N","N","เชียงใหม่","เมืองเชียงใหม่","","https://www.facebook.com/The-Wisdom-Medical-Clinic/","052 000 169",18.7699477,98.9748988,"Y","N","Y","N","N"
420,"ณิชา คลีนิก สาขาเชียงใหม่","Nicha Clinic @Chiang Mai","ณิชา คลีนิก สาขาเชียงใหม่","N","N","N","เชียงใหม่","เมืองเชียงใหม่","","https://www.facebook.com/nichaclinicchiangmai/","053 014 337",18.81981,99.018265,"N","N","N","N","Y"
421,"ริณมณีย์ สาขา พาสิโอ","Rinmanee clinic Paseo","ริณมณีย์ สาขา พาสิโอ","N","N","N","กรุงเทพมหานคร","เขตวัฒนา","","https://web.facebook.com/RinmaneeClinicPRO/?_rdc=1&_rdr","021113922",13.7678526,100.4060084,"Y","N","N","N","N"
422,"ริณมณีย์ สาขา เพชรเกษม","Rinmanee clinic Phetkasem","ริณมณีย์ สาขา เพชรเกษม","N","N","N","กรุงเทพมหานคร","","","https://web.facebook.com/pages/Rinmanee-Clinic-Phetkasem","024210513",13.7084344,100.3655378,"Y","N","N","N","N"
423,"เดอะไพรเวท คลินิก สาขา อมตะนคร","The Private Clinic @ Amatanakhon","เดอะไพรเวท คลินิก สาขา อมตะนคร","N","N","N","ชลบุรี","เมืองชลบุรี","","https://www.facebook.com/The-Private-Clinic-Deluxe-Amata/","0619984446",13.4255228,101.0049155,"Y","N","Y","N","N"
424,"ปันนิสา คลินิก","Punnisa Clinic","ปันนิสา คลินิก","N","N","N","กรุงเทพมหานคร","เขตจอมทอง","","https://www.facebook.com/punnisaclinic/","024531987",13.6962125,100.4400949,"N","N","Y","N","N"
425,"เดอะ โว้ก คลินิก สาขาชลบุรี","The Vogue Clinic @Chon Buri","เดอะ โว้ก คลินิก สาขาชลบุรี","N","N","N","ชลบุรี","เมืองชลบุรี","","https://www.facebook.com/thevogueclinic.thailand/","0910936999",13.3339235,100.9352978,"Y","N","Y","N","N"
426,"ลัลลลิตา คลินิก","Lullalita Clinic","ลัลลลิตา คลินิก","N","N","N","กรุงเทพมหานคร","เขตภาษีเจริญ","","https://www.facebook.com/lullalitaclinic/","0863534562",13.7361273,100.4339456,"Y","N","Y","N","N"
427,"นพวรรณ คลินิก","Nopphawan Clinic","นพวรรณ คลินิก","N","N","N","กรุงเทพมหานคร","เขตดินแดง","http://www.nopphawanclinic.com","https://www.facebook.com/Nopphawanclinic/","022776588",13.778602,100.568251,"Y","N","Y","N","N"
428,"ธารา คลินิก สาขา อุดรธานี","Tara clinic @Udon Thani","ธารา คลินิก สาขา อุดรธานี","N","N","N","อุดรธานี","เมืองอุดรธานี","","https://www.facebook.com/TARACLINIC.UD/","083-2891664",17.4059241,102.7910515,"N","N","Y","N","N"
429,"อีลิทคลินิก","Elite clinic","อีลิทคลินิก","N","N","N","กรุงเทพมหานคร","เขตจตุจักร","http://eliteclinicthailand.com/","https://www.facebook.com/eliteclinicthailand/","095 254 5404",13.806792,100.5720063,"N","N","Y","N","N"
430,"ด็อกเตอร์ภัท คลินิก","Dr.pat clinic","ด็อกเตอร์ภัท คลินิก","N","N","N","ภูเก็ต","เมือง","http://www.drpatskinphuket.com/","https://www.facebook.com/DrPATclinic/","063 230 9882",7.8726388,98.3831736,"Y","N","N","N","N"
431,"สิริยา คลินิก","Siriya Clinic","สิริยา คลินิก","N","N","N","นครนายก","บ้านนา","","https://www.facebook.com/siriyaclinic.thailand/","037 382 855",14.2617425,101.0736586,"Y","Y","Y","Y","N"
432,"อัสเธอร์ คลินิก สาขาเรียบด่วนรามอินทรา","Aster Clinic @The Expressway Ekamai Ramindra Branch","อัสเธอร์ คลินิก สาขาเรียบด่วนรามอินทรา","N","N","N","กรุงเทพมหานคร","เขตวังทองหลาง","","","096-873-5364",13.7948253,100.6106962,"Y","Y","N","N","N"
433,"อัสเธอร์ คลินิก สาขาแฮปปี้อเวนิวดอนเมือง","Aster Clinic @Happy Avenue Donmuang Branch","อัสเธอร์ คลินิก สาขาแฮปปี้อเวนิวดอนเมือง","N","N","N","กรุงเทพมหานคร","เขตดอนเมือง","","","02-530-1195",13.9263202,100.5888964,"Y","Y","N","N","N"
434,"แอ๊ดวานซ์ คลินิก","ADVANCE CLINIC","แอ๊ดวานซ์ คลินิก","N","N","N","กรุงเทพมหานคร","เขตห้วยขวาง","http://www.advclinic.com/","https://www.facebook.com/advanceclinic1374/","02 693 4424",13.7894943,100.5768654,"Y","Y","Y","N","Y"
435,"วีว่าคลินิก สาขาวงเวียนใหญ่","Viva clinic @Wongwian Yai","วีว่าคลินิก สาขาวงเวียนใหญ่","N","N","N","กรุงเทพมหานคร","เขตคลองสาน","http://www.vivaclinic.net/main.php?filename=viva_Grop","https://www.facebook.com/vivaclinic/","084-8888-212",13.7215618,100.4943211,"Y","N","Y","N","N"
437,"เมดิเซนส์ คลินิกเวชกรรม","Medisense Clinic","เมดิเซนส์ คลินิกเวชกรรม","N","N","N","นนทบุรี","บางกรวย","","","086-349-6192",13.8217914,100.4491955,"Y","N","N","N","N"
438,"บีเอ็นซี คลินิกเวชกรรม","BNC Clinic","บีเอ็นซี คลินิกเวชกรรม","N","N","N","กรุงเทพมหานคร","เขตวัฒนา","","https://www.facebook.com/bnc.clinic/","086-352-5025",13.7395903,100.5598043,"Y","Y","Y","Y","N"
439,"พีเค คลินิกเวชกรรม","PK cosmedic clinic","พีเค คลินิกเวชกรรม","N","N","N","กรุงเทพมหานคร","เขตยานนาวา","","","061-6614946",13.6913888,100.5343438,"Y","Y","Y","Y","Y"
440,"อินซ์ คลินิก","inZ clinic","อินซ์ คลินิก","N","N","N","กรุงเทพมหานคร","เขตวัฒนา","","https://www.facebook.com/inzclinic/","0819252144",13.6858798,100.6112889,"Y","N","N","N","Y"
441,"คลินิกผิวหนังแพทย์นุชนที","Dr.Nooch Clinic","คลินิกผิวหนังแพทย์นุชนที","N","N","N","กรุงเทพมหานคร","เขตบึงกุ่ม","","https://www.facebook.com/DRNOOCHCLINIC/","0882246644",13.8261345,100.6406995,"Y","N","Y","N","N"
442,"หมอเกรซ คลินิก","Great clinic","หมอเกรซ คลินิก","N","N","N","ชลบุรี","เมืองชลบุรี","","https://www.facebook.com/Great-Clinic-2062653314012756/","0863988642",13.414736,101.0282316,"Y","N","Y","N","N"
443,"กิฟฟารีน เฮลท์ แอนด์ บิวตี้ คลินิก","Giffarine health & beauty clinic","กิฟฟารีน เฮลท์ แอนด์ บิวตี้ คลินิก","N","N","N","กรุงเทพมหานคร","เขตพญาไท","","https://www.facebook.com/Giffarineclinic/","026184110",13.7857155,100.5365,"Y","N","N","N","Y"
444,"ดีไซร์ คลินิก","Desire clinic","ดีไซร์ คลินิก","N","N","N","ชลบุรี","เมืองชลบุรี","","https://www.facebook.com/desireclinicpage/","0922508092",13.3395005,100.9670501,"Y","N","Y","N","N"
445,"คลินิกศัลยกรรมตกแต่งและความงามนายแพทย์ชาตรี ตรัง","CU PLASTIC SURGERY CLINIC","คลินิกศัลยกรรมตกแต่งและความงามนายแพทย์ชาตรี ตรัง","N","N","N","ตรัง","เมืองตรัง","","https://www.facebook.com/cuplasticsurgery/","081-987-8767/089-871",7.5639687,99.6206412,"Y","N","Y","N","N"
446,"วีสกินคลินิก","We skin and Aesthetic clinic","วีสกินคลินิก","N","N","N","กรุงเทพมหานคร","เขตมีนบุรี","","https://www.facebook.com/we.skinclinic/","095-9631991",13.761592,100.537076,"N","N","Y","N","N"
447,"เมดิควีนส์ คลินิก","Mediqueen clinic","เมดิควีนส์ คลินิก","N","N","N","ชลบุรี","บางละมุง","http://www.mediqueenclinic.com","https://www.facebook.com/MediqueenClinic/",953626235,12.9506939,100.8910088,"N","N","Y","N","N"
448,"บี เบลล่า คลินิก","B Bella Clinic","บี เบลล่า คลินิก","N","N","N","กรุงเทพมหานคร","เขตบางแค","https://www.bebellaclinic.com","https://www.facebook.com/bebellaclinic.com","063-1636391",13.6817266,100.4126801,"Y","N","N","N","N"
449,"อันดาคลินิกความงามและชะลอวัย สาขาโคราช","Anda Clinic, Nakhon Ratchasima","อันดาคลินิกความงามและชะลอวัย สาขาโคราช","N","N","N","นครราชสีมา","เมืองนครราชสีมา","http://Andaclinic.com","http://www.facebook.com/Andaclinic.com","044-390-508",15.7029411,100.1362858,"Y","N","Y","N","Y"
450,"สกรีนเมดคลินิก(สาขาข้างมอ. )","Skinmed clinic 1","สกรีนเมดคลินิก(สาขาข้างมอ. )","N","N","N","สงขลา","หาดใหญ่","http://www.smclinic.info/","https://www.facebook.com/สกรีนเมดคลินิก-487895278210090/","074-500074",7.001491,100.4922447,"Y","N","Y","N","N"
451,"สกรีนเมดคลินิก(สาขาเพชรเกษม เยื้องรร.ญ.ว. )","Skinmed clinic 2","สกรีนเมดคลินิก(สาขาเพชรเกษม เยื้องรร.ญ.ว. )","N","N","N","สงขลา","หาดใหญ่","http://www.smclinic.info/","https://www.facebook.com/สกรีนเมดคลินิก-487895278210090/","074-223008",7.0153073,100.4742683,"Y","N","Y","N","N"
452,"เบลล่าวิต้า คลินิก","bella vita clinic","เบลล่าวิต้า คลินิก","N","N","N","สงขลา","หาดใหญ่","http://www.bellavitabalance.com","https://www.facebook.com/Bellavitabeautyclub/","074-223942",7.015575,100.47401,"Y","N","Y","N","N"
453,"เอสแคร์คลินิก(สาขาสุไหงโกลก)","s care clinic","เอสแคร์คลินิก(สาขาสุไหงโกลก)","N","N","N","นราธิวาส","สุไหงโก-ลก","","https://www.facebook.com/skinmedclinic/","073-613211",6.0201344,101.9635601,"Y","N","Y","N","N"
454,"เดอโบคลินิก","De Beau clinic","เดอโบคลินิก","N","N","N","กรุงเทพมหานคร","เขตบางกะปิ","http://www.debeauclinic.com","https://www.facebook.com/debeauclinic","02 010 4015",13.80958,100.6205127,"N","N","N","N","Y"
455,"ปรัชญา คลินิก","Prachya Clinic","ปรัชญา คลินิก","N","N","N","พิษณุโลก","เมืองพิษณุโลก","","https://www.facebook.com/prachyaclinic/","089 703 8455/055 302",16.8216935,100.269785,"Y","N","Y","N","N"
456,"บียอนด์ เดอะ ซี คลินิก","Beyond The Sea Clinic","บียอนด์ เดอะ ซี คลินิก","N","N","N","เชียงใหม่","เมืองเชียงใหม่","","https://m.facebook.com/beyondtheseaclinic/","088 414 1521",18.8077142,99.0177492,"Y","N","Y","N","N"
457,"พริบพราว คลินิก","Prip Proud Clinic","พริบพราว คลินิก","N","N","N","เชียงใหม่","เมืองเชียงใหม่","","https://www.facebook.com/pripproundclinic/","088 251 7363",18.8005035,99.0192464,"Y","N","Y","Y","N"
458,"แอสตร้าเมด คลินิก","AstraMed Clinic","แอสตร้าเมด คลินิก","N","N","N","เชียงใหม่","เมืองเชียงใหม่","","https://www.facebook.com/AstraMedClinic/","099 397 8945",18.7745577,98.9771276,"Y","Y","N","N","N"
459,"วิภาดา คลินิก","Wipada Clinic","วิภาดา คลินิก","N","N","N","แพร่","เมืองแพร่","","https://www.facebook.com/วิภาดาคลินิก","098 329 4232",13.9097812,100.3870254,"Y","N","Y","Y","N"
460,"เอน่า คลินิก","A~na Clinic","เอน่า คลินิก","N","N","N","กรุงเทพมหานคร","เขตดินแดง","","https://m.facebook.com/pages/ANa-Skin-Laser-Clinic/401574356535082","081-331-2606",13.7667047,100.5694726,"N","N","Y","N","N"
461,"คลินิกสนามบินน้ำ","Clinic Sanambinnam","คลินิกสนามบินน้ำ","N","N","N","นนทบุรี","เมืองนนทบุรี","","https://th-th.facebook.com/ClinicSanambinnam/","02-550-0832",13.8437274,100.5020208,"N","N","Y","N","N"
462,"เดอะสเตชั่น คลินิก สาขาเพชรเกษม","The Station Clinic @ Phetkasem","เดอะสเตชั่น คลินิก สาขาเพชรเกษม","N","N","N","กรุงเทพมหานคร","เขตบางแค","","https://m.facebook.com/thestationclinic/","082-441-4666",13.7070621,100.3753266,"N","N","Y","N","N"
463,"เดอะสเตชั่น คลินิก สาขาราชเทวี","The Station Clinic @ Rajathewe","เดอะสเตชั่น คลินิก สาขาราชเทวี","N","N","N","กรุงเทพมหานคร","เขตพญาไท","","https://m.facebook.com/thestationclinic/","085-354-4566",13.7514588,100.5311984,"N","N","Y","N","N"
464,"ออรา เดลลา คลินิก","Aura Della Clinic","ออรา เดลลา คลินิก","N","N","N","กรุงเทพมหานคร","เขตวังทองหลาง","","https://www.facebook.com/auradellaclinic/","082 345 5666",13.7890103,100.5992351,"N","N","Y","N","N"
465,"ลลลนา คลินิก (สาขาสุขุมวิท 47)","LOLLANA CLINIC (SUKUMVIT 47 BRANCH)","ลลลนา คลินิก (สาขาสุขุมวิท 47)","N","N","N","กรุงเทพมหานคร","เขตวัฒนา","http://www.lollanaclinic.com/","https://www.facebook.com/LalanaClinic/","02-688-3688",13.727804,100.574074,"Y","N","Y","N","N"
466,"พรีเมียร์คลินิกเวชกรรม","Premier clinic","พรีเมียร์คลินิกเวชกรรม","N","N","N","กรุงเทพมหานคร","เขตห้วยขวาง","http://premierclinicthailand.com/","https://www.facebook.com/premierclinicthailand/","095 646 4298",13.7431687,100.5890587,"N","N","Y","N","N"
467,"มิราเบล คลินิก","Mirabel clinic","มิราเบล คลินิก","N","N","N","กรุงเทพมหานคร","เขตห้วยขวาง","http://mirabelskinclinic.com/","https://www.facebook.com/mirabelskinclinic/","089-990-3838/02 160",13.7578738,100.5657861,"N","N","Y","N","N"
468,"เลอบิวทิสคลินิก","LBC Clinic","เลอบิวทิสคลินิก","N","N","N","กรุงเทพมหานคร","เขตดินแดง","http://lebeautis.com/","https://www.facebook.com/lebeautis","02 642 1058",13.762329,100.565248,"N","N","Y","N","N"
469,"ราพีเต้ คลินิก","Rapete Clinic","ราพีเต้ คลินิก","N","N","N","กรุงเทพมหานคร","เขตปทุมวัน","","https://m.facebook.com/rapeteclinic/","02-6508225",13.742446,100.549222,"N","N","Y","N","N"
470,"วินเซนต์ คลินิก","Vincent clinic","วินเซนต์ คลินิก","N","N","N","ชลบุรี","ศรีราชา","","https://www.facebook.com/Vincent-Clinic-%E0%B8%A7%E0%B8%B4%E0%B8%99%E0%B9%80%E0%B8%8B%E0%B8%99%E0%B8%95%E0%B9%8C%E0%B8%84%E0%B8%A5%E0%B8%B4%E0%B8%99%E0%B8%B4%E0%B8%81-441285636291216/","02-3959585",13.0988031,100.9528666,"Y","Y","Y","Y","Y"
471,"คาร่า คลินิก","Cara clinic","คาร่า คลินิก","N","N","N","จันทบุรี","เมืองจันทบุรี","","https://www.facebook.com/Cara-Clinic-%E0%B8%88%E0%B8%B1%E0%B8%99%E0%B8%97%E0%B8%9A%E0%B8%B8%E0%B8%A3%E0%B8%B5-1668518113230878/","091-8678921",12.6015851,102.112016,"Y","N","Y","N","N"
472,"เลอค่าคลินิก","LER-KA SURGERY CLINIC","เลอค่าคลินิก","N","N","N","สงขลา","หาดใหญ่","","https://www.facebook.com/LEQUAHATYAI/","082-9156224",7.0272546,100.4749995,"Y","N","N","N","N"
473,"ดีเคคลินิก","DK Clinic","ดีเคคลินิก","N","N","N","สมุทรปราการ","เมืองสมุทรปราการ","","","02-7582667/093-32566",13.6317674,100.6046941,"N","N","Y","N","N"
474,"คริสต้าแคร์ คลินิก สาขา ขอนแก่น","Cristar Care Clinic @Khonkaen","คริสต้าแคร์ คลินิก สาขา ขอนแก่น","N","N","N","ขอนแก่น","เมืองขอนแก่น","","https://m.facebook.com/cristarcare/?ref=page_internal&mt_nav=0","091-0578090/043-0466",16.4168698,102.8183949,"Y","N","Y","Y","N"
475,"เซรา คลินิก","SERA CLINIC","เซรา คลินิก","N","N","N","อุดรธานี","เมืองอุดรธานี","","https://m.facebook.com/seraclinic/?locale2=th_TH","083-2394465",17.4039693,102.8003601,"N","N","Y","N","N"
477,"ชนัดดา คลินิก","CHANATDA CLINIC","ชนัดดา คลินิก","N","N","N","เลย","เมืองเลย","","https://m.facebook.com/Chanatda-BY-Drtukta-580534865395279/","084-62465644",17.4867037,101.723318,"N","N","Y","N","N"
478,"ปาล์มมี่ คลินิก","PALMY CLINIC","ปาล์มมี่ คลินิก","N","N","N","สกลนคร","เมืองสกลนคร","","https://m.facebook.com/palmyclinic/?locale2=th_TH","082-9424426",17.15511,104.149794,"N","N","Y","N","N"
479,"คลินิกผิวหนังหมอลีลาวดี","LEELAWADEE SKIN AND LASER CLINIC","คลินิกผิวหนังหมอลีลาวดี","N","N","N","ขอนแก่น","เมืองขอนแก่น","","https://m.facebook.com/drleelawadeeclinic/?locale2=th_TH","098-0980101",16.4442777,102.7948996,"Y","N","N","N","N"
480,"นัทชิโกะ คลินิก","NUTCHIKO CLINIC","นัทชิโกะ คลินิก","N","N","N","อุบลราชธานี","เมืองอุบลราชธานี","","https://m.facebook.com/nutchikoclinic/?locale2=th_TH","086-6503003",15.245029,104.833351,"Y","N","Y","Y","N"
481,"เดอะ โคลเวอร์ คลินิค (สาขาสยาม)","The Clover Clinic (Siam Branch)","เดอะ โคลเวอร์ คลินิค (สาขาสยาม)","N","N","N","กรุงเทพมหานคร","เขตปทุมวัน","http://www.thecloverskinclinic.com","https://th-th.facebook.com/TheCloverClinic/","092-761-1931",13.7450061,100.5338909,"N","N","N","N","Y"
482,"เดอะ โคลเวอร์ คลินิค (สาขาเซ็นทรัลบางนา)","The Clover Clinic (Central Bangna Branch)","เดอะ โคลเวอร์ คลินิค (สาขาเซ็นทรัลบางนา)","N","N","N","กรุงเทพมหานคร","เขตบางนา","http://www.thecloverskinclinic.com","https://th-th.facebook.com/TheCloverClinic/","090-909-3547",13.668526,100.634045,"N","N","N","N","Y"
483,"เดอะ โคลเวอร์ คลินิค (สาขาเพียวเพลส ราชพฤกษ์)","The Clover Clinic (Pure Place Ratchaphuk Branch)","เดอะ โคลเวอร์ คลินิค (สาขาเพียวเพลส ราชพฤกษ์)","N","N","N","นนทบุรี","ปากเกร็ด","http://www.thecloverskinclinic.com","https://th-th.facebook.com/TheCloverClinic/","097-081-2817",13.912401299999999,100.4496385,"N","N","N","N","Y"
484,"ฮิมแอนด์เฮอร์ คลินิก","HIM AND HERR CLINIC","ฮิมแอนด์เฮอร์ คลินิก","N","N","N","สระบุรี","เมืองสระบุรี","http://-","https://th-th.facebook.com/Him-Herr-Clinic-478763485478946/?fref=nf","091 775 9664",14.5252843,100.9063983,"N","N","Y","N","N"
485,"ดีเพ็ญ-วรฤทธิ์ คลินิก","Dpen-Vorarit Clinic","ดีเพ็ญ-วรฤทธิ์ คลินิก","N","N","N","พระนครศรีอยุธยา","พระนครศรีอยุธยา","http://-","https://th-th.facebook.com/pages/ดีเพ็ญ-วรฤทธิ์คลินิก/171259896303707","035 232 505",14.3616557,100.5741718,"N","N","Y","N","N"
486,"เดอะไซน์ คลินิก (สุขุมวิท 55)","The Sign Clinic","เดอะไซน์ คลินิก (สุขุมวิท 55)","N","N","N","กรุงเทพมหานคร","เขตวัฒนา","http://thesignclinic.com","http://www.facebook.com/thesignclinic","061-797-8888",13.737063299999999,100.5838329,"N","N","N","N","Y"
488,"สยาม บางกอก คลินิก","Siam Bangkok Clinic","สยาม บางกอก คลินิก","N","N","N","กรุงเทพมหานคร","เขตบางบอน","http://Siambangkokclinic.com","https://www.facebook.com/Siambangkokclinic","096-882-8208",13.688649999999999,100.4324215,"N","N","Y","N","N"
489,"ลูมิแนนท์ คลินิก","Luminance Clinic","ลูมิแนนท์ คลินิก","N","N","N","กรุงเทพมหานคร","เขตบางเขน","http://Luminance.com","https://www.facebook.com/Luminanceclinic","02-234-0450",13.856685,100.643375,"Y","N","Y","N","N"
490,"ศูนย์แพทย์ผิวหนัง มศว.","Skin Center SWU","ศูนย์แพทย์ผิวหนัง มศว.","N","N","N","กรุงเทพมหานคร","เขตวัฒนา","http://SkincenterSWU.com","https://www.facebook.com/SkinCenterSWU","02-259-4260",13.744622,100.5635193,"N","N","Y","N","N"
491,"มาเบล คลินิก","Mabel Clinic","มาเบล คลินิก","N","N","N","กรุงเทพมหานคร","เขตพญาไท","http://Mabelclinic.com","https://www.facebook.com/Mabelclinic","02-111-2018",13.8045447,100.6154121,"Y","N","Y","N","Y"
492,"สุรีย์พร คลินิก","Sureephorn Clinic","สุรีย์พร คลินิก","N","N","N","กรุงเทพมหานคร","เขตดินแดง","","https://www.facebook.com/%E0%B8%AA%E0%B8%B8%E0%B8%A3%E0%B8%B5%E0%B8%A2%E0%B9%8C%E0%B8%9E%E0%B8%A3-%E0%B8%84%E0%B8%A5%E0%B8%B4%E0%B8%99%E0%B8%B4%E0%B8%81-By-%E0%B8%AB%E0%B8%A1%E0%B8%AD%E0%B8%9B%E0%B8%B","098-6636956",13.7782618,100.5682216,"N","N","N","N","Y"
493,"จันทรัตน์คลินิก","Jantarat Clinic","จันทรัตน์คลินิก","N","N","N","กรุงเทพมหานคร","เขตบางกะปิ","http://www.จันทรัตน์คลินิก.com","https://www.facebook.com/JantaratClinic/","02-3189160",13.75609,100.614004,"N","N","N","N","Y"
494,"ใจรักษ์ คลินิก","Jairuk Clinic","ใจรักษ์ คลินิก","N","N","N","กรุงเทพมหานคร","เขตคันนายาว","","https://www.facebook.com/Jairukclinic/","062-848-7799",13.8108726,100.6887048,"Y","N","Y","N","N"
495,"อิสสวีร์ คลินิก สาขา รามอินทรา","Issavee Clinic @ Ramintra","อิสสวีร์ คลินิก สาขา รามอินทรา","N","N","N","กรุงเทพมหานคร","เขตคันนายาว","https://www.issaveeclinic.com/","https://www.facebook.com/issaveeclinic/","088-8525496",13.820478,100.668124,"Y","N","Y","N","N"
496,"จีเวล คลินิก","Jewel Clinic","จีเวล คลินิก","N","N","N","กรุงเทพมหานคร","เขตวัฒนา","","https://www.facebook.com/JewelClinic/","087-4466939",13.7346783,100.5808599,"Y","N","Y","N","N"
497,"ซุเพียเรีย เมดิคอล เซ็นเตอร์","Superior Medical Center","ซุเพียเรีย เมดิคอล เซ็นเตอร์","N","N","N","กรุงเทพมหานคร","เขตบางนา","","https://m.facebook.com/superiormedicalcenter","063-5656235",13.667528,100.641111,"N","N","Y","N","Y"
498,"ทีเอ็นซี คลินิก พหลโยธิน","TNC Clinic @ Phahon Yothin","ทีเอ็นซี คลินิก พหลโยธิน","N","N","N","กรุงเทพมหานคร","เขตพญาไท","http://TNCclinic.com","http://www.facebook.com/TNCclinic/","02-2793491",13.7790644,100.5472309,"N","N","N","N","Y"
501,"ซิม คลินิก","Sym Clinic","ซิม คลินิก","N","N","N","เชียงใหม่","เมืองเชียงใหม่","","https://www.facebook.com/SYMclinic/","065 352 4296",18.8115746,98.9786489,"Y","N","N","N","N"
503,"เฟซ เมดิคอล คลินิก","Face Medical Clinic","เฟซ เมดิคอล คลินิก","N","N","N","ลำปาง","เมืองลำปาง","","https://www.facebook.com/FaceMedicalClinicLampang/","062 296 9969",18.2830569,99.4891675,"Y","N","Y","Y","N"
504,"โซว์ คลินิก","So Clinic","โซว์ คลินิก","N","N","N","เชียงราย","แม่สาย","","https://www.facebook.com/soclinicmaesai/","092 426 2298",20.4156543,99.8853923,"N","N","Y","N","N"
505,"สกินดรีม คลินิก","SKIN Dream Clinic","สกินดรีม คลินิก","N","N","N","เชียงใหม่","เมืองเชียงใหม่","","https://www.facebook.com/Skindreamlasercenter/","091 141 9515",18.7569625,98.9925208,"Y","Y","Y","Y","Y"
506,"ด็อกเตอร์ อินสปาย อินเลิฟ อินดี้ คลินิก","Doctor InspireInLoveIndy Clinic","ด็อกเตอร์ อินสปาย อินเลิฟ อินดี้ คลินิก","N","N","N","กรุงเทพมหานคร","เขตภาษีเจริญ","","https://facebook.com/InspiredClinic/","061-821-6868",13.7093865,100.4521421,"Y","Y","Y","Y","N"
507,"มัททะสุดา เลเซอร์แอนด์สกิน คลินิก","Mattasuda Laser&Skin Clinic","มัททะสุดา เลเซอร์แอนด์สกิน คลินิก","N","N","N","กรุงเทพมหานคร","เขตตลิ่งชัน","","https://m.facebook.com/MattasudaClinic/","099 205 0555",13.767353,100.442586,"Y","N","N","N","Y"
508,"เฟิร์ส คลินิก","First Clinic","เฟิร์ส คลินิก","N","N","N","กรุงเทพมหานคร","เขตวัฒนา","https://www.firstclinic49.com","https://m.facebook.com/firstclinic49/","094 409 4449",13.7264818,100.5756062,"N","N","Y","N","N"
509,"ธราธร เมดิคอล คลินิก","Tharatorn Medical Center","ธราธร เมดิคอล คลินิก","N","N","N","กรุงเทพมหานคร","เขตจตุจักร","http://www.tharatornmedicalclinic.com/","https://m.facebook.com/tharatornclinic/","086-382-5962",13.8090867,100.56775,"N","N","Y","N","N"
510,"เวอร์ติคอล คลินิก","VERTICAL CLINIC","เวอร์ติคอล คลินิก","N","N","N","กรุงเทพมหานคร","เขตบางรัก","","https://www.facebook.com/verticalclinic/","085 5562145",13.7246325,100.5291684,"Y","N","Y","Y","N"
511,"โรงพยาบาลศิริราชปิยะมหาการุญ","SIPH","โรงพยาบาลศิริราชปิยะมหาการุญ","N","N","N","กรุงเทพมหานคร","เขตบางกอกน้อย","http://www.siphhospital.com","",1474,13.7599266,100.4857927,"Y","N","N","N","N"
512,"บ้านคุณหมอคลินิก","Baankhunmor clinic","บ้านคุณหมอคลินิก","N","N","N","นครราชสีมา","เมืองนครราชสีมา","","https://www.facebook.com/Baankhunmorclinic/","061 6610185",15.0161696,102.1372409,"Y","Y","N","N","N"
514,"วีเดน คลินิก","Vden clinic","วีเดน คลินิก","N","N","N","ชลบุรี","เมืองชลบุรี","","https://www.facebook.com/Vdenclinic/","090 9692 617",13.3243978,100.9430849,"Y","N","Y","N","N"
515,"เดอะ วิช คลินิก(พัทยา)","The wish clinic","เดอะ วิช คลินิก(พัทยา)","N","N","N","ชลบุรี","บางละมุง","https://www.thewishclinicpty.com/","https://www.facebook.com/thewishclinicpattaya/","088 8743 999",12.9262899,100.8987513,"Y","Y","N","N","Y"
516,"บอนทูแคร์คลินิก","Bontcare clinic","บอนทูแคร์คลินิก","N","N","N","กรุงเทพมหานคร","เขตปทุมวัน","","https://th-th.facebook.com/skinbontcare/","02 214 4311",13.740045,100.525081,"Y","Y","Y","Y","N"
517,"รัสมิ์ภูมิ คลินิก สาขารัตนาธิเบศน์","Rassapoom clinic @Rattanathibet","รัสมิ์ภูมิ คลินิก สาขารัตนาธิเบศน์","N","N","N","นนทบุรี","เมืองนนทบุรี","http://www.rassapoom.com/","","02 4169282/095 12496",13.872864700000001,100.4613368,"N","N","N","N","Y"
518,"รัสมิ์ภูมิ คลินิก สาขาพระราม 2 ซอย 60","Rassapoom clinic @Rama 2","รัสมิ์ภูมิ คลินิก สาขาพระราม 2 ซอย 60","N","N","N","กรุงเทพมหานคร","เขตบางขุนเทียน","http://www.rassapoom.com","","02 4169282/095 12496",13.6542243,100.425105,"N","N","N","N","Y"
519,"รัสมิ์ภูมิ คลินิก สาขาเลียบด่วนรามอินทรา","Rassapoom clinic @Liab Duan Ramindra Express","รัสมิ์ภูมิ คลินิก สาขาเลียบด่วนรามอินทรา","N","N","N","กรุงเทพมหานคร","เขตบางเขน","http://www.rassapoom.com","","02 4169282/095 12496",13.8028889,100.612225,"N","N","N","N","Y"
521,"ด็อกเตอร์โพเมโล่คลินิก","Dr.pomelo Clinic","ด็อกเตอร์โพเมโล่คลินิก","N","N","N","กรุงเทพมหานคร","เขตประเวศ","","https://th-th.facebook.com/DrPomelo-Clinic-1484919985099317/","098 391 5464",13.676043,100.6443022,"Y","N","Y","N","N"
522,"ภัทรายุคลินิก","Patrayu Clinic","ภัทรายุคลินิก","N","N","N","สงขลา","หาดใหญ่","","https://www.facebook.com/patrayuclinic/","061 215 3599",13.773357,100.571486,"Y","N","N","N","N"
523,"เฟช ทู ทีช คลินิก","Face to teeth Clinic","เฟช ทู ทีช คลินิก","N","N","N","ภูเก็ต","เมืองภูเก็ต","","https://www.facebook.com/facetoteethclinic/","076-606622",7.8949381,98.2986112,"N","N","Y","N","N"
524,"สุภากาญจน์ คลินิก","Supa-kunn Clinic","สุภากาญจน์ คลินิก","N","N","N","กรุงเทพมหานคร","เขตบางนา","","https://www.facebook.com/SupakunnClinic/","085-156-5136",13.657536499999999,100.6234645,"Y","Y","Y","N","N"
525,"แอล คลินิก สาขาในเมืองเชียงราย","Ell Clinic (Chiang Rai)","แอล คลินิก สาขาในเมืองเชียงราย","N","N","N","เชียงราย","เมืองเชียงราย","","https://www.facebook.com/elleclinique/","052 055 916",19.906545,99.828446,"Y","N","Y","Y","N"
526,"แอล คลินิก สาขาแม่สาย","Ell Clinic (Mae Sai)","แอล คลินิก สาขาแม่สาย","N","N","N","เชียงราย","แม่สาย","","https://www.facebook.com/elleclinique/","052 059 916",20.40405,99.885705,"Y","N","Y","Y","N"
527,"โรงพยาบาลโอเวอร์บรุค","Overbrook Hospital","โรงพยาบาลโอเวอร์บรุค","N","N","N","เชียงราย","เมืองเชียงราย","http://www.overbrook-hospital.com","","053 711 366",19.9118447,99.8291135,"Y","N","N","N","Y"
528,"ราชเทวี คลินิก สาขาลำปาง","Rajdhevee Clinic Lampang","ราชเทวี คลินิก สาขาลำปาง","N","N","N","ลำปาง","เมืองลำปาง","","https://www.facebook.com/rcClub/","054 218 679/054 218",18.453286,99.4339343,"Y","N","N","N","Y"
529,"พีบีเมด คลินิก","PB MED Clinic","พีบีเมด คลินิก","N","N","N","ขอนแก่น","เมืองขอนแก่น","","https://www.facebook.com/PB-Med-Clinic-277989849441105/","087 465 9656",16.4340965,102.8104961,"Y","N","Y","N","N"
530,"ธัญวรินทร์ คลินิก","Thanwarin Clinic","ธัญวรินทร์ คลินิก","N","N","N","อุบลราชธานี","เมืองอุบลราชธานี","","https://m.facebook.com/drann27/?locale2=th_TH","084 5432 175",15.2689577,104.8356206,"N","N","Y","N","N"
531,"คริสตัล คลินิก","Crystal Clinic","คริสตัล คลินิก","N","N","N","มหาสารคาม","เมืองมหาสารคาม","","https://m.facebook.com/Crystalclinic.m/?locale2=th_TH","043 722 248",16.1958473,103.2937207,"N","N","Y","N","N"
532,"คลินิกผิวหนังหมอชนนท์","Chanon Clinic Aesthetic Skin & Laser","คลินิกผิวหนังหมอชนนท์","N","N","N","ศรีสะเกษ","เมืองศรีสะเกษ","https://chanon-clinic.business.site","https://mobile.facebook.com/chanon.skin.clinic/reviews","045 611 331",15.1110222,104.3287951,"N","N","Y","N","N"
533,"กริตธาดา คลินิก","Kritthada Clinic","กริตธาดา คลินิก","N","N","N","กรุงเทพมหานคร","เขตบางนา","","https://www.facebook.com/Kritthadaclinic/","098-271-7778",13.667759,100.6391535,"N","N","Y","N","N"
534,"พรีเว่ คลินิก","PRIVÉ by DR.TOY","พรีเว่ คลินิก","N","N","N","กรุงเทพมหานคร","เขตปทุมวัน","","https://www.facebook.com/privebydr.toy/","02-655-6146",13.745084,100.544223,"N","N","Y","N","N"
535,"ธนพร พรีวาโต คลินิก","Tanaporn Privato Clinic","ธนพร พรีวาโต คลินิก","N","N","N","กรุงเทพมหานคร","เขตวัฒนา","https://tanapornclinic.com/en/privato/","https://www.facebook.com/tanapornclinic","02-258-4050",13.7438912,100.5618199,"N","N","N","N","Y"
536,"พริวิเลจคลินิก สาขาทองหล่อ","Privilege Clinic @Thonglor","พริวิเลจคลินิก สาขาทองหล่อ","N","N","N","กรุงเทพมหานคร","เขตวัฒนา","http://www.privilegeclinic.com/","https://www.facebook.com/privilegeclinic/","099-615-1599",13.7300642,100.5792273,"N","N","N","N","Y"
537,"อรัญญา คลินิก","Arunya Clinic","อรัญญา คลินิก","N","N","N","สมุทรปราการ","เมืองสมุทรปราการ","","https://www.facebook.com/ArunyaClinic.SP/","082-454-6353",13.6070517,100.7064551,"Y","N","Y","N","Y"
538,"ไลฟ์ คลินิก","Life Clinic","ไลฟ์ คลินิก","N","N","N","ชลบุรี","เมืองชลบุรี","","https://www.facebook.com/lifeskinclinic/","095-942-4922",13.356626,100.985352,"Y","N","Y","N","Y"
539,"ยู ดีไซร์ คลินิก","You Desire clinic","ยู ดีไซร์ คลินิก","N","N","N","กรุงเทพมหานคร","เขตจตุจัตร","","https://www.facebook.com/youdesireclinic/","088-199-1626",13.840072,100.5803441,"Y","Y","Y","Y","N"
540,"มาร์สคลินิก","Mars Clinic","มาร์สคลินิก","N","N","N","กรุงเทพมหานคร","เขตจตุจัตร","","https://www.facebook.com/marsclinics/","098-892-6247",13.8331391,100.5713325,"N","N","Y","N","N"
542,"บีอาร์ คลินิก","br Clinic","บีอาร์ คลินิก","N","N","N","กรุงเทพมหานคร","เขตหลักสี่","","https://m.facebook.com/brclinicbangkok/","090 552 2522",13.8946476,100.5575225,"Y","N","N","N","N"
543,"ด็อกเตอร์นภัส คลินิก","DR.NAPAS CLINIC","ด็อกเตอร์นภัส คลินิก","N","N","N","ปทุมธานี","ลำลูกกา","","https://m.facebook.com/dr.napas/","094 321 1555",13.9606904,100.6825881,"Y","Y","Y","N","N"
544,"เฟรช โค้ด คลินิก","Fresh code clinic","เฟรช โค้ด คลินิก","N","N","N","กรุงเทพมหานคร","เขตวัฒนา","","https://www.facebook.com/freshcodeclinic/","02-2532236",13.7425785,100.5541661,"N","N","Y","Y","N"
545,"บลอสซั้ม คลินิก สาขาอโศก","Blossom clinic Asoke","บลอสซั้ม คลินิก สาขาอโศก","N","N","N","กรุงเทพมหานคร","เขตวัฒนา","","https://www.facebook.com/blossomclinic/","095-2497914",13.7483208,100.5643666,"N","N","Y","Y","N"
546,"บลอสซั้ม คลินิก สาขามหาชัย","Blossom clinic Mahachai","บลอสซั้ม คลินิก สาขามหาชัย","N","N","N","สมุทรสาคร","เมืองสมุทรสาคร","","https://www.facebook.com/blossomclinic/","095-9058222",13.5733867,100.2723375,"N","N","Y","Y","N"
547,"บลอสซั้ม คลินิก สาขานครปฐม","Blossom clinic Nakornpathom","บลอสซั้ม คลินิก สาขานครปฐม","N","N","N","นครปฐม","เมืองนครปฐม","","https://www.facebook.com/blossomclinic/","097-0070575",13.8143553,100.0417802,"N","N","Y","Y","N"
548,"บลอสซั้ม คลินิก สาขาศาลายา","Blossom clinic Salaya","บลอสซั้ม คลินิก สาขาศาลายา","N","N","N","นครปฐม","พุทธมณฑล","","https://www.facebook.com/blossomclinic/","095-4721590",13.799614,100.3273255,"N","N","Y","Y","N"
549,"บลอสซั้ม คลินิก สาขาบางนา","Blossom clinic Bangna","บลอสซั้ม คลินิก สาขาบางนา","N","N","N","กรุงเทพมหานคร","เขตบางนา","","https://www.facebook.com/blossomclinic/","094-2428951",13.667185,100.682823,"N","N","Y","Y","N"
550,"ไอสกาย เซ็นเตอร์สาขาไฟฉาย","Isky center Faichai","ไอสกาย เซ็นเตอร์สาขาไฟฉาย","N","N","N","กรุงเทพมหานคร","เขตบางกอกน้อย","http://www.iskycenter.com/","https://www.facebook.com/iSKYcenter/","02-4095194",13.7560396,100.4699384,"Y","Y","Y","Y","Y"
551,"โรงพยาบาลสมิติเวช ศรีราชา","Samitivej Sriracha Hospital","โรงพยาบาลสมิติเวช ศรีราชา","N","N","N","ชลบุรี","ศรีราชา","https://www.samitivejhospitals.com/th/สมิติเวชศรีราชา/","https://www.facebook.com/samitivej.sriracha/","038320300",13.1790413,100.9289205,"Y","N","N","N","N"
552,"โรงพยาบาลเวชศาสตร์เขตร้อน","Hospital for Tropical diseases","โรงพยาบาลเวชศาสตร์เขตร้อน","N","N","N","กรุงเทพมหานคร","เขตราชเทวี","http://www.tm.mahidol.ac.th/hospital/index-th.php","https://m.facebook.com/tmhospital","023069199",13.7657804,100.5333703,"Y","N","N","N","N"
553,"เคพีเอส คลินิก สาขาชิดลม","KPS Clinic Chidlom","เคพีเอส คลินิก สาขาชิดลม","N","N","N","กรุงเทพมหานคร","เขตปทุมวัน","https://kpsclinic.com/","https://m.facebook.com/kpsclinicth/","022522824",13.746355,100.544488,"Y","N","N","N","N"
554,"เคพีเอส คลินิก สาขาศรีนครินทร์ 42","KPS Clinic Srinakharin42","เคพีเอส คลินิก สาขาศรีนครินทร์ 42","N","N","N","กรุงเทพมหานคร","เขตประเวศ","https://kpsclinic.com/","https://m.facebook.com/kpsclinicth/","0972423294",13.691437,100.646211,"Y","N","N","N","N"
555,"นิวพี คลินิก สาขาชิดลม","New P Clinic @ Chidlom","นิวพี คลินิก สาขาชิดลม","N","N","N","กรุงเทพมหานคร","เขตปทุมวัน","","https://m.facebook.com/New-P-Clinic-201820779983003/","0629249987",13.7413734,100.549933,"Y","N","Y","N","N"
557,"ชริสมาร์ คลินิก","Charismma Clinic","ชริสมาร์ คลินิก","N","N","N","กรุงเทพมหานคร","เขตวัฒนา","http://www.charismmaclinic.com","https://www.facebook.com/charismmaclinic/","022588754",13.7408373,100.5621334,"Y","N","Y","N","N"
558,"ด็อกเตอร์เซน คลินิก","Dr.Zen Clinic","ด็อกเตอร์เซน คลินิก","N","N","N","กรุงเทพมหานคร","เขตธนบุรี","","https://www.facebook.com/DoctorZenClinic","0903262424",13.7053692,100.4912691,"N","N","Y","Y","N"
559,"นครา คลินิก","Nakara Clinic","นครา คลินิก","N","N","N","นครสวรรค์","เมืองนครสวรรค์","http://nakaraclinic.com","http://www.facebook.com/nakaraclinic/","093-191-4499",15.7101196,100.1362764,"N","N","N","N","Y"
560,"เอมม่า คลินิกเวชกรรม","Emma Clinic","เอมม่า คลินิกเวชกรรม","N","N","N","สมุทรปราการ","เมืองสมุทรปราการ","http://Emmaclinic.com","http://www.facebook.com/emmaclinic/","063-235-9094",13.5666647,100.6697329,"N","N","N","N","Y"
561,"เดอะ โคโค่ คลินิก","The Coco Clinic","เดอะ โคโค่ คลินิก","N","N","N","เชียงใหม่","เมืองเชียงใหม่","","https://www.facebook.com/thecococlinic/","082 775 5858/052 000",13.8098404,100.4489096,"N","N","Y","N","N"
562,"เอเจนคลินิก","A-GEN Clinic","เอเจนคลินิก","N","N","N","เชียงใหม่","เมืองเชียงใหม่","","https://www.facebook.com/agenclinic/","095 929 5296",18.8061454,98.9804284,"Y","Y","Y","Y","N"
563,"เอส125 คลินิก","S125 Clinic","เอส125 คลินิก","N","N","N","กรุงเทพมหานคร","เขตวัฒนา","","https://www.facebook.com/S125-Clinic-857043501086647/","02-392-0392",13.730791,100.5818205,"Y","N","Y","N","N"
564,"อิสสวีร์ คลินิก สาขา อารีย์","Issavee Clinic @ Ari","อิสสวีร์ คลินิก สาขา อารีย์","N","N","N","กรุงเทพมหานคร","เขตพญาไท","https://www.issaveeclinic.com/","https://www.facebook.com/issaveeclinic/","094-646-5196",13.782821,100.546221,"Y","N","Y","N","N"
565,"ปิยะวัฒน์ คลินิก","Piyawat Clinic","ปิยะวัฒน์ คลินิก","N","N","N","กรุงเทพมหานคร","เขตวัฒนา","http://www.piyawatclinic.com/","https://www.facebook.com/piyawatclinic/","081-7352600",13.7385614,100.5814339,"N","N","Y","N","Y"
566,"แอ็บเมดิค  เวลเนส เซ็นเตอร์","ABSMEDiQ Wellness Center","แอ็บเมดิค  เวลเนส เซ็นเตอร์","N","N","N","กรุงเทพมหานคร","เขตปทุมวัน","","https://www.facebook.com/ABSMEDiQ/","081-928-2806",13.7402898,100.5491304,"Y","N","N","N","N"
567,"พงศ์ศักดิ์คลินิก สาขา ฟิวเจอร์ปาร์ค รังสิต","PONGSAK CLINIC @ FUTURE PARK RANGSIT","พงศ์ศักดิ์คลินิก สาขา ฟิวเจอร์ปาร์ค รังสิต","N","N","N","ปทุมธานี","ธัญบุรี","http://www.pongsak-clinic.com/home","https://www.facebook.com/pongsakclinic/","095-205-7197",13.9891667,100.6180717,"Y","Y","Y","Y","Y"
568,"พงศ์ศักดิ์คลินิก สาขา นครปฐม","PONGSAK CLINIC @ NAKORNPATHOM","พงศ์ศักดิ์คลินิก สาขา นครปฐม","N","N","N","นครปฐม","เมืองนครปฐม","http://www.pongsak-clinic.com/home","https://www.facebook.com/pongsakclinic/","095-205-7195",13.8172225,100.0568392,"Y","Y","Y","Y","Y"
569,"พงศ์ศักดิ์คลินิก สาขา เซนทรัลชลบุรี","PONGSAK CLINIC @ CENTRAL CHONBURI","พงศ์ศักดิ์คลินิก สาขา เซนทรัลชลบุรี","N","N","N","ชลบุรี","เมืองชลบุรี","http://www.pongsak-clinic.com/home","https://www.facebook.com/pongsakclinic/","095-205-7192",13.336173,100.9694589,"Y","Y","Y","Y","Y"
570,"พงศ์ศักดิ์คลินิก สาขา ศรีราชา","PONGSAK CLINIC @ SRIRACHA","พงศ์ศักดิ์คลินิก สาขา ศรีราชา","N","N","N","ชลบุรี","ศรีราชา","http://www.pongsak-clinic.com/home","https://www.facebook.com/pongsakclinic/","095-205-7191",13.1688994,100.9300104,"Y","Y","Y","Y","Y"
571,"พงศ์ศักดิ์คลินิก สาขา สัตหีบ","PONGSAK CLINIC @ SATAHIP","พงศ์ศักดิ์คลินิก สาขา สัตหีบ","N","N","N","ชลบุรี","สัตหีบ","http://www.pongsak-clinic.com/home","https://www.facebook.com/pongsakclinic/","095-205-7190",12.663147,100.899499,"Y","Y","Y","Y","Y"
572,"พงศ์ศักดิ์คลินิก สาขา ระยอง","PONGSAK CLINIC @ RAYONG","พงศ์ศักดิ์คลินิก สาขา ระยอง","N","N","N","ระยอง","เมืองระยอง","http://www.pongsak-clinic.com/home","https://www.facebook.com/pongsakclinic/","095-205-7189",12.6814137,101.2780608,"Y","Y","Y","Y","Y"
573,"พงศ์ศักดิ์คลินิก สาขา หัวหิน","PONGSAK CLINIC @ HUAHIN MARKET VILLAGE","พงศ์ศักดิ์คลินิก สาขา หัวหิน","N","N","N","ประจวบคีรีขันธ์","หัวหิน","http://www.pongsak-clinic.com/home","https://www.facebook.com/pongsakclinic/","095-205-7194",12.557563,99.960082,"Y","Y","Y","Y","Y"
574,"พงศ์ศักดิ์คลินิก สาขา หาดใหญ่","PONGSAK CLINIC @ HATYAI","พงศ์ศักดิ์คลินิก สาขา หาดใหญ่","N","N","N","สงขลา","หาดใหญ่","http://www.pongsak-clinic.com/home","https://www.facebook.com/pongsakclinic/","088-792-3277",7.02697,100.469647,"Y","Y","Y","Y","Y"
575,"เอสวีเจคลินิก สาขาปิ่นเกล้า","SVJ Clinic Pinklao","เอสวีเจคลินิก สาขาปิ่นเกล้า","N","N","N","กรุงเทพมหานคร","เขตบางกอกน้อย","http://www.svjclinic.com/","https://www.facebook.com/svjclinic/","02 4343838",13.779976,100.475382,"N","N","N","N","Y"
576,"เซ็นต์ ทองหล่อ คลินิก","Saint thonglor Clinic","เซ็นต์ ทองหล่อ คลินิก","N","N","N","กรุงเทพมหานคร","เขตวัฒนา","http://www.saintthonglorclinic.com","https://www.facebook.com/saintthonglorclinic/","02 1305163",13.732247,100.582242,"Y","N","N","N","N"
578,"วรรณวรินธ์ คลินิก","Vanvarin clinic","วรรณวรินธ์ คลินิก","N","N","N","สุรินทร์","เมืองสุรินทร์","http://www.vanvarin.com","https://www.facebook.com/vanvarinClinic/","0918289292",14.8879527,103.4999451,"N","N","Y","N","Y"
579,"รพ.ธนบุรี บำรุงเมือง","Thonburi Bamrungmuang hospital","รพ.ธนบุรี บำรุงเมือง","N","N","N","กรุงเทพมหานคร","เขตป้อมปราบศัตรูพ่าย","","","022207999",13.7505521,100.5143579,"N","N","N","N","Y"
580,"วินเซนต์ คลินิก สาขา อมตะนคร","Vincent Clinic @ Amatanakhon","วินเซนต์ คลินิก สาขา อมตะนคร","N","N","N","ชลบุรี","เมืองชลบุรี","","https://m.facebook.com/Vincent-Clinic-วินเซนต์คลินิก","097-098-1408",13.4138297,101.0436717,"Y","Y","Y","Y","Y"
581,"วินเซนต์ คลินิก สาขา สะพานสี่-บ่อวิน","Vincent Clinic @ Sapan4-bowin","วินเซนต์ คลินิก สาขา สะพานสี่-บ่อวิน","N","N","N","ระยอง","ปลวกแดง","","https://m.facebook.com/Vincent-Clinic-วินเซนต์คลินิก","064-296-8416",14.976684,102.111471,"Y","Y","Y","Y","Y"
582,"สิริน คลินิก","Sirin Clinic","สิริน คลินิก","N","N","N","กรุงเทพมหานคร","เขตประเวศ","","https://www.facebook.com/sirinclinic/","02-075-5722",13.717949,100.702617,"Y","N","Y","N","N"
583,"เอ็มเอสซี คลินิก","MSC Clinic","เอ็มเอสซี คลินิก","N","N","N","กรุงเทพมหานคร","เขตบางเขน","","https://th-th.facebook.com/MSCCLINIC.THAILAND/","090 097 5888",13.7792055,100.6205003,"N","N","Y","N","N"
584,"ออร่า เมดิเพล็กซ์","AURA Mediplex","ออร่า เมดิเพล็กซ์","N","N","N","ภูเก็ต","เมืองภูเก็ต","https://auramediplex.com","https://m.facebook.com/auramediplex/","076-619-799",7.8781503,98.3934842,"Y","N","Y","N","N"
585,"เฮอร์ทิจูดคลินิก สาขา เกษรวิลเลจ","Hertitude Clinic @ Gaysorn Village","เฮอร์ทิจูดคลินิก สาขา เกษรวิลเลจ","N","N","N","กรุงเทพมหานคร","เขตปทุมวัน","http://www.hertitude.com/","https://www.facebook.com/Hertitudeclinic/","086-341-9007",13.7464409,100.5445083,"Y","N","Y","N","Y"
586,"เฮอร์ทิจูดคลินิก สาขา เดอะคริสตัล รามอินทรา","Hertitude Clinic @ The Crystal Ramintra","เฮอร์ทิจูดคลินิก สาขา เดอะคริสตัล รามอินทรา","N","N","N","กรุงเทพมหานคร","เขตลาดพร้าว","http://www.hertitude.com/","https://www.facebook.com/Hertitudeclinic/","086-336-3342",13.8111493,100.6185865,"Y","N","Y","N","Y"
589,"ด็อกเตอร์โทนี่คลินิก สาขา เดอะคริสตัล รามอินทรา","Doctor Tony Beauty Expert @ The Crystal Ramintra","ด็อกเตอร์โทนี่คลินิก สาขา เดอะคริสตัล รามอินทรา","N","N","N","กรุงเทพมหานคร","เขตลาดพร้าว","http://www.doctortonyclinic.com/","https://www.facebook.com/dr.tonybeautyexpert/","087 999 6169",13.8113412,100.6187237,"Y","N","Y","N","Y"
590,"ไคพริส คลินิก","Kypris Clinic","ไคพริส คลินิก","N","N","N","กรุงเทพมหานคร","เขตลาดพร้าว","","https://m.facebook.com/kyprisclinic/","02-853-3919",13.8062415,100.6077627,"Y","N","Y","N","N"
591,"ซิมพลิ คลินิก","Simply Clinic","ซิมพลิ คลินิก","N","N","N","กรุงเทพมหานคร","เขตบางกอกน้อย","http://www.simplyclinics.com/","https://m.facebook.com/simplyclinic/","063 980 8333",13.7779899,100.4760295,"Y","N","N","N","N"
593,"หมอบิ๊กโคราช","Dr.Big Aesthetic clinic","หมอบิ๊กโคราช","N","N","N","นครราชสีมา","เมืองนครราชสีมา","","https://www.facebook.com/dr.bigclinic/","098 6539889",14.9913552,102.1208422,"Y","Y","Y","Y","N"
594,"รพ.สุขุมวิท","Sukumvit hospital","รพ.สุขุมวิท","N","N","N","กรุงเทพมหานคร","เขตวัฒนา","http://www.sukumvithospital.com","","02-3910011",13.7189827,100.5870333,"Y","N","N","N","N"
597,"ยู แอนด์ พี คลีนิค สาขาปากช่อง","U&P clinic Pak Chong","ยู แอนด์ พี คลีนิค สาขาปากช่อง","N","N","N","นครราชสีมา","ปากช่อง","","https://www.facebook.com/U&Pclinic/","044 316049",14.6785513,101.3998198,"Y","Y","Y","Y","N"
598,"โรงพยาบาลศัลยกรรมตกแต่งดับเบิ้ลยู","W plastic surgery hospital","โรงพยาบาลศัลยกรรมตกแต่งดับเบิ้ลยู","N","N","N","กรุงเทพมหานคร","เขตลาดพร้าว","http://www.w-surgeryhospital.com","https://www.facebook.com/wsurgeryhospital/","0917746666",13.8214892,100.6253827,"Y","N","N","N","N"
599,"วิลล่า เอสติกา","Villa aestheca","วิลล่า เอสติกา","N","N","N","กรุงเทพมหานคร","เขตบึงกุ่ม","","https://www.facebook.com/villaaestheca","0924741144",13.8066696,100.649101,"Y","N","N","N","N"
600,"วี คลินิก","V clinic","วี คลินิก","N","N","N","กรุงเทพมหานคร","เขตหลักสี่","http://www.vclinic-Medical.com","https://l.facebook.com/l.php?u=http%3A%2F%2Fwww.vclinic-medical.com%2F&h=AT2jBkxhwK-5fwf3-HJSesWlpeJwxtuq6F1jOfShjYqp8LPXEvYtGoiXNOvOTiUPQBBhr2HjRwEGAcLvn9Q-dJhUxioirYzn97T4FfVRdMLyM9b2kZQl00SuzG4NlzE","0614955979",13.924975,100.5935102,"N","N","Y","N","N"
601,"เฌอคลินิก","cher clinic","เฌอคลินิก","N","N","N","กรุงเทพมหานคร","เขตบางนา","","https://m.facebook.com/cherclinic/","099-9892245",13.668610900000001,100.6348016,"Y","N","Y","N","N"
602,"ลูมิแนนซ์ คลินิก เชียงใหม่","Luminance Clinic Chiangmai By Dr.Kwan","ลูมิแนนซ์ คลินิก เชียงใหม่","N","N","N","เชียงใหม่","เมืองเชียงใหม่","","https://m.facebook.com/luminancechiangmai/","064 664 9362",18.7963875,98.977297,"Y","Y","Y","Y","Y"
603,"วี ดรีม คลีนิก","V DREAM CLINIC","วี ดรีม คลีนิก","N","N","N","กรุงเทพมหานคร","เขตพญาไท","http://vdreamclinic.com","http://www.facebook.com/Vdreamclinic","062-210-3282",13.782966,100.54641,"N","N","N","N","Y"
604,"อาชิญาภัท คลินิก","Archiyapat Clinic","อาชิญาภัท คลินิก","N","N","N","กำแพงเพชร","เมืองกำแพงเพชร","","https://www.facebook.com/pg/archiyapatclinic/about/?ref=page_internal","055-712-491",16.4705994,99.5391867,"Y","N","N","N","N"
605,"รีจู คลินิก สาขา สาทรซิตี้","Rejuv Clinic @Sathorn City Tower","รีจู คลินิก สาขา สาทรซิตี้","N","N","N","กรุงเทพมหานคร","เขตสาทร","","","082-514-6144",13.7215561,100.5318967,"Y","N","N","N","Y"
607,"ดับเบิ้ลยู คลินิกเวชกรรม","W doctorwut Clinic","ดับเบิ้ลยู คลินิกเวชกรรม","N","N","N","เพชรบุรี","เมืองเพชรบุรี","","https://www.facebook.com/vtp0171q/","032-400-726",13.1011094,99.9441872,"Y","N","Y","N","N"
608,"เดอะ โว้ก คลินิก สาขาระยอง","The Vogue Clinic @Rayong","เดอะ โว้ก คลินิก สาขาระยอง","N","N","N","ระยอง","เมืองระยอง","","https://www.facebook.com/thevogueclinic.rayong/","091 0936999",12.687301,101.254453,"Y","N","Y","N","N"
609,"ลามอง คลินิก","Lamong clinic","ลามอง คลินิก","N","N","N","ระยอง","บ้านฉาง","","https://www.facebook.com/Lamongclinic/","065 3966900",12.7150023,101.0415897,"N","N","Y","N","N"
610,"ด็อกเตอร์เมฆ คลินิก","Doctor Mek clinic","ด็อกเตอร์เมฆ คลินิก","N","N","N","กรุงเทพมหานคร","เขตปทุมวัน","","https://th-th.facebook.com/doctormekclinic/","064-946-1998",13.7471164,100.5245997,"N","N","Y","N","Y"
611,"วนินทร์ คลินิก","Vanintr clinic","วนินทร์ คลินิก","N","N","N","กรุงเทพมหานคร","เขตบางเขน","https://doctormekclinic.com/","","082-977-1477",13.880012,100.6456038,"N","N","Y","N","N"
613,"ปราการคลินิก","Prakarn clinic","ปราการคลินิก","N","N","N","สมุทรปราการ","เมืองสมุทรปราการ","","https://www.facebook.com/prakarnclinic/","085-536-6500",13.5855162,100.5955504,"Y","N","N","N","N"
614,"ด็อกเตอร์ยู คลินิก","Dr.You Clinic","ด็อกเตอร์ยู คลินิก","N","N","N","เชียงราย","เมืองเชียงราย","","https://www.facebook.com/Dr.YouClinic/","053 179 732",19.9010785,99.820173,"N","N","Y","N","N"
615,"เมด ดีไซน์ คลินิก สาขาศรีราชา","Med Design Clinic @ Bowin","เมด ดีไซน์ คลินิก สาขาศรีราชา","N","N","N","ชลบุรี","ศรีราชา","","https://th-th.facebook.com/MedDesignClinic/","038337326",13.0370554,101.0891818,"N","N","Y","N","N"
616,"เมด ดีไซน์ คลินิก สาขาระยอง","Med Design Clinic @ Rayong","เมด ดีไซน์ คลินิก สาขาระยอง","N","N","N","ระยอง","เมืองระยอง","","https://th-th.facebook.com/MedDesignClinic/","038020060",12.682736,101.24907,"N","N","Y","N","N"
617,"เอลิแกนซ์ คลินิก","Elegance clinic","เอลิแกนซ์ คลินิก","N","N","N","นนทบุรี","ปากเกร็ด","","https://th-th.facebook.com/EleganceClinicTH/","0942949329",13.884857,100.551623,"N","N","Y","N","N"
618,"แพรระวี คลินิก","Praerawee  Clinic","แพรระวี คลินิก","N","N","N","กำแพงเพชร","เมืองกำแพงเพชร","http://Praeraweeclinic.com","https://www.facebook.com/praeraweeclinic/","0869405555",16.4741264,99.5304695,"N","N","N","N","Y"
619,"ไดซี่ คลินิก","Daisy clinic","ไดซี่ คลินิก","N","N","N","ฉะเชิงเทรา","บางปะกง","http://www.daisyclinicthailand.com","","090 551 1588",13.5423325,100.9712826,"Y","N","Y","N","N"
621,"ทรงพล คลินิก","Songpon Clinic","ทรงพล คลินิก","N","N","N","พะเยา","เมืองพะเยา","","https://www.facebook.com/Songponclinic/","054 480 558/099 298",19.169176,99.899282,"Y","N","N","N","N"
622,"คลินิกหมอสุธิดา-ภัทราวุธ","SUTIDA CLINIC","คลินิกหมอสุธิดา-ภัทราวุธ","N","N","N","แพร่","เมืองแพร่","","https://www.facebook.com/sutidaclinic/","090 319 1196",18.1230142,100.152832,"Y","N","Y","Y","N"
623,"บลิส คลินิก","Bliss Clinic","บลิส คลินิก","N","N","N","กรุงเทพมหานคร","เขตวัฒนา","","https://www.facebook.com/blissclinic1/","06-3431-4832",13.7344126,100.5829071,"Y","N","N","N","Y"
624,"ศรัณย์แคร์คลินิก สาขา ลาดพร้าว 53","Sarun Care Clinic @ Lat Phrao 53","ศรัณย์แคร์คลินิก สาขา ลาดพร้าว 53","N","N","N","กรุงเทพมหานคร","เขตวังทองหลาง","http://www.saruncareclinic.com/en/","https://www.facebook.com/saruncareclinic/","088-874-7424",13.7950509,100.5947876,"N","N","N","N","Y"
625,"ศรัณย์แคร์คลินิก สาขา เจริญกรุง","Sarun Care Clinic @ Charoen Krung","ศรัณย์แคร์คลินิก สาขา เจริญกรุง","N","N","N","กรุงเทพมหานคร","เขตบางคอแหลม","http://www.saruncareclinic.com/en/","https://www.facebook.com/saruncareclinic/","088-874-7423",13.6990664,100.4989389,"N","N","N","N","Y"
626,"ศรัณย์แคร์คลินิก สาขา สุขุมวิท 54","Sarun Care Clinic @ Sukhumvit 54","ศรัณย์แคร์คลินิก สาขา สุขุมวิท 54","N","N","N","กรุงเทพมหานคร","เขตพระโขนง","http://www.saruncareclinic.com/en/","https://www.facebook.com/saruncareclinic/","088-874-7421",13.6982722,100.5968446,"N","N","N","N","Y"
627,"ศรัณย์แคร์คลินิก สาขา สยามสแควร์","Sarun Care Clinic @ Siam Square","ศรัณย์แคร์คลินิก สาขา สยามสแควร์","N","N","N","กรุงเทพมหานคร","เขตปทุมวัน","http://www.saruncareclinic.com/en/","https://www.facebook.com/saruncareclinic/","088-874-7422",13.7452,100.534871,"N","N","N","N","Y"
628,"ศรัณย์แคร์คลินิก สาขา ปิ่นเกล้า","Sarun Care Clinic @ Pinklao","ศรัณย์แคร์คลินิก สาขา ปิ่นเกล้า","N","N","N","กรุงเทพมหานคร","เขตบางกอกน้อย","http://www.saruncareclinic.com/en/","https://www.facebook.com/saruncareclinic/","088-874-7425",13.7796044,100.4749945,"N","N","N","N","Y"
629,"เอสเธ่คลินิก","Aesthe Clinic","เอสเธ่คลินิก","N","N","N","กรุงเทพมหานคร","สวนหลวง","http://aestheclinicthailand.com/","https://www.facebook.com/aestheclinicbangkok/","061 584 3888",13.7438778,100.616478,"N","N","N","N","Y"
630,"มามอง คลินิก","Maman Clinic","มามอง คลินิก","N","N","N","กรุงเทพมหานคร","เขตภาษีเจริญ","","https://www.facebook.com/MamanClinic/","099-478-8299",13.7225874,100.461817,"N","N","Y","N","N"
631,"รพ.จุฬารัตน์3 อินเตอร์","Chularat3 International Hospital","รพ.จุฬารัตน์3 อินเตอร์","N","N","N","สมุทรปราการ","บางพลี","https://www.chularat3.com/service_detail.php?lang=th&id=1","","02-033-2900",13.59938,100.7212306,"N","N","Y","N","N"
633,"พูจองคลินิก สาขาโลตัสชลบุรี","Bujeong clinic @Lotus Chonburi","พูจองคลินิก สาขาโลตัสชลบุรี","N","N","N","ชลบุรี","เมืองชลบุรี","https://www.bujeongclinic.com/","https://www.facebook.com/bujeongclinic/","088-126-1111",13.6323475,100.7107468,"N","N","Y","N","N"
634,"พูจองคลินิก สาขาเซ็นทรัลขอนแก่น","Bujeong clinic @Central KhonKaen","พูจองคลินิก สาขาเซ็นทรัลขอนแก่น","N","N","N","ขอนแก่น","เมืองขอนแก่น","https://www.bujeongclinic.com/","https://www.facebook.com/bujeongclinic/","088-125-1111",16.4324855,102.8253683,"Y","Y","Y","Y","N"
635,"พูจองคลินิก สาขาเซ็นทรัลอุบลราชธานี","Bujeong clinic @Central Ubon","พูจองคลินิก สาขาเซ็นทรัลอุบลราชธานี","N","N","N","อุบลราชธานี","เมืองอุบลราชธานี","https://www.bujeongclinic.com/","https://www.facebook.com/bujeongclinic/","088-129-1111",15.240274,104.82346509999999,"N","N","Y","N","N"
636,"พูจองคลินิก สาขาเมเจอร์รัชโยธิน","Bujeong clinic @MajorRatchayothin","พูจองคลินิก สาขาเมเจอร์รัชโยธิน","N","N","N","กรุงเทพมหานคร","เขตจตุจักร","https://www.bujeongclinic.com/","https://www.facebook.com/bujeongclinic/","088-120-1111",13.8282554,100.5669882,"N","N","Y","N","N"
637,"พูจองคลินิก สาขาโรบินสันบุรีรัมย์","Bujeong clinic @Robinsan Buriram","พูจองคลินิก สาขาโรบินสันบุรีรัมย์","N","N","N","บุรีรัมย์","เมืองบุรีรัมย์","https://www.bujeongclinic.com/","https://www.facebook.com/bujeongclinic/","088-124-1111",14.9731345,103.0641479,"N","N","Y","N","N"
638,"ธัญธารีย์คลินิก (กระบี่)","Thantharee clinic","ธัญธารีย์คลินิก (กระบี่)","N","N","N","กระบี่","เมืองกระบี่","","https://www.facebook.com/thanthareeclinic","075-636-099",8.0728771,98.997151,"N","N","N","N","Y"
639,"ซีลีน คลินิก","CeLENE Clinic","ซีลีน คลินิก","N","N","N","เชียงใหม่","เมืองเชียงใหม่","","https://www.facebook.com/Celene-Clinic-%E0%B8%8B%E0%B8%B5%E0%B8%A5%E0%B8%B5%E0%B8%99-%E0%B8%84%E0%B8%A5%E0%B8%B4%E0%B8%99%E0%B8%B4%E0%B8%81-2033685793416872/","052 005 225",18.8127048,99.0113038,"Y","Y","Y","Y","N"
640,"ทอฝัน คลินิก","Thorfun Clinic","ทอฝัน คลินิก","N","N","N","เชียงใหม่","เมืองเชียงใหม่","","https://www.facebook.com/thorfunclinic/","082 168 9696",18.7745815,98.9767952,"N","N","Y","Y","N"
641,"เอเพ็กซ์ เมดิคอล เซ็นเตอร์ เพลินจิต","Apex Medical Center Ploenchit","เอเพ็กซ์ เมดิคอล เซ็นเตอร์ เพลินจิต","N","N","N","กรุงเทพมหานคร","เขตคลองเตย","http://www.apexprofoundbeauty.com/","https://web.facebook.com/ApexProfoundBeauty","02-254-0239/080 500",13.7406505,100.5511344,"Y","Y","Y","N","Y"
642,"เอเพ็กซ์ เมดิคอล เซ็นเตอร์ เซ็นทรัล บางนา","Apex Medical Center Central Bangna","เอเพ็กซ์ เมดิคอล เซ็นเตอร์ เซ็นทรัล บางนา","N","N","N","กรุงเทพมหานคร","เขตบางนา","http://www.apexprofoundbeauty.com/","https://web.facebook.com/ApexProfoundBeauty","02 745 6801/082 700",13.6698719,100.6345591,"Y","Y","Y","Y","Y"
644,"เอเพ็กซ์ เมดิคอล เซ็นเตอร์ เซ็นทรัล พระราม 2","Apex Medical Center Central Rama 2","เอเพ็กซ์ เมดิคอล เซ็นเตอร์ เซ็นทรัล พระราม 2","N","N","N","กรุงเทพมหานคร","เขตบางขุนเทียน","http://www.apexprofoundbeauty.com/","https://web.facebook.com/ApexProfoundBeauty","02 054 5473﻿/099 080",13.66395,100.43839,"Y","Y","Y","N","Y"
645,"เอเพ็กซ์ เมดิคอล เซ็นเตอร์ ซีคอนสแควร์","Apex Medical Center Seacon Square","เอเพ็กซ์ เมดิคอล เซ็นเตอร์ ซีคอนสแควร์","N","N","N","กรุงเทพมหานคร","เขตประเวศ","http://www.apexprofoundbeauty.com/","https://web.facebook.com/ApexProfoundBeauty","02 053 6033/099 060",13.6933696,100.648263,"Y","Y","Y","N","Y"
646,"เอเพ็กซ์ เมดิคอล เซ็นเตอร์ คริสตัลพาร์ค","Apex Medical Center Cystal Park","เอเพ็กซ์ เมดิคอล เซ็นเตอร์ คริสตัลพาร์ค","N","N","N","กรุงเทพมหานคร","เขตลาดพร้าว","http://www.apexprofoundbeauty.com/","https://web.facebook.com/ApexProfoundBeauty","02 515 0950/087 700",13.811351,100.61936,"Y","Y","Y","N","Y"
647,"เอเพ็กซ์ เมดิคอล เซ็นเตอร์ เซ็นทรัล ลาดพร้าว","Apex Medical Center Central Ladprao","เอเพ็กซ์ เมดิคอล เซ็นเตอร์ เซ็นทรัล ลาดพร้าว","N","N","N","กรุงเทพมหานคร","เขตจตุจักร","http://www.apexprofoundbeauty.com/","https://web.facebook.com/ApexProfoundBeauty","02 937 1588/085 700",13.816207,100.560929,"Y","Y","Y","N","Y"
648,"เอเพ็กซ์ เมดิคอล เซ็นเตอร์ เซ็นทรัล พลาซ่าปิ่นเกล้า ชั้น 3 โซนพลาซ่า","Apex Medical Center Central Pinklao (3rd FL)","เอเพ็กซ์ เมดิคอล เซ็นเตอร์ เซ็นทรัล พลาซ่าปิ่นเกล้า ชั้น 3 โซนพลาซ่า","N","N","N","กรุงเทพมหานคร","เขตบางกอกน้อย","http://www.apexprofoundbeauty.com/","https://web.facebook.com/ApexProfoundBeauty","02 884 5912/082 700",13.77343,100.480723,"Y","Y","Y","N","Y"
649,"เอเพ็กซ์ เมดิคอล เซ็นเตอร์ เซ็นทรัล พลาซ่าปิ่นเกล้า ชั้น 11","Apex Medical Center Central Pinklao (11th FL)","เอเพ็กซ์ เมดิคอล เซ็นเตอร์ เซ็นทรัล พลาซ่าปิ่นเกล้า ชั้น 11","N","N","N","กรุงเทพมหานคร","เขตบางกอกน้อย","http://www.apexprofoundbeauty.com/","https://web.facebook.com/ApexProfoundBeauty","02 884 9892/082 700",13.77343,100.480723,"Y","Y","Y","N","Y"
650,"เอเพ็กซ์ เมดิคอล เซ็นเตอร์ พัทยา","Apex Medical Center Pattaya","เอเพ็กซ์ เมดิคอล เซ็นเตอร์ พัทยา","N","N","N","ชลบุรี","บางละมุง","http://www.apexprofoundbeauty.com/","https://web.facebook.com/ApexProfoundBeauty","033 672 688/087 096",12.935573699999999,100.8960294,"Y","Y","Y","N","Y"
651,"เอเพ็กซ์ เมดิคอล เซ็นเตอร์ จังซีลอน","Apex Medical Center Jungceylon","เอเพ็กซ์ เมดิคอล เซ็นเตอร์ จังซีลอน","N","N","N","ภูเก็ต","กะทู้","http://www.apexprofoundbeauty.com/","https://web.facebook.com/ApexProfoundBeauty","076 600 182/086 341",7.8924921,98.2987929,"Y","Y","Y","N","Y"
652,"เอเพ็กซ์ เมดิคอล เซ็นเตอร์ ดิเอ็มโพเรียม","Apex Medical Center Emporium","เอเพ็กซ์ เมดิคอล เซ็นเตอร์ ดิเอ็มโพเรียม","N","N","N","กรุงเทพมหานคร","เขตคลองเตย","http://www.apexprofoundbeauty.com/","https://web.facebook.com/ApexProfoundBeauty","02 664 8614/085 700",13.729955,100.5684179,"Y","Y","Y","N","Y"
653,"เอเพ็กซ์ เมดิคอล เซ็นเตอร์ ฟิวเจอร์ปาร์ค รังสิต","Apex Medical Center Future Park Rangsit","เอเพ็กซ์ เมดิคอล เซ็นเตอร์ ฟิวเจอร์ปาร์ค รังสิต","N","N","N","ปทุมธานี","ธัญบุรี","http://www.apexprofoundbeauty.com/","https://web.facebook.com/ApexProfoundBeauty","02 958 0447/082 700",13.9878917,100.6188066,"Y","Y","Y","Y","Y"
654,"เอเพ็กซ์ เมดิคอล เซ็นเตอร์ สยามพารากอน","Apex Medical Center Siam Paragon","เอเพ็กซ์ เมดิคอล เซ็นเตอร์ สยามพารากอน","N","N","N","กรุงเทพมหานคร","เขตปทุมวัน","http://www.apexprofoundbeauty.com/","https://web.facebook.com/ApexProfoundBeauty","02 610 9491/085 700",13.748531,100.5367519,"Y","Y","Y","N","Y"
655,"เอเพ็กซ์ เมดิคอล เซ็นเตอร์ คริสตัล ราชพฤกษ์","Apex Medical Center The Cystal Ratchapruek","เอเพ็กซ์ เมดิคอล เซ็นเตอร์ คริสตัล ราชพฤกษ์","N","N","N","นนทบุรี","บางกรวย","http://www.apexprofoundbeauty.com/","https://web.facebook.com/ApexProfoundBeauty","02 102 3513/088 870",13.7581515,100.4449195,"Y","Y","Y","N","Y"
656,"เอเพ็กซ์ เมดิคอล เซ็นเตอร์ รามอินทรา","Apex Medical Center Ramintra","เอเพ็กซ์ เมดิคอล เซ็นเตอร์ รามอินทรา","N","N","N","กรุงเทพมหานคร","เขตคันนายาว","http://www.apexprofoundbeauty.com/","https://web.facebook.com/ApexProfoundBeauty","02 136 7155/085 700",13.8288064,100.6776593,"Y","Y","Y","N","Y"
657,"เอเพ็กซ์ เมดิคอล เซ็นเตอร์ ภูเก็ต","Apex Medical Center Phuket","เอเพ็กซ์ เมดิคอล เซ็นเตอร์ ภูเก็ต","N","N","N","ภูเก็ต","เมืองภูเก็ต","http://www.apexprofoundbeauty.com/","https://web.facebook.com/ApexProfoundBeauty","076 684 080/088 870",7.9266857,98.3721981,"Y","Y","Y","N","Y"
658,"เอเพ็กซ์ เมดิคอล เซ็นเตอร์ ทองหล่อ ซอย 8","Apex Medical Center Thonglor 8","เอเพ็กซ์ เมดิคอล เซ็นเตอร์ ทองหล่อ ซอย 8","N","N","N","กรุงเทพมหานคร","เขตวัฒนา","http://www.apexprofoundbeauty.com/","https://web.facebook.com/ApexProfoundBeauty","02 713 8445/080 500",13.730865,100.582628,"Y","Y","Y","N","Y"
659,"เอเพ็กซ์ เมดิคอล เซ็นเตอร์ เซ็นทรัล โคราช","Apex Medical Center Central Korat","เอเพ็กซ์ เมดิคอล เซ็นเตอร์ เซ็นทรัล โคราช","N","N","N","นครราชสีมา","เมืองนครราชสีมา","http://www.apexprofoundbeauty.com/","https://web.facebook.com/ApexProfoundBeauty","044 229 538/088 870",14.9967856,102.1164694,"Y","Y","Y","N","Y"
660,"เมโกะคลินิก จตุจักร","Meko Clinic Chatuchak","เมโกะคลินิก จตุจักร","N","N","N","กรุงเทพมหานคร","เขตจตุจักร","http://www.mekoclinic.com","https://www.facebook.com/mekobeauty/","02 272 0022/091 119",13.8072425,100.5567452,"N","N","Y","N","Y"
661,"เมโกะคลินิก เซ็นทรัลเวิล์ด","Meko Clinic Central World","เมโกะคลินิก เซ็นทรัลเวิล์ด","N","N","N","กรุงเทพมหานคร","เขตปทุมวัน","http://www.mekoclinic.com","https://www.facebook.com/mekobeauty/","02 658 6511/091 119",13.7473463,100.5395495,"N","N","Y","N","Y"
662,"เมโกะคลินิก ฟิวเจอร์พาร์ค รังสิต","Meko Clinic Future Park Rangsit","เมโกะคลินิก ฟิวเจอร์พาร์ค รังสิต","N","N","N","ปทุมธานี","ธัญบุรี","http://www.mekoclinic.com","https://www.facebook.com/mekobeauty/","02 958 0709/091 119",13.9888353,100.6183981,"N","N","Y","N","Y"
663,"เมโกะคลินิก ทองหล่อ","Meko Clinic Thonglor","เมโกะคลินิก ทองหล่อ","N","N","N","กรุงเทพมหานคร","เขตคลองเตย","http://www.mekoclinic.com","https://www.facebook.com/mekobeauty/","02 101 3881/062 709",13.7274865,100.5805112,"N","N","Y","N","Y"
664,"เมโกะคลินิก เซ็นทรัล ปิ่นเกล้า","Meko Clinic Central Pinklao","เมโกะคลินิก เซ็นทรัล ปิ่นเกล้า","N","N","N","กรุงเทพมหานคร","เขตบางกอกน้อย","http://www.mekoclinic.com","https://www.facebook.com/mekobeauty/","02 884 5371/099 497",13.778037,100.475653,"N","N","Y","N","Y"
665,"เมโกะคลินิก พระราม 2","Meko Clinic Rama 2","เมโกะคลินิก พระราม 2","N","N","N","กรุงเทพมหานคร","เขตจอมทอง","http://www.mekoclinic.com","https://www.facebook.com/mekobeauty/","02 872 4132 9 ต่อ 32",13.6801669,100.4688724,"N","N","Y","N","Y"
666,"พฤกษาคลินิก อารีย์","Pruksa Clinic Ari","พฤกษาคลินิก อารีย์","N","N","N","กรุงเทพมหานคร","เขตพญาไท","http://www.pruksaclinic.com","https://www.facebook.com/pruksaclinic/","02 270 0545/086 342",13.782058,100.543881,"N","N","Y","Y","Y"
667,"พฤกษาคลินิก เซ็นทรัลพระราม2","Pruksa Clinic Central Rama 2","พฤกษาคลินิก เซ็นทรัลพระราม2","N","N","N","กรุงเทพมหานคร","เขตบางขุนเทียน","http://www.pruksaclinic.com","https://www.facebook.com/pruksaclinic/","02 895 7192 3/081 58",13.662334,100.437607,"N","N","Y","Y","Y"
668,"พฤกษาคลินิก ฟิวเจอร์พาร์ครังสิต","Pruksa Clinic Future Park Rangsit","พฤกษาคลินิก ฟิวเจอร์พาร์ครังสิต","N","N","N","ปทุมธานี","ธัญบุรี","http://www.pruksaclinic.com","https://www.facebook.com/pruksaclinic/","02 958 5536/081 550",13.988697,100.61807,"N","N","Y","Y","Y"
669,"พฤกษาคลินิก โลตัสวัชรพล","Pruksa Clinic Lotus Vacharaphol","พฤกษาคลินิก โลตัสวัชรพล","N","N","N","กรุงเทพมหานคร","เขตบางเขน","http://www.pruksaclinic.com","https://www.facebook.com/pruksaclinic/","02 945 5951 2/087 68",13.854226,100.640795,"N","N","Y","Y","Y"
670,"พฤกษาคลินิก โลตัสพระราม4","Pruksa Clinic Lotus Rama 4","พฤกษาคลินิก โลตัสพระราม4","N","N","N","กรุงเทพมหานคร","เขตคลองเตย","http://www.pruksaclinic.com","https://www.facebook.com/pruksaclinic/","02 671 4647/083 887",13.717029,100.568364,"N","N","Y","Y","Y"
671,"พฤกษาคลินิก เมกาบางนา","Pruksa Clinic Mega Bangna","พฤกษาคลินิก เมกาบางนา","N","N","N","สมุทรปราการ","บางพลี","http://www.pruksaclinic.com","https://www.facebook.com/pruksaclinic/","02 105 1512/084 682",13.6479189,100.6814759,"N","N","Y","Y","Y"
672,"พฤกษาคลินิก เมืองทองธานี","Pruksa Clinic Muang Thong Thani","พฤกษาคลินิก เมืองทองธานี","N","N","N","นนทบุรี","ปากเกร็ด","http://www.pruksaclinic.com","https://www.facebook.com/pruksaclinic/","02 982 9104/087 689",13.903198100000001,100.5374917,"N","N","Y","Y","Y"
673,"พฤกษาคลินิก พฤกษาไพร์ม นวมินทร์ซิตี้อเวนิว","Pruksa Clinic Pruksa Prime Nawamin City Avenue","พฤกษาคลินิก พฤกษาไพร์ม นวมินทร์ซิตี้อเวนิว","N","N","N","กรุงเทพมหานคร","เขตลาดพร้าว","http://www.pruksaclinic.com","https://www.facebook.com/pruksaclinic/","086 900 3663",13.833912699999999,100.6106045,"N","N","Y","Y","Y"
674,"พฤกษาคลินิก พลัสมอลล์ บางใหญ่","Pruksa Clinic Plus Mall Bangyai","พฤกษาคลินิก พลัสมอลล์ บางใหญ่","N","N","N","นนทบุรี","บางกรวย","http://www.pruksaclinic.com","https://www.facebook.com/pruksaclinic/","02 832 5042/085 910",13.8237264,100.4107914,"N","N","Y","Y","Y"
675,"พฤกษาคลินิก พอร์โตชิโน สมุทรสาคร","Pruksa Clinic Porto Chino Samut Sakhon","พฤกษาคลินิก พอร์โตชิโน สมุทรสาคร","N","N","N","สมุทรสาคร","เมืองสมุทรสาคร","http://www.pruksaclinic.com","https://www.facebook.com/pruksaclinic/","034 110 720 1/088 89",13.566777,100.285627,"N","N","Y","Y","Y"
676,"พฤกษาคลินิก บิ๊กซีเอ็กซ์ตร้า รัชดาภิเษก","Pruksa Clinic Big C Extra Ratchadapisek","พฤกษาคลินิก บิ๊กซีเอ็กซ์ตร้า รัชดาภิเษก","N","N","N","กรุงเทพมหานคร","เขตดินแดง","http://www.pruksaclinic.com","https://www.facebook.com/pruksaclinic/","02 245 5398 99/081 6",13.7693195,100.5712267,"N","N","Y","Y","Y"
677,"พฤกษาคลินิก ซีคอนสแควร์","Pruksa Clinic Seacon Square","พฤกษาคลินิก ซีคอนสแควร์","N","N","N","กรุงเทพมหานคร","เขตประเวศ","http://www.pruksaclinic.com","https://www.facebook.com/pruksaclinic/","02 720 1768/081 583",13.694306,100.648144,"N","N","Y","Y","Y"
678,"พฤกษาคลินิก สยามเซ็นเตอร์","Pruksa Clinic Siam Center","พฤกษาคลินิก สยามเซ็นเตอร์","N","N","N","กรุงเทพมหานคร","เขตปทุมวัน","http://www.pruksaclinic.com","https://www.facebook.com/pruksaclinic/","02 658 1714/081 550",13.7463728,100.5332946,"N","N","Y","Y","Y"
679,"พฤกษาคลินิก สีลมคอมเพล็กซ์","Pruksa Clinic Silom Complex","พฤกษาคลินิก สีลมคอมเพล็กซ์","N","N","N","กรุงเทพมหานคร","เขตบางรัก","http://www.pruksaclinic.com","https://www.facebook.com/pruksaclinic/","02 231 3359/081 618",13.72817,100.534944,"N","N","Y","Y","Y"
680,"พฤกษาคลินิก สุขุมวิท 39","Pruksa Clinic Sukhumvit 39","พฤกษาคลินิก สุขุมวิท 39","N","N","N","กรุงเทพมหานคร","เขตวัฒนา","http://www.pruksaclinic.com","https://www.facebook.com/pruksaclinic/","02 259 2972/085 914",13.7366337,100.5743848,"N","N","Y","Y","Y"
681,"พฤกษาคลินิก เดอะมอลล์งามวงศ์วาน","Pruksa Clinic The Mall Ngamwongwan","พฤกษาคลินิก เดอะมอลล์งามวงศ์วาน","N","N","N","นนทบุรี","เมืองนนทบุรี","http://www.pruksaclinic.com","https://www.facebook.com/pruksaclinic/","02 550 0710/086 900",13.8558073,100.5420721,"N","N","Y","Y","Y"
682,"พฤกษาคลินิก เดอะไนน์ พระราม 9","Pruksa Clinic The Nine Rama 9","พฤกษาคลินิก เดอะไนน์ พระราม 9","N","N","N","กรุงเทพมหานคร","เขตสวนหลวง","http://www.pruksaclinic.com","https://www.facebook.com/pruksaclinic/","02 056 7861/082 328",13.741141,100.625565,"N","N","Y","Y","Y"
683,"พฤกษาคลินิก เดอะซีน ทาวน์อินทาวน์","Pruksa Clinic The Scene Town in Town","พฤกษาคลินิก เดอะซีน ทาวน์อินทาวน์","N","N","N","กรุงเทพมหานคร","เขตวังทองหลาง","http://www.pruksaclinic.com","https://www.facebook.com/pruksaclinic/","02 108 5894/084 671",13.772839,100.609858,"N","N","Y","Y","Y"
684,"พฤกษาคลินิก เดอะวอล์ค ราชพฤกษ์","Pruksa Clinic The Walk Ratchaphruek","พฤกษาคลินิก เดอะวอล์ค ราชพฤกษ์","N","N","N","นนทบุรี","บางกรวย","http://www.pruksaclinic.com","https://www.facebook.com/pruksaclinic/","02 489 6946 7/086 34",13.8204917,100.4502383,"N","N","Y","Y","Y"
685,"พฤกษาคลินิก ไพร์ม ไอคอนสยาม","Pruksa Clinic Prime Icon Siam","พฤกษาคลินิก ไพร์ม ไอคอนสยาม","N","N","N","กรุงเทพมหานคร","เขตคลองสาน","http://www.pruksaclinic.com","https://www.facebook.com/pruksaclinic/","092 620 4222/02 288",13.726855,100.5095799,"N","N","Y","Y","Y"
686,"รมย์รวินท์ คลินิก นางลิ้นจี่","Romrawin  Aesthetic Clinic Nang Linchi","รมย์รวินท์ คลินิก นางลิ้นจี่","N","N","N","กรุงเทพมหานคร","เขตยานนาวา","http://www.romrawin.com","https://www.facebook.com/RomrawinClinic/","02 678 2947",13.7065984,100.5440389,"Y","Y","Y","Y","Y"
687,"รมย์รวินท์ คลินิก เอ็มควอเทียร์","Romrawin  Aesthetic Clinic EmQuartier","รมย์รวินท์ คลินิก เอ็มควอเทียร์","N","N","N","กรุงเทพมหานคร","เขตวัฒนา","http://www.romrawin.com","https://www.facebook.com/RomrawinClinic/","02 003 6181",13.7316632,100.5695922,"Y","Y","Y","Y","Y"
688,"รมย์รวินท์ คลินิก เซ็นทรัล เวสต์เกต","Romrawin  Aesthetic Clinic Central Westgate","รมย์รวินท์ คลินิก เซ็นทรัล เวสต์เกต","N","N","N","นนทบุรี","บางใหญ่","http://www.romrawin.com","https://www.facebook.com/RomrawinClinic/","02 019 2200",13.877297800000001,100.4114989,"Y","Y","Y","Y","Y"
689,"รมย์รวินท์ คลินิก เซ็นทรัล อีสวิวล์","Romrawin  Aesthetic Clinic Central EastVille","รมย์รวินท์ คลินิก เซ็นทรัล อีสวิวล์","N","N","N","กรุงเทพมหานคร","เขตลาดพร้าว","http://www.romrawin.com","https://www.facebook.com/RomrawinClinic/","02 041 5500",13.8033507,100.6141593,"Y","Y","Y","Y","Y"
690,"รมย์รวินท์ คลินิก พรอมานาด","Romrawin  Aesthetic Clinic Promenade","รมย์รวินท์ คลินิก พรอมานาด","N","N","N","กรุงเทพมหานคร","เขตคันนายาว","http://www.romrawin.com","https://www.facebook.com/RomrawinClinic/","02 947 6341",13.8257812,100.6795523,"Y","Y","Y","Y","Y"
691,"รมย์รวินท์ คลินิก สีลมคอมเพล็กซ์","Romrawin  Aesthetic Clinic Silom Complex","รมย์รวินท์ คลินิก สีลมคอมเพล็กซ์","N","N","N","กรุงเทพมหานคร","เขตบางรัก","http://www.romrawin.com","https://www.facebook.com/RomrawinClinic/","02 266 2670",13.728156,100.534684,"Y","Y","Y","Y","Y"
692,"รมย์รวินท์ คลินิก ฟิวเจอร์ปาร์ค รังสิต","Romrawin  Aesthetic Clinic Future Park Rangsit","รมย์รวินท์ คลินิก ฟิวเจอร์ปาร์ค รังสิต","N","N","N","ปทุมธานี","ธัญบุรี","http://www.romrawin.com","https://www.facebook.com/RomrawinClinic/","02 958 0781",13.9879808,100.6182356,"Y","Y","Y","Y","Y"
693,"รมย์รวินท์ คลินิก เดอะมอลล์ งามวงศ์วาน","Romrawin  Aesthetic Clinic The Mall Ngamwongwan","รมย์รวินท์ คลินิก เดอะมอลล์ งามวงศ์วาน","N","N","N","นนทบุรี","เมืองนนทบุรี","http://www.romrawin.com","https://www.facebook.com/RomrawinClinic/","02 550 1291",13.8552116,100.542377,"Y","Y","Y","Y","Y"
694,"รมย์รวินท์ คลินิก เดอะมอลล์ บางกะปิ","Romrawin  Aesthetic Clinic The Mall Bangkapi","รมย์รวินท์ คลินิก เดอะมอลล์ บางกะปิ","N","N","N","กรุงเทพมหานคร","เขตบางกะปิ","http://www.romrawin.com","https://www.facebook.com/RomrawinClinic/","02 704 9433",13.7654946,100.6419607,"Y","Y","Y","Y","Y"
695,"รมย์รวินท์ คลินิก สยามพารากอน สกิน","Romrawin  Aesthetic Clinic Siam Paragon Skin","รมย์รวินท์ คลินิก สยามพารากอน สกิน","N","N","N","กรุงเทพมหานคร","เขตปทุมวัน","http://www.romrawin.com","https://www.facebook.com/RomrawinClinic/","02 610 9855",13.7477226,100.5345666,"Y","Y","Y","Y","Y"
696,"รมย์รวินท์ คลินิก สยามพารากอน บอดี้","Romrawin  Aesthetic Clinic Siam Paragon Body","รมย์รวินท์ คลินิก สยามพารากอน บอดี้","N","N","N","กรุงเทพมหานคร","เขตปทุมวัน","http://www.romrawin.com","https://www.facebook.com/RomrawinClinic/","",13.7477226,100.5345666,"Y","Y","Y","Y","Y"
697,"รมย์รวินท์ คลินิก จังซีลอน ภูเก็ต","Romrawin  Aesthetic Clinic Jungceylon Phuket","รมย์รวินท์ คลินิก จังซีลอน ภูเก็ต","N","N","N","ภูเก็ต","กะทู้","http://www.romrawin.com","https://www.facebook.com/RomrawinClinic/","076 600 148",7.8924579999999995,98.298627,"Y","Y","Y","Y","Y"
698,"รมย์รวินท์ คลินิก เซ็นทรัล เชียงใหม่","Romrawin  Aesthetic Clinic Central Chiangmai","รมย์รวินท์ คลินิก เซ็นทรัล เชียงใหม่","N","N","N","เชียงใหม่","เมืองเชียงใหม่","http://www.romrawin.com","https://www.facebook.com/RomrawinClinic/","053 288 804",18.8073602,99.0180566,"Y","Y","Y","Y","Y"
699,"รมย์รวินท์ คลินิก เซ็นทรัล ขอนแก่น","Romrawin  Aesthetic Clinic Central Khonkaen","รมย์รวินท์ คลินิก เซ็นทรัล ขอนแก่น","N","N","N","ขอนแก่น","เมืองขอนแก่น","http://www.romrawin.com","https://www.facebook.com/RomrawinClinic/","043 001 877",16.4324483,102.8257931,"Y","Y","Y","Y","Y"
700,"รมย์รวินท์ คลินิก เซ็นทรัล พัทยา","Romrawin  Aesthetic Clinic Central Pattaya","รมย์รวินท์ คลินิก เซ็นทรัล พัทยา","N","N","N","ชลบุรี","บางละมุง","http://www.romrawin.com","https://www.facebook.com/RomrawinClinic/","033 003 545",12.9348794,100.8831895,"Y","Y","Y","Y","Y"
701,"รมย์รวินท์ คลินิก เซ็นทรัล แจ้งวัฒนะ","Romrawin  Aesthetic Clinic Central Chaengwattana","รมย์รวินท์ คลินิก เซ็นทรัล แจ้งวัฒนะ","N","N","N","นนทบุรี","ปากเกร็ด","http://www.romrawin.com","https://www.facebook.com/RomrawinClinic/","02 101 0700",13.90343,100.528378,"Y","Y","Y","Y","Y"
702,"รมย์รวินท์ คลินิก เซ็นทรัล บางนา","Romrawin  Aesthetic Clinic Central Bangna","รมย์รวินท์ คลินิก เซ็นทรัล บางนา","N","N","N","กรุงเทพมหานคร","เขตบางนา","http://www.romrawin.com","https://www.facebook.com/RomrawinClinic/","02 745 7231",13.6697869,100.6341672,"Y","Y","Y","Y","Y"
703,"รมย์รวินท์ คลินิก เซ็นทรัล ปิ่นเกล้า","Romrawin  Aesthetic Clinic Central Pinklao","รมย์รวินท์ คลินิก เซ็นทรัล ปิ่นเกล้า","N","N","N","กรุงเทพมหานคร","เขตบางกอกน้อย","http://www.romrawin.com","https://www.facebook.com/RomrawinClinic/","02 884 5921",13.7783469,100.4757139,"Y","Y","Y","Y","Y"
704,"รมย์รวินท์ คลินิก เซ็นทรัล พระราม 2","Romrawin  Aesthetic Clinic Central Rama 2","รมย์รวินท์ คลินิก เซ็นทรัล พระราม 2","N","N","N","กรุงเทพมหานคร","เขตบางขุนเทียน","http://www.romrawin.com","https://www.facebook.com/RomrawinClinic/","02 872 4741",13.6639286,100.4379416,"Y","Y","Y","Y","Y"
705,"รมย์รวินท์ คลินิก เซ็นทรัล ลาดพร้าว","Romrawin  Aesthetic Clinic Central Ladprao","รมย์รวินท์ คลินิก เซ็นทรัล ลาดพร้าว","N","N","N","กรุงเทพมหานคร","เขตจตุจักร","http://www.romrawin.com","https://www.facebook.com/RomrawinClinic/","02 937 1500",13.816384,100.5607722,"Y","Y","Y","Y","Y"
706,"รมย์รวินท์ คลินิก เซ็นทรัล ชิดลม","Romrawin  Aesthetic Clinic Central Chidlom","รมย์รวินท์ คลินิก เซ็นทรัล ชิดลม","N","N","N","กรุงเทพมหานคร","เขตปทุมวัน","http://www.romrawin.com","https://www.facebook.com/RomrawinClinic/","02 655 3342",13.7442419,100.5443831,"Y","Y","Y","Y","Y"
707,"รมย์รวินท์ คลินิก เซ็นทรัล พระราม 9","Romrawin  Aesthetic Clinic Central Rama 9","รมย์รวินท์ คลินิก เซ็นทรัล พระราม 9","N","N","N","กรุงเทพมหานคร","เขตห้วยขวาง","http://www.romrawin.com","https://www.facebook.com/RomrawinClinic/","02 103 4600",13.7585905,100.5662549,"Y","Y","Y","Y","Y"
708,"รมย์รวินท์ คลินิก เซ็นทรัล ศาลายา","Romrawin  Aesthetic Clinic Central Salaya","รมย์รวินท์ คลินิก เซ็นทรัล ศาลายา","N","N","N","นครปฐม","สามพราน","http://www.romrawin.com","https://www.facebook.com/RomrawinClinic/","02 429 6922",13.7871482,100.2759116,"Y","Y","Y","Y","Y"
710,"สยามเลเซอร์คลินิก ทองหล่อ","Siam Laser Clinic (SLC) Thonglor","สยามเลเซอร์คลินิก ทองหล่อ","N","N","N","กรุงเทพมหานคร","เขตวัฒนา","http://www.slcclinic.com/en","https://www.facebook.com/SLCclinic/","02 381 0383",13.73841,100.584259,"Y","Y","Y","N","Y"
711,"สยามเลเซอร์คลินิก พาราไดซ์ พาร์ค","Siam Laser Clinic (SLC) Paradise Park","สยามเลเซอร์คลินิก พาราไดซ์ พาร์ค","N","N","N","กรุงเทพมหานคร","เขตประเวศ","http://www.slcclinic.com/en","https://www.facebook.com/SLCclinic/","02 780 2104 05",13.6873704,100.6472378,"Y","Y","Y","N","Y"
712,"สยามเลเซอร์คลินิก ฟิวเจอร์พาร์ค รังสิต","Siam Laser Clinic (SLC) Future Park Rangsit","สยามเลเซอร์คลินิก ฟิวเจอร์พาร์ค รังสิต","N","N","N","ปทุมธานี","ธัญบุรี","http://www.slcclinic.com/en","https://www.facebook.com/SLCclinic/","02 958 5703",13.9892196,100.6176675,"Y","Y","Y","N","Y"
713,"สยามเลเซอร์คลินิก สยามพารากอน","Siam Laser Clinic (SLC) Siam Paragon","สยามเลเซอร์คลินิก สยามพารากอน","N","N","N","กรุงเทพมหานคร","เขตปทุมวัน","http://www.slcclinic.com/en","https://www.facebook.com/SLCclinic/","02 129 4687 89",13.7464816,100.5353938,"Y","Y","Y","N","Y"
714,"สยามเลเซอร์คลินิก สยามสแควร์วัน","Siam Laser Clinic (SLC) Siam Square One","สยามเลเซอร์คลินิก สยามสแควร์วัน","N","N","N","กรุงเทพมหานคร","เขตปทุมวัน","http://www.slcclinic.com/en","https://www.facebook.com/SLCclinic/","02 001 3530",13.745249,100.534667,"Y","Y","Y","N","Y"
715,"สยามเลเซอร์คลินิก เซ็นทรัลชิดลม","Siam Laser Clinic (SLC) Central Chidlom","สยามเลเซอร์คลินิก เซ็นทรัลชิดลม","N","N","N","กรุงเทพมหานคร","เขตปทุมวัน","http://www.slcclinic.com/en","https://www.facebook.com/SLCclinic/","02 655 0995",13.744721,100.545253,"Y","Y","Y","N","Y"
716,"สยามเลเซอร์คลินิก เซ็นทรัลพลาซา บางนา","Siam Laser Clinic (SLC) Central Bangna","สยามเลเซอร์คลินิก เซ็นทรัลพลาซา บางนา","N","N","N","กรุงเทพมหานคร","เขตบางนา","http://www.slcclinic.com/en","https://www.facebook.com/SLCclinic/","02 745 6565",13.6702987,100.6148742,"Y","Y","Y","N","Y"
717,"สยามเลเซอร์คลินิก เซ็นทรัลพลาซา ปิ่นเกล้า","Siam Laser Clinic (SLC) Central Pinklao","สยามเลเซอร์คลินิก เซ็นทรัลพลาซา ปิ่นเกล้า","N","N","N","กรุงเทพมหานคร","เขตบางกอกน้อย","http://www.slcclinic.com/en","https://www.facebook.com/SLCclinic/","02 884 8610",13.778297,100.475886,"Y","Y","Y","N","Y"
718,"สยามเลเซอร์คลินิก เซ็นทรัลพลาซา พระราม 2","Siam Laser Clinic (SLC) Central Rama 2","สยามเลเซอร์คลินิก เซ็นทรัลพลาซา พระราม 2","N","N","N","กรุงเทพมหานคร","เขตบางขุนเทียน","http://www.slcclinic.com/en","https://www.facebook.com/SLCclinic/","02 800 4488",13.6527076,100.4272505,"Y","Y","Y","N","Y"
719,"สยามเลเซอร์คลินิก เซ็นทรัล ลาดพร้าว","Siam Laser Clinic (SLC) Central Ladprao","สยามเลเซอร์คลินิก เซ็นทรัล ลาดพร้าว","N","N","N","กรุงเทพมหานคร","เขตจตุจักร","http://www.slcclinic.com/en","https://www.facebook.com/SLCclinic/","02 937 0341",13.8163933,100.5607799,"Y","Y","Y","N","Y"
720,"สยามเลเซอร์คลินิก เซ็นทรัล เวสต์เกส","Siam Laser Clinic (SLC) Central Westgate","สยามเลเซอร์คลินิก เซ็นทรัล เวสต์เกส","N","N","N","นนทบุรี","บางใหญ่","http://www.slcclinic.com/en","https://www.facebook.com/SLCclinic/","02 194 2742",13.877146,100.411986,"Y","Y","Y","N","Y"
721,"สยามเลเซอร์คลินิก เซ็นทรัล พระราม 9","Siam Laser Clinic (SLC) Central Rama 9","สยามเลเซอร์คลินิก เซ็นทรัล พระราม 9","N","N","N","กรุงเทพมหานคร","เขตห้วยขวาง","http://www.slcclinic.com/en","https://www.facebook.com/SLCclinic/","02 108 3177",13.75916,100.566477,"Y","Y","Y","N","Y"
722,"สยามเลเซอร์คลินิก เซ็นทรัลเฟสติวัล อีสต์วิลล์","Siam Laser Clinic (SLC) Central EastVille","สยามเลเซอร์คลินิก เซ็นทรัลเฟสติวัล อีสต์วิลล์","N","N","N","กรุงเทพมหานคร","เขตลาดพร้าว","http://www.slcclinic.com/en","https://www.facebook.com/SLCclinic/","02 553 6120",13.8026409,100.6153809,"Y","Y","Y","N","Y"
726,"เดอะ ทัช คลินิก เดอะมอลล์บางแค ชั้น 7","The Touch Clinic The Mall Bangkae 7th Floor","เดอะ ทัช คลินิก เดอะมอลล์บางแค ชั้น 7","N","N","N","กรุงเทพมหานคร","เขตบางแค","http://www.thetouchbkk.com/","https://www.facebook.com/thetouchbkk/","02 454 0887/02 454 5",13.7125768,100.4079409,"Y","Y","Y","Y","Y"
733,"ศักติคลินิก","Sakti Clinic","ศักติคลินิก","N","N","N","กรุงเทพมหานคร","เขตดินแดง","http://www.sakticlinic.com","https://www.facebook.com/sakticlinic/","0827986424",13.7976685,100.5719708,"Y","N","N","N","N"
734,"เมดิโกลว์ คลินิก สาขา THE NINTH TOWER A","Mediglow Clinic @THE NINTH TOWER A","เมดิโกลว์ คลินิก สาขา THE NINTH TOWER A","N","N","N","กรุงเทพมหานคร","เขตห้วยขวาง","http://mediglowclinic.com/","https://www.facebook.com/mediglowclinic","063-957-1888",13.758948,100.5680521,"Y","N","Y","N","Y"
735,"เมดิโกลว์ คลินิก สาขา ทองหล่อ","Mediglow Clinic @Thonglor","เมดิโกลว์ คลินิก สาขา ทองหล่อ","N","N","N","กรุงเทพมหานคร","เขตวัฒนา","http://mediglowclinic.com/","https://www.facebook.com/mediglowclinic","063-913-5599",13.7323048,100.5829093,"Y","N","Y","N","Y"
737,"พินชนก คลินิก","Pinchanok Clinic","พินชนก คลินิก","N","N","N","ปทุมธานี","คลองหลวง","","https://www.facebook.com/pinchanokclinic/","096 980 1551",14.0145941,100.663588,"Y","N","Y","N","N"
738,"เฟซด็อกเตอร์ คลินิก","Face doctor clinic","เฟซด็อกเตอร์ คลินิก","N","N","N","ปราจีนบุรี","ศรีมหาโพธิ","","https://www.facebook.com/facedoctorclinic/?rf=375635425932665","082 224 4066",13.8954416,101.5787421,"Y","N","Y","N","N"
739,"สิริน คลินิก by หมอปลา","Sirin Clinic by หมอปลา","สิริน คลินิก by หมอปลา","N","N","N","มุกดาหาร","เมืองมุกดาหาร","","https://www.facebook.com/sirinclinicmukdahan/","0874916666",13.717949,100.702617,"N","N","Y","Y","N"
740,"มีสุข คลินิก สาขา มุกดาหาร","Meesook Clinic @Mukdahan","มีสุข คลินิก สาขา มุกดาหาร","N","N","N","มุกดาหาร","เมืองมุกดาหาร","","https://www.facebook.com/%E0%B8%A1%E0%B8%B5%E0%B8%AA%E0%B8%B8%E0%B8%82%E0%B8%84%E0%B8%A5%E0%B8%B4%E0%B8%99%E0%B8%B4%E0%B8%81-by-%E0%B8%AB%E0%B8%A1%E0%B8%AD%E0%B8%9B%E0%B8%B9-1027200020700389/","042041433",16.5446813,104.7126909,"Y","N","Y","Y","N"
741,"ด๊อกเตอร์จี คลินิก สาขา ขอนแก่น","Doctor G Clinic @Khon Kaen","ด๊อกเตอร์จี คลินิก สาขา ขอนแก่น","N","N","N","ขอนแก่น","เมืองขอนแก่น","","https://www.facebook.com/doctorgclinickk/","0910570307",16.4256819,102.8318914,"N","N","Y","Y","N"
742,"ด๊อกเตอร์จี คลินิก สาขา อุดรธานี","Doctor G Clinic @Udon Thani","ด๊อกเตอร์จี คลินิก สาขา อุดรธานี","N","N","N","อุดรธานี","เมืองอุดรธานี","","https://www.facebook.com/Doctor-G-Clinic-%E0%B8%AA%E0%B8%B2%E0%B8%82%E0%B8%B2%E0%B8%AD%E0%B8%B8%E0%B8%94%E0%B8%A3%E0%B8%98%E0%B8%B2%E0%B8%99%E0%B8%B5-%E0%B8%A8%E0%B8%B1%E0%B8%A5%E0%B8%A2%E0%B8%81%E0%B","0803206643",17.398292,102.805869,"N","N","Y","Y","N"
743,"ด๊อกเตอร์เทพ คลินิก","Doctor Tep Clinic","ด๊อกเตอร์เทพ คลินิก","N","N","N","มหาสารคาม","เมืองมหาสารคาม","","https://www.facebook.com/DoctorTepClinic/","0935243838",16.2115437,103.2813666,"N","N","Y","N","N"
744,"โดนาลา คลินิก ***เป็นคลินิกเดียวกันกับด๊อกเตอร์เทพ คลินิก","Donala clinic","โดนาลา คลินิก ***เป็นคลินิกเดียวกันกับด๊อกเตอร์เทพ คลินิก","N","N","N","มหาสารคาม","เมืองมหาสารคาม","","https://www.facebook.com/donalaclinic/",+66848286366,16.2368595,103.2605205,"N","N","Y","N","N"
745,"ด๊อกเตอร์แอน คลินิก","Doctor Ann Clinic","ด๊อกเตอร์แอน คลินิก","N","N","N","อุดรธานี","เมืองอุดรธานี","","https://www.facebook.com/Dr.AnnClinic/",+66951680654,17.4057806,102.7791334,"N","N","Y","Y","N"
746,"คริสต้า แคร์ คลินิก สาขา อุดรธานี","Cristar Care Clinic @Udon Thani","คริสต้า แคร์ คลินิก สาขา อุดรธานี","N","N","N","อุดรธานี","เมืองอุดรธานี","","https://www.facebook.com/cristarcareUD/",+66910578090,17.3995287,102.8058096,"Y","N","Y","Y","N"
747,"คลินิกหมอดาวใจ-หมอสมพงษ์ สาขา อุดรธานี","DS Clinic @ Udon Thani","คลินิกหมอดาวใจ-หมอสมพงษ์ สาขา อุดรธานี","N","N","N","อุดรธานี","เมืองอุดรธานี","http://www.dsskinclinic.com/","https://www.facebook.com/Dsclinic/","042 932 978",17.398071,102.8059029,"Y","N","Y","N","Y"
749,"คลินิกเวชกรรมนายแพทย์กรกฎ","Korakot Clinic","คลินิกเวชกรรมนายแพทย์กรกฎ","N","N","N","มหาสารคาม","เมืองมหาสารคาม","","https://www.facebook.com/%E0%B8%84%E0%B8%A5%E0%B8%B4%E0%B8%99%E0%B8%B4%E0%B8%81%E0%B9%80%E0%B8%A7%E0%B8%8A%E0%B8%81%E0%B8%A3%E0%B8%A3%E0%B8%A1-%E0%B8%99%E0%B8%B2%E0%B8%A2%E0%B9%81%E0%B8%9E%E0%B8%97%E0",+66934439292,16.2355475,103.2670004,"N","N","Y","N","N"
750,"เกวริน สกิน&เลเซอร์คลินิก","Kevarin Clinic","เกวริน สกิน&เลเซอร์คลินิก","N","N","N","ขอนแก่น","เมืองขอนแก่น","","https://www.facebook.com/kevarinclinic/",+66633437300,16.4454489,102.8199016,"N","N","Y","N","N"
751,"ดร.อรวรรณ คลินิก","Dr.Orawan Holistic Institute","ดร.อรวรรณ คลินิก","N","N","N","กรุงเทพมหานคร","เขตคลองเตย","http://www.drorawan.com","https://www.facebook.com/drorawanholistic","02 6614431",13.7276449,100.5733662,"N","N","Y","N","N"
752,"ลีเอนจาง คลินิก สาขาสยาม","Lienjang clinic @Siam","ลีเอนจาง คลินิก สาขาสยาม","N","N","N","กรุงเทพมหานคร","เขตปทุมวัน","http://www.lienjangthailand.com","https://www.facebook.com/lienjangthailand","085 8345555",13.7450759,100.5345698,"Y","Y","Y","Y","N"
753,"ลีเอนจาง คลินิก สาขาเดอะมอลล์บางกะปิ","Lienjang clinic @The Mall Bangkapi","ลีเอนจาง คลินิก สาขาเดอะมอลล์บางกะปิ","N","N","N","กรุงเทพมหานคร","เขตบางกะปิ","http://www.lienjangthailand.com","https://www.facebook.com/lienjangthailand","02 6584491",13.7657981,100.6423905,"Y","Y","Y","Y","N"
754,"ดร.จอย บิวตี้ คลินิก","Dr.Joy Beauty clinic","ดร.จอย บิวตี้ คลินิก","N","N","N","กรุงเทพมหานคร","เขตสาทร","http://www.drjoybeautyclinic.com","https://www.facebook.com/drjoybeautyclinic","088 6324645",13.7257343,100.5445945,"Y","Y","Y","Y","Y"
755,"Bangkok Anti-Aging Center","Bangkok Anti-Aging Center","Bangkok Anti-Aging Center","N","N","N","กรุงเทพมหานคร","เขตห้วยขวาง","http://www.bangkok-antiaging.com","https://www.facebook.com/bangkokantiaging","02 2772893",13.789982,100.580161,"N","N","Y","N","N"
756,"ทีโมนี่คลินิก","Tmonie Clinic","ทีโมนี่คลินิก","N","N","N","กรุงเทพมหานคร","เขตลาดพร้าว","","https://www.facebook.com/TMonieTH/","099 629 6656",13.8448961,100.6018788,"Y","Y","Y","Y","N"
757,"ไอวิชคลินิก","I Wish Clinic","ไอวิชคลินิก","N","N","N","นนทบุรี","เมืองนนทบุรี","","https://www.facebook.com/iwishclinic/","096 946 0780",13.9040223,100.5160488,"N","N","Y","N","N"
758,"เอ็กซ์ โอ คลินิก","X.O. Clinic","เอ็กซ์ โอ คลินิก","N","N","N","กรุงเทพมหานคร","เขตปทุมวัน","","https://www.facebook.com/xoclinic/","096 956 5644",13.742496,100.5491384,"N","N","Y","N","N"
760,"ลา กราซ คลินิก สาขา เซ็นทรัลแจ้งวัฒนะ","LA GRACE Elegant Beauty Clinic @Central Changwattana","ลา กราซ คลินิก สาขา เซ็นทรัลแจ้งวัฒนะ","N","N","N","นนทบุรี","ปากเกร็ด","http://www.lagraceclinic.com","https://www.facebook.com/lagracebeautyclub/","0-2101-0698 - 9/08-2",13.904133999999999,100.528387,"N","N","N","N","Y"
761,"ลา กราซ คลินิก สาขา เซ็นทรัลลาดพร้าว","LA GRACE Elegant Beauty Clinic @Central Ladprao","ลา กราซ คลินิก สาขา เซ็นทรัลลาดพร้าว","N","N","N","กรุงเทพมหานคร","เขตจตุจักร","http://www.lagraceclinic.com","https://www.facebook.com/lagracebeautyclub/","0-2937-1616/09-1556-",13.8166943,100.5588376,"N","N","N","N","Y"
762,"ลา กราซ คลินิก สาขาเซ็นทรัลพระราม 9","LA GRACE Elegant Beauty Clinic @Central Rama 9","ลา กราซ คลินิก สาขาเซ็นทรัลพระราม 9","N","N","N","กรุงเทพมหานคร","เขตห้วยขวาง","http://www.lagraceclinic.com","https://www.facebook.com/lagracebeautyclub/","02-160-3415/08-8008-",13.7585951,100.5661311,"N","N","N","N","Y"
763,"ลา กราซ คลินิก สาขา เซ็นทรัลพระราม 2","LA GRACE Elegant Beauty Clinic @Central Rama 2","ลา กราซ คลินิก สาขา เซ็นทรัลพระราม 2","N","N","N","กรุงเทพมหานคร","เขตบางขุนเทียน","http://www.lagraceclinic.com","https://www.facebook.com/lagracebeautyclub/","02-872-4366/08-2796-",13.6628559,100.4372793,"N","N","N","N","Y"
764,"ลา กราซ คลินิก สาขา เซ็นทรัลปิ่นเกล้า","LA GRACE Elegant Beauty Clinic @Central Pinklao","ลา กราซ คลินิก สาขา เซ็นทรัลปิ่นเกล้า","N","N","N","กรุงเทพมหานคร","เขตบางพลัด","http://www.lagraceclinic.com","https://www.facebook.com/lagracebeautyclub/","02-884-5770/08-8874-",13.7783807,100.4765008,"N","N","N","N","Y"
765,"ลา กราซ คลินิก สาขา เซ็นทรัลบางนา","LA GRACE Elegant Beauty Clinic @Central Bangna","ลา กราซ คลินิก สาขา เซ็นทรัลบางนา","N","N","N","กรุงเทพมหานคร","เขตบางนา","http://www.lagraceclinic.com","https://www.facebook.com/lagracebeautyclub/","02-745-7147/082-796-",13.6704022,100.6351374,"N","N","N","N","Y"
766,"ลา กราซ คลินิก สาขา เซ็นทรัลชิดลม","LA GRACE Elegant Beauty Clinic @Central Chidlom","ลา กราซ คลินิก สาขา เซ็นทรัลชิดลม","N","N","N","กรุงเทพมหานคร","เขตปทุมวัน","http://www.lagraceclinic.com","https://www.facebook.com/lagracebeautyclub/","02-655-3131/088-874-",13.744859,100.5431653,"N","N","N","N","Y"
767,"ลา กราซ คลินิก สาขา สีลมคอมเพล็กซ์","LA GRACE Elegant Beauty Clinic @Silom Complex","ลา กราซ คลินิก สาขา สีลมคอมเพล็กซ์","N","N","N","กรุงเทพมหานคร","เขตบางรัก","http://www.lagraceclinic.com","https://www.facebook.com/lagracebeautyclub/","02-231-3673/74/091-1",13.7286343,100.5350181,"N","N","N","N","Y"
768,"ลา กราซ คลินิก สาขา ฟิวเจอร์พาร์ค รังสิต","LA GRACE Elegant Beauty Clinic @Future Park Rangsit","ลา กราซ คลินิก สาขา ฟิวเจอร์พาร์ค รังสิต","N","N","N","ปทุมธานี","ธัญบุรี","http://www.lagraceclinic.com","https://www.facebook.com/lagracebeautyclub/","02-958-0532/082-796-",13.9877216,100.6183535,"N","N","N","N","Y"
770,"ผิวดี คลินิก สาขา ไอคอนสยาม","Pewdee Clinic @ICONSIAM","ผิวดี คลินิก สาขา ไอคอนสยาม","N","N","N","กรุงเทพมหานคร","เขตคลองสาน","http://www.pewdeeclinic.com","https://www.facebook.com/pewdeeclinic","0-2288-0848",13.7261868,100.5082085,"Y","N","Y","N","Y"
771,"ผิวดี คลินิก สาขา เซ็นทรัลลาดพร้าว","Pewdee Clinic @Central Ladprao","ผิวดี คลินิก สาขา เซ็นทรัลลาดพร้าว","N","N","N","กรุงเทพมหานคร","เขตจตุจักร","http://www.pewdeeclinic.com","https://www.facebook.com/pewdeeclinic","0-2937-0537-8",13.8160229,100.5602681,"Y","N","Y","N","Y"
773,"ผิวดี คลินิก สาขา เซ็นทรัลพระราม 3","Pewdee Clinic @Central Rama 3","ผิวดี คลินิก สาขา เซ็นทรัลพระราม 3","N","N","N","กรุงเทพมหานคร","เขตยานนาวา","http://www.pewdeeclinic.com","https://www.facebook.com/pewdeeclinic","0-2673-5771-2",13.697528,100.537683,"Y","N","Y","N","Y"
774,"ผิวดี คลินิก สาขา เซ็นทรัลแจ้งวัฒนะ","Pewdee Clinic @Central Chaengwattana","ผิวดี คลินิก สาขา เซ็นทรัลแจ้งวัฒนะ","N","N","N","นนทบุรี","ปากเกร็ด","http://www.pewdeeclinic.com","https://www.facebook.com/pewdeeclinic","0-2101-0434-4",13.9038874,100.5286458,"Y","N","Y","N","Y"
775,"ผิวดี คลินิก สาขา ลาดพร้าวพร้อมพันธ์","Pewdee Clinic @Ladprao Prompun Building","ผิวดี คลินิก สาขา ลาดพร้าวพร้อมพันธ์","N","N","N","กรุงเทพมหานคร","เขตจตุจักร","http://www.pewdeeclinic.com","https://www.facebook.com/pewdeeclinic","0-2513-0255",13.811387700000001,100.5647304,"Y","N","Y","N","Y"
776,"ผิวดี คลินิก สาขา พาราไดซ์ปาร์ค","Pewdee Clinic @Paradise Park","ผิวดี คลินิก สาขา พาราไดซ์ปาร์ค","N","N","N","กรุงเทพมหานคร","เขตประเวศ","http://www.pewdeeclinic.com","https://www.facebook.com/pewdeeclinic","0-2787-2364-5",13.6876927,100.6476077,"Y","N","Y","N","Y"
777,"ผิวดี คลินิก สาขา เซ็นทรัลบางนา","Pewdee Clinic @Central Bangna","ผิวดี คลินิก สาขา เซ็นทรัลบางนา","N","N","N","กรุงเทพมหานคร","เขตบางนา","http://www.pewdeeclinic.com","https://www.facebook.com/pewdeeclinic","02-553-6110",13.6699862,100.6351089,"Y","N","Y","N","Y"
778,"คลินิกหมอบิว","Doctor Bill Clinic","คลินิกหมอบิว","N","N","N","ตาก","แม่สอด","https://www.doctorbillclinic.com","https://www.facebook.com/Cwclinic/","0888142212",16.71825,98.5842591,"N","N","Y","Y","N"
779,"ของขวัญคลินิก สาขา เซ็นทรัลบางนา","Khongkwan Clinic Central Bangna","ของขวัญคลินิก สาขา เซ็นทรัลบางนา","N","N","N","กรุงเทพมหานคร","เขตบางนา","http://www.khongkwanclinic.com","https://www.facebook.com/khongkwanclinic/","02 7457353",13.6696504,100.6320475,"N","N","N","N","Y"
780,"ของขวัญคลินิก สาขา เซ็นทรัลปิ่นเกล้า ชั้น 3","Khongkwan Clinic Central Pinklao 3st Floor","ของขวัญคลินิก สาขา เซ็นทรัลปิ่นเกล้า ชั้น 3","N","N","N","กรุงเทพมหานคร","เขตบางกอกน้อย","http://www.khongkwanclinic.com","https://www.facebook.com/khongkwanclinic/","02 8848609",13.7781153,100.4766537,"N","N","N","N","Y"
781,"ของขวัญคลินิก สาขา เซ็นทรัลปิ่นเกล้า ชั้น 16","Khongkwan Clinic Central Pinklao 16th Floor","ของขวัญคลินิก สาขา เซ็นทรัลปิ่นเกล้า ชั้น 16","N","N","N","กรุงเทพมหานคร","เขตบางกอกน้อย","http://www.khongkwanclinic.com","https://www.facebook.com/khongkwanclinic/","02 8848858",13.7781153,100.4766537,"N","N","N","N","Y"
782,"ของขวัญคลินิก สาขา เอมควอเทียร์","Khongkwan Clinic Emquartier","ของขวัญคลินิก สาขา เอมควอเทียร์","N","N","N","กรุงเทพมหานคร","เขตวัฒนา","http://www.khongkwanclinic.com","https://www.facebook.com/khongkwanclinic/","02 0036199",13.7315248,100.568533,"N","N","N","N","Y"
783,"ของขวัญคลินิก สาขา เซ็นทรัลลาดพร้าว","Khongkwan Clinic Central Ladprao","ของขวัญคลินิก สาขา เซ็นทรัลลาดพร้าว","N","N","N","กรุงเทพมหานคร","เขตจตุจักร","http://www.khongkwanclinic.com","https://www.facebook.com/khongkwanclinic/","",13.8165685,100.56127,"N","N","N","N","Y"
784,"ของขวัญคลินิก สาขา ทองหล่อ","Khongkwan Clinic Thonglor","ของขวัญคลินิก สาขา ทองหล่อ","N","N","N","กรุงเทพมหานคร","เขตวัฒนา","http://www.khongkwanclinic.com","https://www.facebook.com/khongkwanclinic/","02 7129256",13.7339816,100.5801988,"N","N","N","N","Y"
785,"ของขวัญคลินิก สาขา ดิเอ็มโพเรียมชั้น 3","Khongkwan Clinic The Emporium 3st Floor","ของขวัญคลินิก สาขา ดิเอ็มโพเรียมชั้น 3","N","N","N","กรุงเทพมหานคร","เขตคลองเตย","http://www.khongkwanclinic.com","https://www.facebook.com/khongkwanclinic/","",13.7299803,100.5684567,"N","N","N","N","Y"
786,"โรงพยาบาลเวิลด์เมดิคอล","World Medical Hospital","โรงพยาบาลเวิลด์เมดิคอล","N","N","N","นนทบุรี","ปากเกร็ด","http://theworldmedicalcenter.com/th/new_site/index","https://www.facebook.com/worldmedicalhospital/","02 836 9999",13.9049803,100.5242396,"N","N","Y","N","N"
787,"พรเกษม คลินิก สยามสแควร์","Pornkasem Clinic @ Siam Square","พรเกษม คลินิก สยามสแควร์","N","N","N","กรุงเทพมหานคร","เขตปทุมวัน","http://www.pornkasemclinic.com","https://www.facebook.com/pksclinic/","02-252-1317",13.7457602,100.5289052,"N","N","N","N","Y"
788,"พรเกษม คลินิก งามวงศ์วาน","Pornkasem Clinic @ Nhamwongwan","พรเกษม คลินิก งามวงศ์วาน","N","N","N","นนทบุรี","เมืองนนทบุรี","http://www.pornkasemclinic.com","https://www.facebook.com/pksclinic/","095-361-2515",13.8561267,100.5424088,"N","N","N","N","Y"
789,"พรเกษม คลินิก ซีคอนสแควร์ ชั้น 3","Pornkasem Clinic @ Seacon Square 3rd Floor","พรเกษม คลินิก ซีคอนสแควร์ ชั้น 3","N","N","N","กรุงเทพมหานคร","เขตประเวศ","http://www.pornkasemclinic.com","https://www.facebook.com/pksclinic/","02-721-9951/091-765-",13.6950001,100.6466108,"N","N","N","N","Y"
790,"พรเกษม คลินิก ซีคอน บางแค  ชั้น 3","Pornkasem Clinic @ Seacon Bangkae 3rd Floor","พรเกษม คลินิก ซีคอน บางแค  ชั้น 3","N","N","N","กรุงเทพมหานคร","เขตภาษีเจริญ","http://www.pornkasemclinic.com","https://www.facebook.com/pksclinic/","02-458-2655/091-765-",13.7123863,100.4326433,"N","N","N","N","Y"
791,"พรเกษม คลินิก พรอมานาด รามอินทรา ชั้น 4","Pornkasem Clinic @ The Promenade Ramintra 4th Floor","พรเกษม คลินิก พรอมานาด รามอินทรา ชั้น 4","N","N","N","กรุงเทพมหานคร","เขตคันนายาว","http://www.pornkasemclinic.com","https://www.facebook.com/pksclinic/","02-130-4230/091-767-",13.8269599,100.6769515,"N","N","N","N","Y"
792,"พรเกษม คลินิก ฟิวเจอร์พาร์ค รังสิต ชั้น 1","Pornkasem Clinic @ Future Park Rangsit 1st Floor","พรเกษม คลินิก ฟิวเจอร์พาร์ค รังสิต ชั้น 1","N","N","N","ปทุมธานี","ธัญบุรี","http://www.pornkasemclinic.com","https://www.facebook.com/pksclinic/","02-958-0777/083-042-",13.9893137,100.6174713,"N","N","N","N","Y"
793,"พรเกษม คลินิก ยูเนียนมอลล์ ชั้น G","Pornkasem Clinic @ Union Mall G Floor","พรเกษม คลินิก ยูเนียนมอลล์ ชั้น G","N","N","N","กรุงเทพมหานคร","เขตจตุจักร","http://www.pornkasemclinic.com","https://www.facebook.com/pksclinic/","02-513-4256/02-513-4",13.8137158,100.5618551,"N","N","N","N","Y"
794,"พรเกษม คลินิก สยามสแควร์วัน ชั้น 6","Pornkasem Clinic @ Siam Square One 6th Floor","พรเกษม คลินิก สยามสแควร์วัน ชั้น 6","N","N","N","กรุงเทพมหานคร","เขตปทุมวัน","http://www.pornkasemclinic.com","https://www.facebook.com/pksclinic/","02-115-1355/091-763-",13.7450671,100.5315365,"N","N","N","N","Y"
795,"พรเกษม คลินิก เซ็นทรัลบางนา ชั้น 5","Pornkasem Clinic @ Central Bangna  5th Floor","พรเกษม คลินิก เซ็นทรัลบางนา ชั้น 5","N","N","N","กรุงเทพมหานคร","เขตบางนา","http://www.pornkasemclinic.com","https://www.facebook.com/pksclinic/","02-361-1132/02-745-7",13.6701954,100.6321957,"N","N","N","N","Y"
796,"พรเกษม คลินิก เซ็นทรัลปิ่นเกล้า ชั้น 4","Pornkasem Clinic @ Central Pinklao 4th Floor","พรเกษม คลินิก เซ็นทรัลปิ่นเกล้า ชั้น 4","N","N","N","กรุงเทพมหานคร","เขตบางพลัด","http://www.pornkasemclinic.com","https://www.facebook.com/pksclinic/","02-884-9290/02-884-8",13.7784985,100.4757634,"N","N","N","N","Y"
797,"พรเกษม คลินิก เซ็นทรัลพระราม 2 ชั้น 3","Pornkasem Clinic @ Central Rama 2 3st Floor","พรเกษม คลินิก เซ็นทรัลพระราม 2 ชั้น 3","N","N","N","กรุงเทพมหานคร","เขตบางขุนเทียน","http://www.pornkasemclinic.com","https://www.facebook.com/pksclinic/","02-872-4744/02-872-4",13.6641075,100.4379781,"N","N","N","N","Y"
798,"พรเกษม คลินิก เซ็นทรัลพระราม 3 ชั้น 4","Pornkasem Clinic @ Central Rama 3 4th Floor","พรเกษม คลินิก เซ็นทรัลพระราม 3 ชั้น 4","N","N","N","กรุงเทพมหานคร","เขตยานนาวา","http://www.pornkasemclinic.com","https://www.facebook.com/pksclinic/","02-673-7128/02-673-7",13.6979269,100.5376123,"N","N","N","N","Y"
799,"พรเกษม คลินิก เซ็นทรัลศาลายา ชั้น 2","Pornkasem Clinic @ Central Salaya 2nd Floor","พรเกษม คลินิก เซ็นทรัลศาลายา ชั้น 2","N","N","N","นครปฐม","สามพราน","http://www.pornkasemclinic.com","https://www.facebook.com/pksclinic/","02-429-6904/091-767-",13.7872183,100.2764261,"N","N","N","N","Y"
800,"พรเกษม คลินิก เซ็นทรัลแจ้งวัฒนะ ชั้น 3","Pornkasem Clinic @ Central Changwattana 3st Floor","พรเกษม คลินิก เซ็นทรัลแจ้งวัฒนะ ชั้น 3","N","N","N","นนทบุรี","ปากเกร็ด","http://www.pornkasemclinic.com","https://www.facebook.com/pksclinic/","02-101-0876/091-764-",13.9031587,100.5288996,"N","N","N","N","Y"
801,"พรเกษม คลินิก เซ็นทรัลเวสต์เกต ชั้น 2","Pornkasem Clinic @ Central Plaza Westgate 2nd Floor","พรเกษม คลินิก เซ็นทรัลเวสต์เกต ชั้น 2","N","N","N","นนทบุรี","บางใหญ่","http://www.pornkasemclinic.com","https://www.facebook.com/pksclinic/","02-108-4144/091-767-",13.8771007,100.4116286,"N","N","N","N","Y"
802,"พรเกษม คลินิก เซ็นเตอร์วัน ชั้น 1","Pornkasem Clinic @ Center One 1st Floor","พรเกษม คลินิก เซ็นเตอร์วัน ชั้น 1","N","N","N","กรุงเทพมหานคร","เขตราชเทวี","http://www.pornkasemclinic.com","https://www.facebook.com/pksclinic/","02-644-7069/091-764-",13.7638935,100.539103,"N","N","N","N","Y"
803,"พรเกษม คลินิก เดอะมอลล์ ท่าพระ ชั้น 2","Pornkasem Clinic @ The Mall Thapra 2nd Floor","พรเกษม คลินิก เดอะมอลล์ ท่าพระ ชั้น 2","N","N","N","กรุงเทพมหานคร","เขตธนบุรี","http://www.pornkasemclinic.com","https://www.facebook.com/pksclinic/","02-477-9346/02-477-9",13.7131883,100.4795103,"N","N","N","N","Y"
804,"พรเกษม คลินิก เดอะมอลล์ บางกะปิ ชั้น 1","Pornkasem Clinic @ The Mall Bangkapi 1st Floor","พรเกษม คลินิก เดอะมอลล์ บางกะปิ ชั้น 1","N","N","N","กรุงเทพมหานคร","เขตบางกะปิ","http://www.pornkasemclinic.com","https://www.facebook.com/pksclinic/","02-734 -1376/02-734",13.7692623,100.642994,"N","N","N","N","Y"
805,"พรเกษม คลินิก เดอะมอลล์ บางแค ชั้น 2","Pornkasem Clinic @ The Mall Bangkae 2nd Floor","พรเกษม คลินิก เดอะมอลล์ บางแค ชั้น 2","N","N","N","กรุงเทพมหานคร","เขตบางแค","http://www.pornkasemclinic.com","https://www.facebook.com/pksclinic/","02-454-9467/02-454-9",13.7122761,100.4084698,"N","N","N","N","Y"
806,"พรเกษม คลินิก เดอะมอลล์ รามคำแหง ชั้น 1","Pornkasem Clinic @ The Mall Ramkhamhaeng 1st Floor","พรเกษม คลินิก เดอะมอลล์ รามคำแหง ชั้น 1","N","N","N","กรุงเทพมหานคร","เขตบางกะปิ","http://www.pornkasemclinic.com","https://www.facebook.com/pksclinic/","02-454-9467/02-454-9",13.7525008,100.6099083,"N","N","N","N","Y"
808,"พรเกษม คลินิก เอสพลานาด รัชดาภิเษก ชั้น M","Pornkasem Clinic @ Esplanade Ratchadapisek M Floor","พรเกษม คลินิก เอสพลานาด รัชดาภิเษก ชั้น M","N","N","N","กรุงเทพมหานคร","เขตดินแดง","http://www.pornkasemclinic.com","https://www.facebook.com/pksclinic/","02-660-9222/02-660-9",13.7665747,100.5695011,"N","N","N","N","Y"
811,"BM clinic สาขา เซ็นเตอร์วันอนุสาวรีย์ชัยสมรภูมิ","BM CLINIC-center one victory monument","BM clinic สาขา เซ็นเตอร์วันอนุสาวรีย์ชัยสมรภูมิ","N","N","N","กรุงเทพมหานคร","เขตราชเทวี","","https://www.facebook.com/BMCenterOne/","080-0172800",13.7642083,100.539743,"Y","N","N","N","N"
814,"พีเฟชคลินิก","P-face clinic","พีเฟชคลินิก","N","N","N","สงขลา","หาดใหญ่","","https://web.facebook.com/P.faceclinic/","096-6591451",6.9985131,100.476758,"Y","N","N","N","N"
815,"ดี สกิน เลเซอร์คลินิก","D-Skin laser clinic","ดี สกิน เลเซอร์คลินิก","N","N","N","นครปฐม","เมืองนครปฐม","","https://m.facebook.com/DSkinLaser/","063-079-9000",13.8169596,100.0554118,"Y","Y","Y","Y","N"
816,"แกลมมินโน่ คลินิก","Glaminno Clinic","แกลมมินโน่ คลินิก","N","N","N","กรุงเทพมหานคร","เขตสายไหม","","https://m.facebook.com/glaminnoclinic","094-495-6644",13.8885991,100.6553034,"Y","Y","N","N","Y"
817,"เอลิซซ่า คลินิก เซ็นทรัล พระราม 3 ชั้น 4","Alyssa Clinic Central Rama3 4th Floor","เอลิซซ่า คลินิก เซ็นทรัล พระราม 3 ชั้น 4","N","N","N","กรุงเทพมหานคร","เขตยานนาวา","http://alyssaclinic.com/","https://www.facebook.com/alyssaclinic/","02-673-6428",13.6976976,100.537483,"Y","Y","Y","Y","Y"
822,"เดอะคลีนิกค์ เดอะมอลล์ท่าพระ","THE KLINIQUE @ The Mall Thapra","เดอะคลีนิกค์ เดอะมอลล์ท่าพระ","N","N","N","กรุงเทพมหานคร","เขตธนบุรี","http://www.theklinique.com/","https://www.facebook.com/TheKliniqueMedicalClinic/","080-000-9800",13.7156167,100.4813205,"Y","Y","Y","N","Y"
823,"เดอะคลีนิกค์ เดอะมอลล์โคราช","THE KLINIQUE @ The Mall Korat","เดอะคลีนิกค์ เดอะมอลล์โคราช","N","N","N","นครราชสีมา","เมืองนครราชสีมา","http://www.theklinique.com/","https://www.facebook.com/TheKliniqueMedicalClinic/","080-000-9800",14.9969664,102.1163407,"Y","Y","Y","N","Y"
824,"เดอะคลีนิกค์ เซ็นทรัลอุดรธานี","THE KLINIQUE @ Central Udonthani","เดอะคลีนิกค์ เซ็นทรัลอุดรธานี","N","N","N","อุดรธานี","เมืองอุดรธานี","http://www.theklinique.com/","https://www.facebook.com/TheKliniqueMedicalClinic/","080-000-9800",17.4048509,102.7999276,"Y","Y","Y","N","Y"
825,"เดอะคลีนิกค์ เซ็นทรัลภูเก็ต","THE KLINIQUE @ Central Phuket","เดอะคลีนิกค์ เซ็นทรัลภูเก็ต","N","N","N","ภูเก็ต","เมืองภูเก็ต","http://www.theklinique.com/","https://www.facebook.com/TheKliniqueMedicalClinic/","080-000-9800",7.8916459,98.3681319,"Y","Y","Y","N","Y"
826,"ด็อกเตอร์ไลฟ์ คลินิก ซีคอนสแควร์","Doctor Life Clinic @Seacon Square","ด็อกเตอร์ไลฟ์ คลินิก ซีคอนสแควร์","N","N","N","กรุงเทพมหานคร","เขตประเวศ","http://www.doctorlifeclinic.com","https://www.facebook.com/doctorlifeclinic/","02-720-1620-21",13.6940285,100.6484802,"N","N","N","N","Y"
828,"ด็อกเตอร์ไลฟ์ คลินิก เซ็นทรัลพระราม 2","Doctor Life Clinic @Central Rama 2","ด็อกเตอร์ไลฟ์ คลินิก เซ็นทรัลพระราม 2","N","N","N","กรุงเทพมหานคร","เขตบางขุนเทียน","http://www.doctorlifeclinic.com","https://www.facebook.com/doctorlifeclinic/","02-872-4673",13.664923,100.4451641,"N","N","N","N","Y"
829,"ด็อกเตอร์ไลฟ์ คลินิก เซ็นทรัลปิ่นเกล้า","Doctor Life Clinic @Central Pinklao","ด็อกเตอร์ไลฟ์ คลินิก เซ็นทรัลปิ่นเกล้า","N","N","N","กรุงเทพมหานคร","เขตบางกอกน้อย","http://www.doctorlifeclinic.com","https://www.facebook.com/doctorlifeclinic/","02-884-8363/66",13.7782066,100.4416344,"N","N","N","N","Y"
830,"ด็อกเตอร์ไลฟ์ คลินิก เซ็นทรัลพระราม 9","Doctor Life Clinic @Central Rama 9","ด็อกเตอร์ไลฟ์ คลินิก เซ็นทรัลพระราม 9","N","N","N","กรุงเทพมหานคร","เขตห้วยขวาง","http://www.doctorlifeclinic.com","https://www.facebook.com/doctorlifeclinic/","02-160-3845-46",13.7578979,100.5658075,"N","N","N","N","Y"
832,"ด็อกเตอร์ไลฟ์ คลินิก เดอะมอลล์งามวงศ์วาน","Doctor Life Clinic @The Mall Ngamwongwan","ด็อกเตอร์ไลฟ์ คลินิก เดอะมอลล์งามวงศ์วาน","N","N","N","นนทบุรี","เมืองนนทบุรี","http://www.doctorlifeclinic.com","https://www.facebook.com/doctorlifeclinic/","02-550-0544/46",13.9882617,100.6184997,"N","N","N","N","Y"
833,"ด็อกเตอร์ไลฟ์ คลินิก เดอะมอลล์บางกะปิ","Doctor Life Clinic @The Mall Bangkapi","ด็อกเตอร์ไลฟ์ คลินิก เดอะมอลล์บางกะปิ","N","N","N","กรุงเทพมหานคร","เขตบางกะปิ","http://www.doctorlifeclinic.com","https://www.facebook.com/doctorlifeclinic/","02-704-9414-6",13.7664015,100.6423452,"N","N","N","N","Y"
834,"ด็อกเตอร์ไลฟ์ คลินิก เดอะมอลล์บางแค","Doctor Life Clinic @The Mall Bangkae","ด็อกเตอร์ไลฟ์ คลินิก เดอะมอลล์บางแค","N","N","N","กรุงเทพมหานคร","เขตบางแค","http://www.doctorlifeclinic.com","https://www.facebook.com/doctorlifeclinic/","02-803-8376-7",13.7137042,100.4080843,"N","N","N","N","Y"
835,"ด็อกเตอร์ไลฟ์ คลินิก เอ็มควอเทียร์","Doctor Life Clinic @Emquartier","ด็อกเตอร์ไลฟ์ คลินิก เอ็มควอเทียร์","N","N","N","กรุงเทพมหานคร","เขตวัฒนา","http://www.doctorlifeclinic.com","https://www.facebook.com/doctorlifeclinic/","02-003-6196",13.7315144,100.5693995,"N","N","N","N","Y"
836,"เพียว คลินิก","Pure Clinic Chiangmai by Dr.Ben","เพียว คลินิก","N","N","N","เชียงใหม่","เมืองเชียงใหม่","","https://www.facebook.com/PureClinicCNX/","064 998 9965",18.8094777,98.9707708,"Y","Y","N","N","N"
837,"เดอโช คลินิก","De Show Clinic","เดอโช คลินิก","N","N","N","นครราชสีมา","เมืองนครราชสีมา","","https://www.facebook.com/De-Show-Clinic-591962894662151/","0623437357",15.0019418,102.0972857,"N","N","Y","Y","Y"
838,"แบงคอค บีอาเอ็ม เมดิคอล คลับ","Bangkok BRM Medical Club","แบงคอค บีอาเอ็ม เมดิคอล คลับ","N","N","N","กรุงเทพมหานคร","เขตบางรัก","http://www.brmmedicalclub.com","https://www.facebook.com/BangkokBRMmedicalclub","092 4656462",13.7249003,100.5343249,"N","N","Y","N","N"
840,"พรเกษม คลินิก นครปฐม","Pornkasem Clinic @ Nakhonpathom","พรเกษม คลินิก นครปฐม","N","N","N","นครปฐม","เมืองนครปฐม","http://www.pornkasemclinic.com","https://www.facebook.com/pksclinic/","091-764-8623",13.8173994,100.0579879,"N","N","N","N","Y"
841,"พรเกษม คลินิก อยุธยาซิตี้พาร์ค","Pornkasem Clinic @ Ayutthaya City Park","พรเกษม คลินิก อยุธยาซิตี้พาร์ค","N","N","N","พระนครศรีอยุธยา","พระนครศรีอยุธยา","http://www.pornkasemclinic.com","https://www.facebook.com/pksclinic/","091-767-1016",14.3371566,100.6090172,"N","N","N","N","Y"
842,"พรเกษม คลินิก เซ็นทรัล ชลบุรี","Pornkasem Clinic @ Central Chonburi","พรเกษม คลินิก เซ็นทรัล ชลบุรี","N","N","N","ชลบุรี","เมืองชลบุรี","http://www.pornkasemclinic.com","https://www.facebook.com/pksclinic/","091-764-6761",13.3378851,100.9695792,"N","N","N","N","Y"
843,"พรเกษม คลินิก เซ็นทรัลเฟสติวัล พัทยา บีช","Pornkasem Clinic @ Central Festival Pattaya Beach","พรเกษม คลินิก เซ็นทรัลเฟสติวัล พัทยา บีช","N","N","N","ชลบุรี","บางละมุง","http://www.pornkasemclinic.com","https://www.facebook.com/pksclinic/","091-765-1430",12.9348578,100.8837619,"N","N","N","N","Y"
844,"พรเกษม คลินิก เซ็นทรัลเฟสติวัล หาดใหญ่","Pornkasem Clinic @ Central Festival Hatyai","พรเกษม คลินิก เซ็นทรัลเฟสติวัล หาดใหญ่","N","N","N","สงขลา","หาดใหญ่","http://www.pornkasemclinic.com","https://www.facebook.com/pksclinic/","091-765-6431",6.9918221,100.4826567,"N","N","N","N","Y"
845,"พรเกษม คลินิก เซ็นทรัล เฟสติวัล เชียงใหม่","Pornkasem Clinic @ Central Festival Chaingmai","พรเกษม คลินิก เซ็นทรัล เฟสติวัล เชียงใหม่","N","N","N","เชียงใหม่","เมืองเชียงใหม่","http://www.pornkasemclinic.com","https://www.facebook.com/pksclinic/","091-765-6045",18.8078642,99.017789,"N","N","N","N","Y"
846,"พรเกษม คลินิก เดอะมอลล์ นครราชสีมา","Pornkasem Clinic @ The Mall Nakhon Ratchasima","พรเกษม คลินิก เดอะมอลล์ นครราชสีมา","N","N","N","นครราชสีมา","เมืองนครราชสีมา","http://www.pornkasemclinic.com","https://www.facebook.com/pksclinic/","091-765-5105",14.98046,102.0772171,"N","N","N","N","Y"
849,"เฟสไทม์ คลินิก","FaceTime Clinic","เฟสไทม์ คลินิก","N","N","N","เชียงใหม่","เมืองเชียงใหม่","http://www.facetime-clinic.com","https://web.facebook.com/Facetimeclinic/","084 611 4668",18.829487,99.01378,"N","N","Y","Y","N"
850,"ณัฐชญา คลินิก","Natchaya Clinic","ณัฐชญา คลินิก","N","N","N","กรุงเทพมหานคร","เขตคันนายาว","","https://www.facebook.com/natchayaconsultant/","084 422 2962",13.7903284,100.6788338,"Y","Y","Y","Y","N"
851,"วานิลลา คลินิก สาขาอโศก","Vanilla clinic Asoke","วานิลลา คลินิก สาขาอโศก","N","N","N","กรุงเทพมหานคร","เขตวัฒนา","","https://www.facebook.com/vanillaclinic/","095-2497914",13.7482985,100.5643741,"N","N","Y","Y","N"
852,"วานิลลา คลินิก สาขามหาชัย","Vanilla clinic Mahachai","วานิลลา คลินิก สาขามหาชัย","N","N","N","สมุทรสาคร","กระทุ่มแบน","","https://www.facebook.com/vanillaclinic/","095-9058222",13.5733747,100.2723717,"N","N","Y","Y","N"
853,"ดีด้า คลินิก","D-Da Clinic","ดีด้า คลินิก","N","N","N","กรุงเทพมหานคร","เขตห้วยขวาง","https://www.facebook.com/ddaclinicofficial/","","090 896 7666",13.778787,100.58078,"Y","N","N","N","N"
854,"เดซี่ ดิว่า คลินิก สาขาเซ็นทรัลพลาซา ลาดพร้าว ชั้น 7","Daisy Diva Clinic @ Central Plaza Ladprao","เดซี่ ดิว่า คลินิก สาขาเซ็นทรัลพลาซา ลาดพร้าว ชั้น 7","N","N","N","กรุงเทพมหานคร","เขตจตุจักร","http://www.immaginiclinic.com","https://www.facebook.com/ImmaginiDaisyDivaClinic/","02-059-0478-9",13.8173462,100.5617002,"Y","Y","N","N","Y"
855,"เดซี่ ดิว่า คลินิก สาขาสยามสแควร์ วัน ชั้น 6","Daisy Diva Clinic @ Siam Square One","เดซี่ ดิว่า คลินิก สาขาสยามสแควร์ วัน ชั้น 6","N","N","N","กรุงเทพมหานคร","เขตปทุมวัน","http://www.immaginiclinic.com","https://www.facebook.com/ImmaginiDaisyDivaClinic/","02-115-1428 - 9",13.7451048,100.5338286,"Y","Y","N","N","Y"
856,"อิมเมจินี่ คลินิก สาขาเซ็นทรัลเวิลด์ ชั้น 5","Immagini Clinic @ Central World","อิมเมจินี่ คลินิก สาขาเซ็นทรัลเวิลด์ ชั้น 5","N","N","N","กรุงเทพมหานคร","เขตปทุมวัน","http://www.immaginiclinic.com","https://www.facebook.com/ImmaginiDaisyDivaClinic/","02-251-7451 - 2",13.7473476,100.538903,"Y","Y","N","N","Y"
857,"อิมเมจินี่ คลินิก สาขาดิ เอ็มควอเทียร์ ชั้น 4 อาคาร Helix","Immagini Clinic @ EmQuartier","อิมเมจินี่ คลินิก สาขาดิ เอ็มควอเทียร์ ชั้น 4 อาคาร Helix","N","N","N","กรุงเทพมหานคร","เขตวัฒนา","http://www.immaginiclinic.com","https://www.facebook.com/ImmaginiDaisyDivaClinic/","02-003-6188 - 9",13.7317237,100.5691162,"Y","Y","N","N","Y"
858,"อิมเมจินี่ คลินิก สาขาเซ็นทรัลพลาซา แกรนด์ พระราม 9 ชั้น 9","Immagini Clinic @ Central Plaza Grand Rama IX","อิมเมจินี่ คลินิก สาขาเซ็นทรัลพลาซา แกรนด์ พระราม 9 ชั้น 9","N","N","N","กรุงเทพมหานคร","เขตห้วยขวาง","http://www.immaginiclinic.com","https://www.facebook.com/ImmaginiDaisyDivaClinic/","02-160-3984 - 5",13.758206,100.56653,"Y","Y","N","N","Y"
859,"อิมเมจินี่ คลินิก สาขาเซ็นทรัลพลาซา บางนา ชั้น 3","Immagini Clinic @ Central Bangna","อิมเมจินี่ คลินิก สาขาเซ็นทรัลพลาซา บางนา ชั้น 3","N","N","N","กรุงเทพมหานคร","เขตบางนา","http://www.immaginiclinic.com","https://www.facebook.com/ImmaginiDaisyDivaClinic/","02-745-7390 - 1",13.6691794,100.634096,"Y","Y","N","N","Y"
860,"อิมเมจินี่ คลินิก สาขาเซ็นทรัลพลาซา ลาดพร้าว ชั้น 6","Immagini Clinic @ Central Plaza Ladprao","อิมเมจินี่ คลินิก สาขาเซ็นทรัลพลาซา ลาดพร้าว ชั้น 6","N","N","N","กรุงเทพมหานคร","เขตจตุจักร","http://www.immaginiclinic.com","https://www.facebook.com/ImmaginiDaisyDivaClinic/","02-937-1288 - 9",13.816577,100.561487,"Y","Y","N","N","Y"
861,"อิมเมจินี่ คลินิก สาขาเดอะมอลล์บางกะปิ ชั้น 1","Immagini Clinic @ The Mall Bangkapi","อิมเมจินี่ คลินิก สาขาเดอะมอลล์บางกะปิ ชั้น 1","N","N","N","กรุงเทพมหานคร","เขตบางกะปิ","http://www.immaginiclinic.com","https://www.facebook.com/ImmaginiDaisyDivaClinic/","02-734-3536 - 7",13.7654617,100.6422472,"Y","Y","N","N","Y"
862,"อิมเมจินี่ คลินิก สาขาเซ็นทรัลพลาซา ปิ่นเกล้า ชั้น 6 ทาวเวอร์ B","Immagini Clinic @ Central Plaza Pinklao","อิมเมจินี่ คลินิก สาขาเซ็นทรัลพลาซา ปิ่นเกล้า ชั้น 6 ทาวเวอร์ B","N","N","N","กรุงเทพมหานคร","เขตบางกอกน้อย","http://www.immaginiclinic.com","https://www.facebook.com/ImmaginiDaisyDivaClinic/","02-884-9252 - 3",13.777708,100.4740903,"Y","Y","N","N","Y"
863,"อิมเมจินี่ คลินิก สาขาเซ็นทรัลพลาซา พระราม 2 ชั้น 2","Immagini Clinic @ Central Plaza Rama 2","อิมเมจินี่ คลินิก สาขาเซ็นทรัลพลาซา พระราม 2 ชั้น 2","N","N","N","กรุงเทพมหานคร","เขตบางขุนเทียน","http://www.immaginiclinic.com","https://www.facebook.com/ImmaginiDaisyDivaClinic/","02-872-4167 - 8",13.6637145,100.4373834,"Y","Y","N","N","Y"
864,"วีพลัส คลินิก สาขาเลย","VPLUS CLINIC@Loei","วีพลัส คลินิก สาขาเลย","N","N","N","เลย","เมืองเลย","","https://m.facebook.com/Vplusclinic/?locale2=th_TH","0637146442",17.4878582,101.7273845,"N","N","Y","N","N"
865,"วีพลัส คลินิก สาขาอุบลราชธานี","VPLUS CLINIC@Ubonratchathani","วีพลัส คลินิก สาขาอุบลราชธานี","N","N","N","อุบลราชธานี","เมืองอุบลราชธานี","","https://www.facebook.com/vplusubon/","080 363 4589",15.2355715,104.8579155,"N","N","Y","N","N"
866,"วีพลัส คลินิก สาขาอุดรธานี","VPLUS CLINIC@Udonthani","วีพลัส คลินิก สาขาอุดรธานี","N","N","N","อุดรธานี","เมืองอุดรธานี","","https://m.facebook.com/vplusclinicudonthani/","0969965707",17.4056771,102.7799347,"N","N","Y","N","N"
867,"ธงชัย การแพทย์","THONGCHAI CLINIC","ธงชัย การแพทย์","N","N","N","สุรินทร์","เมืองสุรินทร์","","https://N/A","044 513115",14.8889995,103.4923221,"Y","N","N","N","N"
868,"วาย คลินิก","Y CLINIC","วาย คลินิก","N","N","N","อุบลราชธานี","เมืองอุบลราชธานี","","https://www.facebook.com/yclinicubon/?rf=744377635900112","0909592629",15.2730172,104.8442001,"N","N","Y","N","N"
869,"ยูดี คลินิก","UD CLINIC","ยูดี คลินิก","N","N","N","อุดรธานี","เมืองอุดรธานี","","https://m.facebook.com/UDclinicUdonthani/?locale2=th_TH","0906659564",17.4157125,102.8001915,"N","N","Y","N","N"
872,"กราเนด้าคลินิก เซ็นทรัลปิ่นเกล้า","Graneda clinic @ Central Pinklao","กราเนด้าคลินิก เซ็นทรัลปิ่นเกล้า","N","N","N","กรุงเทพมหานคร","เขตบางกอกน้อย","http://www.granedathailand.com/","https://www.facebook.com/GranedaClinic/","02-005-7442",13.7773707,100.4736497,"N","N","Y","N","N"
873,"Everyday Clinic สาขา 1","Everyday Clinic สาขา 1","Everyday Clinic สาขา 1","N","N","N","กรุงเทพมหานคร","เขตสวนหลวง","","https://www.facebook.com/Everydayclinic/","020059810",13.7116624,100.6357788,"Y","Y","N","N","N"
879,"คลินิกเวชกรรมราชธานีบิวตี้ อยุธยา","Ratchathanee Beauty Medical Clinic","คลินิกเวชกรรมราชธานีบิวตี้ อยุธยา","N","N","N","พระนครศรีอยุธยา","พระนครศรีอยุธยา","","https://web.facebook.com/pg/%E0%B8%84%E0%B8%A5%E0%B8%B4%E0%B8%99%E0%B8%B4%E0%B8%81%E0%B9%80%E0%B8%A7%E0%B8%8A%E0%B8%81%E0%B8%A3%E0%B8%A3%E0%B8%A1%E0%B8%A3%E0%B8%B2%E0%B8%8A%E0%B8%98%E0%B8%B2%E0%B8%99%","035-335-990",14.342596,100.6088605,"N","N","Y","N","N"
880,"พัทธมนคลินิกเวชกรรม","Pathamon Clinic","พัทธมนคลินิกเวชกรรม","N","N","N","กรุงเทพมหานคร","เขตบางซื่อ","","https://web.facebook.com/pathamonclinic/?_rdc=1&_rdr","061-238-9494",13.8065704,100.521925,"Y","Y","Y","Y","N"
881,"โดโซะ คลินิก สาขาสีลม","Dozo Clinic @Silom","โดโซะ คลินิก สาขาสีลม","N","N","N","กรุงเทพมหานคร","เขตบางรัก","","https://www.facebook.com/dozo.clinic.dozo/","02 117 9609",13.7289761,100.5211828,"N","N","Y","N","N"
882,"โดโซะ คลินิก สาขาพระราม 9","Dozo Clinic @Rama 9","โดโซะ คลินิก สาขาพระราม 9","N","N","N","กรุงเทพมหานคร","เขตจตุจักร","","https://www.facebook.com/dozo.clinic.dozo/","065 868 9953/02 612",13.8452251,100.5673777,"N","N","Y","N","N"
883,"โดโซะ คลินิก สาขาพระราม 2","Dozo Clinic @Rama 2","โดโซะ คลินิก สาขาพระราม 2","N","N","N","กรุงเทพมหานคร","เขตบางขุนเทียน","","https://www.facebook.com/dozo.clinic.dozo/","02 087 9233",13.664923,100.4451641,"N","N","Y","N","N"
887,"รัตนนรี คลินิก","Rattananaree Clinic","รัตนนรี คลินิก","N","N","N","นนทบุรี","ปากเกร็ด","","https://web.facebook.com/Rattananaree-Clinic-by-หมอแพร-132905057431998","061-748-4422",13.9220312,100.4740858,"Y","Y","Y","Y","N"
888,"คีชษ์ คลินิก สาขาสยามสแควร์วัน","KIHS Clinic @SIAM SQUARE ONE","คีชษ์ คลินิก สาขาสยามสแควร์วัน","N","N","N","กรุงเทพมหานคร","เขตปทุมวัน","https://www.kihsclinic.com/index.php","https://www.facebook.com/kihsclinic","02-042-4058",13.7449103,100.5334288,"Y","Y","N","N","N"
927,"โบนิต้า เอ็กคลูซีฟ สาขา ฟิวเจอร์พาร์ค รังสิต","Bonita Exclusive @Central Future Park Rungsit","โบนิต้า เอ็กคลูซีฟ สาขา ฟิวเจอร์พาร์ค รังสิต","N","N","N","ปทุมธานี","ธัญบุรี","http://www.bonitaexclusive.com/","https://www.facebook.com/Bonita-Exclusive-626690197474018/","02-150-9221",13.9878574,100.618433,"Y","N","N","N","Y"
929,"โบนิต้า เอ็กคลูซีฟ สาขา เซ็นทรัลพลาซา พระราม 3","Bonita Exclusive @Central Plaza Rama 3","โบนิต้า เอ็กคลูซีฟ สาขา เซ็นทรัลพลาซา พระราม 3","N","N","N","กรุงเทพมหานคร","เขตยานนาวา","http://www.bonitaexclusive.com/","https://www.facebook.com/Bonita-Exclusive-626690197474018/","02-164-0112",13.6881913,100.5485069,"Y","N","N","N","Y"
931,"โบนิต้า เอ็กคลูซีฟ สาขา เซ็นทรัลพลาซา เวสต์เกต","Bonita Exclusive @Central Plaza West Gate","โบนิต้า เอ็กคลูซีฟ สาขา เซ็นทรัลพลาซา เวสต์เกต","N","N","N","นนทบุรี","บางใหญ่","http://www.bonitaexclusive.com/","https://www.facebook.com/Bonita-Exclusive-626690197474018/","02-194-2964",13.8774219,100.4122352,"Y","N","N","N","Y"
932,"นิวเจน คลินิก","New Gen Clinic","นิวเจน คลินิก","N","N","N","กรุงเทพมหานคร","เขตบางนา","","https://m.facebook.com/newgenclinicbangna/","080 999 7700",13.6712453,100.6363347,"N","N","Y","N","N"
933,"รัมภาดา คลินิก","Rampada Clinic","รัมภาดา คลินิก","N","N","N","กรุงเทพมหานคร","เขตบางนา","http://www.rampada.com","https://web.facebook.com/pages/Rampada-Clinic/194599057223084?_rdc=1&_rdr","02 744 1191",13.670195,100.6373985,"Y","Y","N","N","N"
935,"เอส45 คลินิก","S45 Clinic","เอส45 คลินิก","N","N","N","กรุงเทพมหานคร","เขตวัฒนา","","https://web.facebook.com/S45CLINIC?_rdc=1&_rdr","092 318 4500",13.728451,100.5728837,"N","N","Y","N","N"
936,"วี บูส คลินิก","Vboost Clinic","วี บูส คลินิก","N","N","N","กรุงเทพมหานคร","เขตสะพานสูง","https://www.vboostbkk.com/","https://www.facebook.com/VBoostClinic/","061-669-6693",13.7742877,100.670825,"N","N","N","N","Y"
938,"แกรนด์มาสเตอร์ คลินิก","GRANDMASTER CLINIC","แกรนด์มาสเตอร์ คลินิก","N","N","N","นนทบุรี","เมืองนนทบุรี","https://www.grandmasterclinic.com/","https://www.facebook.com/grandmasterclinic","021016818",13.869576200000001,100.4674531,"Y","N","Y","N","N"
